id,code,name,city,country,subd,elevation,lat,lon,tz
1,06A,Moton Field Municipal Airport,Tuskegee,US,Alabama,264.0,32.4604722222222,-85.6800277777778,America/Chicago
2,08A,Wetumpka Municipal Airport,Wetumpka,US,Alabama,197.1,32.5273333333333,-86.3310277777778,America/Chicago
3,1G4,Grand Canyon West Airport,Peach Springs,US,Arizona,4816.7,35.9861111111111,-113.816916666667,America/Phoenix
4,6B0,Middlebury State Airport,Middlebury,US,Vermont,494.1,43.9864719444444,-73.0955516666667,America/New_York
5,8F3,Crosbyton Municipal Airport,Crosbyton,US,Texas,3018.1,33.6238333333333,-101.240861111111,America/Chicago
6,A02,Deadmans Bay Airport,Deadmans Bay,US,Alaska,0.0,55.11669921875,-131.56689453125,America/Juneau
7,A03,Hallo Bay Airport,Hallo Bay,US,Alaska,0.0,58.89830017089844,-153.18099975585938,America/Anchorage
8,A07,Roland Norton Memorial,Selawik,US,Alaska,0.0,66.60009765625,-159.98599243164062,America/Nome
9,A12,Cinnabar Airport,Cinnabar,US,Alaska,0.0,45.18330001831055,-110.93399810791016,America/Denver
10,A13,Bold Airport,Anchorage,US,Alaska,900.0,61.3413388888889,-148.998880555556,America/Anchorage
11,A23,Bradley Lake Airport,Bradley Lake,US,Alaska,0.0,60.483299255371094,-151.0330047607422,America/Anchorage
12,A26,Adin Airport,Adin,US,California,4234.0,41.1865,-120.954388888889,America/Los_Angeles
13,A27,Pogo Mines Airport,Pogo Mines,US,Alaska,0.0,64.8499984741211,-141.14999389648438,America/Yakutat
14,A28,Fort Bidwell Airport,Fort Bidwell,US,California,4616.0,41.8765,-120.146638888889,America/Los_Angeles
15,A29,Kiluda Bay Airport,Kiluda Bay,US,Alaska,0.0,59.83330154418945,-151.60000610351562,America/Anchorage
16,A37,Kako Airport,Kako,US,Alaska,0.0,59.83330154418945,-152.58399963378906,America/Anchorage
17,A40,Cape Simpson Airport,Cape Simpson,US,Alaska,0.0,70.7332992553711,-157.14999389648438,America/Nome
18,A51,Costin Airport,Port St Joe,US,Florida,13.0,29.7585436111111,-85.2890847222222,America/New_York
19,A52,Silver Salmon Creek Airport,Silver Salmon Creek,US,Alaska,0.0,59.83330154418945,-153.5,America/Anchorage
20,A57,Alsek River Airport,Yakutat,US,Alaska,53.0,59.1991333333333,-138.445877777778,America/Yakutat
21,A71,Bear Cove Farm,Homer,US,Alaska,0.0,59.63330078125,-151.5500030517578,America/Anchorage
22,A72,Chinitna Bay Airport,Chinitna Bay,US,Alaska,0.0,59.83330154418945,-153.5,America/Anchorage
23,A74,Dog Fish Bay,Nanwalek,US,Alaska,0.0,59.43330001831055,-151.8000030517578,America/Anchorage
24,A83,Petrof Point Airport,Petrof Point,US,Alaska,0.0,59.83330154418945,-153.5,America/Anchorage
25,A97,Akulik Air Strip,Akulik,US,Alaska,0.0,59.83330154418945,-153.5,America/Anchorage
26,A98,Deadfall Air Strip,Deadfall,US,Alaska,0.0,59.83330154418945,-153.5,America/Anchorage
27,AA8,Badami,Deadhorse,US,Alaska,0.0,70.19999694824219,-148.4669952392578,America/Anchorage
28,AAN,Al Ain International Airport,Al Ain,AE,Abu Dhabi,869.0,24.2616996765,55.6091995239,Asia/Dubai
29,ABE,Lehigh Valley International Airport,Allentown,US,Pennsylvania,393.7,40.6523627777778,-75.4404058333333,America/New_York
30,ABI,Abilene Regional Airport,Abilene,US,Texas,1790.6,32.4113333333333,-99.6818888888889,America/Chicago
31,ABL,Ambler Airport,Ambler,US,Alaska,292.6,67.1062005555555,-157.857155833333,America/Anchorage
32,ABQ,Albuquerque International Sunport Airport,Albuquerque,US,New Mexico,5354.9,35.0389315555556,-106.608262166667,America/Denver
33,ABR,Aberdeen Regional Airport,Aberdeen,US,South Dakota,1301.9,45.4467980555556,-98.4224408333333,America/Chicago
34,ABV,Nnamdi Azikiwe International Airport,Abuja,NG,FCT,1123.0,9.0067901611,7.2631697655,Africa/Lagos
35,ABY,Southwest Georgia Regional Airport,Albany,US,Georgia,196.2,31.5355277777778,-84.1944722222222,America/New_York
36,ACA,General Juan N Alvarez International Airport,Acapulco,MX,Guerrero,16.0,16.7570991516,-99.7539978027,America/Mexico_City
37,ACC,Kotoka International Airport,Accra,GH,,205.0,5.6051898003,-0.1667860001,Africa/Accra
38,ACK,Nantucket Memorial Airport,Nantucket,US,Massachusetts,47.0,41.2529750555556,-70.0599114166667,America/New_York
39,ACT,Waco Regional Airport,Waco,US,Texas,516.1,31.6121944444444,-97.2303055555556,America/Chicago
40,ACV,California Redwood Coast-Humboldt County Airport,Arcata/Eureka,US,California,222.3,40.9778263888889,-124.108469166667,America/Los_Angeles
41,ACY,Atlantic City International Airport,Atlantic City,US,New Jersey,74.8,39.4575833333333,-74.5771666666667,America/New_York
42,ADA,Adana Airport,Adana,TR,Adana,65.0,36.9822006226,35.2803993225,Europe/Istanbul
43,ADD,Bole International Airport,Addis Ababa,ET,Addis-Ababa,7630.0,8.9778900147,38.7993011475,Africa/Addis_Ababa
44,ADJ,Amman-Marka International Airport,Amman,JO,Amman,2555.0,31.972700119,35.9916000366,Asia/Amman
45,ADK,Adak Airport,Adak Island,US,Alaska,19.5,51.8835827777778,-176.642482222222,America/Adak
46,ADL,Adelaide International Airport,Adelaide,AU,South Australia,20.0,-34.9449996948,138.5310058594,Australia/Adelaide
47,ADQ,Kodiak Airport,Kodiak,US,Alaska,78.7,57.7497938888889,-152.493943611111,America/Anchorage
48,ADS,Addison Airport,Dallas,US,Texas,644.6,32.9685555555556,-96.8364444444444,America/Chicago
49,ADW,Joint Base Andrews Airport,Camp Springs,US,Maryland,279.5,38.8108255555556,-76.8670463888889,America/New_York
50,ADZ,Gustavo Rojas Pinilla International Airport,San Andres,CO,San Andres y Providencia,19.0,12.5836,-81.7112,America/Bogota
51,AET,Allakaket Airport,Allakaket,US,Alaska,441.1,66.5518333333333,-152.622166666667,America/Anchorage
52,AEX,Alexandria International Airport,Alexandria,US,Louisiana,88.1,31.3273716666667,-92.5485558333333,America/Chicago
53,AEY,Akureyri Airport,Akureyri,IS,Northeast,6.0,65.6600036621,-18.0727005005,Atlantic/Reykjavik
54,AF1,,,,,,,,
55,AFK,,,,,,,,
56,AFW,Perot Field/Fort Worth Alliance Airport,Fort Worth,US,Texas,723.0,32.9903858333333,-97.3194405555555,America/Chicago
57,AGC,Allegheny County Airport,Pittsburgh,US,Pennsylvania,1251.5,40.3544376388889,-79.9290466666667,America/New_York
58,AGN,,,,,,,,
59,AGP,Malaga Airport,Malaga,ES,Andalusia,53.0,36.6749000549,-4.4991102219,Europe/Madrid
60,AGS,Augusta Regional At Bush Field,Augusta,US,Georgia,145.7,33.3699444444444,-81.9645,America/New_York
61,AGT,Guarani International Airport,Ciudad del Este,PY,Alto-Parana,846.0,-25.4599990845,-54.8400001526,America/Asuncion
62,AGU,Jesus Teran International Airport,Aguascalientes,MX,Aguascalientes,6112.0,21.7056007385,-102.318000793,America/Mexico_City
63,AHN,Athens/Ben Epps Airport,Athens,US,Georgia,812.2,33.9486402777778,-83.3259141666667,America/New_York
64,AIA,Alliance Municipal Airport,Alliance,US,Nebraska,3930.6,42.0532222222222,-102.80375,America/Denver
65,AIN,Wainwright Airport,Wainwright,US,Alaska,45.1,70.638,-159.99475,America/Anchorage
66,AKB,Atka Airport,Atka,US,Alaska,55.2,52.2205833333333,-174.206194444444,America/Adak
67,AKI,Akiak Airport,Akiak,US,Alaska,39.8,60.9028972222222,-161.230583333333,America/Anchorage
68,AKK,Akhiok Airport,Akhiok,US,Alaska,44.4,56.9386908333333,-154.182555555556,America/Anchorage
69,AKL,Auckland International Airport,Auckland,NZ,Auckland,23.0,-37.0080986023,174.7920074463,Pacific/Auckland
70,AKN,King Salmon Airport,King Salmon,US,Alaska,73.4,58.6764934722222,-156.648691,America/Anchorage
71,AKP,Anaktuvuk Pass Airport,Anaktuvuk Pass,US,Alaska,2106.3,68.1336111111111,-151.743333333333,America/Anchorage
72,AL4,,,,,,,,
73,AL5,,,,,,,,
74,ALA,Almaty International Airport,Almaty,KZ,Almaty-Oblysy,2238.0,43.3521003723,77.0404968262,Asia/Almaty
75,ALB,Albany International Airport,Albany,US,New York,284.8,42.7491161111111,-73.80198,America/New_York
76,ALM,Alamogordo-White Sands Regional Airport,Alamogordo,US,New Mexico,4199.9,32.8394166666667,-105.991138888889,America/Denver
77,ALN,St Louis Regional Airport,Alton/St Louis,US,Illinois,543.5,38.8899166666667,-90.046,America/Chicago
78,ALO,Waterloo Regional Airport,Waterloo,US,Iowa,873.0,42.5584491666667,-92.4010233333333,America/Chicago
79,ALS,San Luis Valley Regional/Bergman Field,Alamosa,US,Colorado,7539.8,37.435125,-105.867875277778,America/Denver
80,ALW,Walla Walla Regional Airport,Walla Walla,US,Washington,1194.4,46.0925416666667,-118.2840825,America/Los_Angeles
81,ALZ,,,,,,,,
82,AMA,Rick Husband Amarillo International Airport,Amarillo,US,Texas,3606.7,35.2193611111111,-101.705916666667,America/Chicago
83,AMD,Sardar Vallabhbhai Patel International Airport,Ahmedabad,IN,Gujarat,189.0,23.0771999359,72.6346969604,Asia/Kolkata
84,AMK,Animas Air Park,Durango,US,Colorado,6684.0,37.2031783333333,-107.869195277778,America/Denver
85,AMM,Queen Alia International Airport,Amman,JO,Amman,2395.0,31.7226009369,35.9931983948,Asia/Amman
86,AMS,Amsterdam Airport Schiphol,Amsterdam,NL,North Holland,-11.0,52.3086013794,4.7638897896,Europe/Amsterdam
87,ANB,Anniston Regional Airport,Anniston,US,Alabama,612.0,33.5881666666667,-85.8581111111111,America/Chicago
88,ANC,Ted Stevens Anchorage International Airport,Anchorage,US,Alaska,151.4,61.1740847222222,-149.9981375,America/Anchorage
89,AND,Anderson Regional Airport,Anderson,US,South Carolina,781.9,34.4945833333333,-82.7093888888889,America/New_York
90,ANF,Cerro Moreno Airport,Antofagasta,CL,Antofagasta,455.0,-23.4444999695,-70.445098877,America/Santiago
91,ANI,Aniak Airport,Aniak,US,Alaska,96.8,61.5814052777778,-159.545298055556,America/Anchorage
92,ANP,Lee Airport,Annapolis,US,Maryland,34.2,38.9428777777778,-76.5683991666667,America/New_York
93,ANU,V.C. Bird International Airport,St. George,AG,Saint-George,62.0,17.1367,-61.792702,America/Antigua
94,ANV,Anvik Airport,Anvik,US,Alaska,297.3,62.6473333333333,-160.190055555556,America/Anchorage
95,AOH,Lima Allen County Airport,Lima,US,Ohio,975.3,40.7074779722222,-84.0270780555555,America/New_York
96,AOO,Altoona/Blair County Airport,Altoona,US,Pennsylvania,1503.4,40.2963611111111,-78.3200277777778,America/New_York
97,AOS,,,,,,,,
98,APA,Centennial Airport,Denver,US,Colorado,5884.9,39.5701186111111,-104.849293055556,America/Denver
99,APC,Napa County Airport,Napa,US,California,35.5,38.2131891666667,-122.280687222222,America/Los_Angeles
100,APF,Naples Municipal Airport,Naples,US,Florida,8.3,26.1524408055556,-81.7756391944444,America/New_York
101,APN,Alpena County Regional Airport,Alpena,US,Michigan,689.5,45.0780833333333,-83.5603055555556,America/New_York
102,APW,Faleolo International Airport,Apia,WS,A'ana,58.0,-13.8299999237,-172.0079956055,Pacific/Apia
103,ARA,Acadiana Regional Airport,New Iberia,US,Louisiana,24.0,30.0377583333333,-91.8838961111111,America/Chicago
104,ARC,Arctic Village Airport,Arctic Village,US,Alaska,2092.0,68.1146694444444,-145.579415277778,America/Anchorage
105,ARN,Stockholm-Arlanda Airport,Stockholm,SE,Stockholm,137.0,59.6519012451,17.9186000824,Europe/Stockholm
106,ART,Watertown International Airport,Watertown,US,New York,330.8,43.9918333333333,-76.0194166666667,America/New_York
107,ASD,Andros Town Airport,,BS,North Andros,5.0,24.6979007721,-77.7956008911,America/Nassau
108,ASE,Aspen-Pitkin County/Sardy Field,Aspen,US,Colorado,7837.9,39.2218888888889,-106.868222222222,America/Denver
109,ASN,Talladega Municipal Airport,Talladega,US,Alabama,528.8,33.5695041666667,-86.0512013888889,America/Chicago
110,AST,Astoria Regional Airport,Astoria,US,Oregon,14.3,46.1579722222222,-123.878611111111,America/Los_Angeles
111,ASU,Silvio Pettirossi International Airport,Asuncion,PY,Central,292.0,-25.2399997711,-57.5200004578,America/Asuncion
112,ATH,Eleftherios Venizelos International Airport,Athens,GR,Attica,308.0,37.9364013672,23.9444999695,Europe/Athens
113,ATK,Atqasuk Edward Burnell Sr Memorial Airport,Atqasuk,US,Alaska,101.3,70.4671111111111,-157.435666666667,America/Anchorage
114,ATL,Hartsfield - Jackson Atlanta International Airport,Atlanta,US,Georgia,1026.2,33.6366996111111,-84.427864,America/New_York
115,ATT,,,,,,,,
116,ATU,,,,,,,,
117,ATW,Appleton International Airport,Appleton,US,Wisconsin,918.0,44.2580930555556,-88.5190722222222,America/Chicago
118,ATY,Watertown Regional Airport,Watertown,US,South Dakota,1749.3,44.9139722222222,-97.1547222222222,America/Chicago
119,AUA,Queen Beatrix International Airport,Oranjestad,AW,,60.0,12.5013999939,-70.0151977539,America/Aruba
120,AUG,Augusta State Airport,Augusta,US,Maine,351.7,44.3206497222222,-69.7973180555556,America/New_York
121,AUH,Abu Dhabi International Airport,Abu Dhabi,AE,Abu Dhabi,88.0,24.4330005646,54.6511001587,Asia/Dubai
122,AUK,Alakanuk Airport,Alakanuk,US,Alaska,21.7,62.6830555555556,-164.722194444444,America/Anchorage
123,AUS,Austin-Bergstrom International Airport,Austin,US,Texas,541.5,30.1945272222222,-97.6698761111111,America/Chicago
124,AUZ,Aurora Municipal Airport,Chicago/Aurora,US,Illinois,712.0,41.7719166666667,-88.4756666666667,America/Chicago
125,AVB,Aviano Air Base,Aviano,IT,Friuli Venezia Giulia,410.0,46.0318984985,12.5965003967,Europe/Rome
126,AVL,Asheville Regional Airport,Asheville,US,North Carolina,2163.9,35.4361130555556,-82.5420475,America/New_York
127,AVP,Wilkes-Barre/Scranton International Airport,Wilkes-Barre/Scranton,US,Pennsylvania,961.7,41.3384722222222,-75.7233888888889,America/New_York
128,AXA,Wallblake Airport,The Valley,AI,,127.0,18.2047996521,-63.0550994873,America/Anguilla
129,AXM,El Eden Airport,Armenia,CO,Quindio,3990.0,4.45278,-75.7664,America/Bogota
130,AXN,Chandler Field,Alexandria,US,Minnesota,1425.3,45.8663055555556,-95.3946666666667,America/Chicago
131,AZ3,,,,,,,,
132,AZ4,,,,,,,,
133,AZA,Phoenix-Mesa Gateway Airport,Phoenix,US,Arizona,1384.1,33.3078238888889,-111.655459166667,America/Phoenix
134,AZO,Kalamazoo/Battle Creek International Airport,Kalamazoo,US,Michigan,873.9,42.2343888888889,-85.5515555555556,America/Detroit
135,AZS,Samana El Catey International Airport,Samana,DO,Maria-Trinidad-Sanchez,30.0,19.2670001984,-69.7419967651,America/Santo_Domingo
136,BAD,Barksdale Afb Airport,Bossier City,US,Louisiana,165.2,32.5019333333333,-93.6626277777778,America/Chicago
137,BAF,Westfield-Barnes Regional Airport,Westfield/Springfield,US,Massachusetts,270.0,42.1579444444444,-72.7158611111111,America/New_York
138,BAH,Bahrain International Airport,Manama,BH,Muharraq,6.0,26.2707996368,50.6335983276,Asia/Bahrain
139,BAQ,Ernesto Cortissoz International Airport,Barranquilla,CO,Atlantico,98.0,10.8896,-74.7808,America/Bogota
140,BBX,Wings Field,Philadelphia,US,Pennsylvania,301.5,40.1375555555556,-75.2651388888889,America/New_York
141,BCE,Bryce Canyon Airport,Bryce Canyon,US,Utah,7590.0,37.7064463888889,-112.145798805556,America/Denver
142,BCN,Barcelona International Airport,Barcelona,ES,Catalonia,12.0,41.2971000671,2.0784599781,Europe/Madrid
143,BCT,Boca Raton Airport,Boca Raton,US,Florida,12.9,26.3784855555556,-80.1076963888889,America/New_York
144,BDA,L.F. Wade International International Airport,Hamilton,BM,Saint-Georgeʼs,12.0,32.3639984131,-64.6787033081,Atlantic/Bermuda
145,BDL,Bradley International Airport,Windsor Locks,US,Connecticut,173.3,41.9390322222222,-72.6843158333333,America/New_York
146,BDR,Bridgeport/Sikorsky Airport,Bridgeport,US,Connecticut,8.5,41.1634808333333,-73.1261758333333,America/New_York
147,BDS,Brindisi / Casale Airport,Brindisi,IT,Apulia,47.0,40.6576004028,17.9470005035,Europe/Rome
148,BDY,Bandon State Airport,Bandon,US,Oregon,122.1,43.0864722222222,-124.407861111111,America/Los_Angeles
149,BED,Laurence G Hanscom Field,Bedford,US,Massachusetts,132.0,42.4699444444444,-71.289,America/New_York
150,BEG,Belgrade Nikola Tesla Airport,Belgrad,RS,,335.0,44.8184013367,20.3090991974,Europe/Belgrade
151,BEH,Southwest Michigan Regional Airport,Benton Harbor,US,Michigan,649.1,42.1283808333333,-86.4248811111111,America/Detroit
152,BET,Bethel Airport,Bethel,US,Alaska,128.8,60.7785555555556,-161.837166666667,America/Anchorage
153,BFB,,,,,,,,
154,BFD,Bradford Regional Airport,Bradford,US,Pennsylvania,2143.1,41.8029543333333,-78.6399659722222,America/New_York
155,BFF,Western Nebraska Regional/William B Heilig Field,Scottsbluff,US,Nebraska,3967.3,41.8740277777778,-103.595638888889,America/Denver
156,BFI,Boeing Field/King County International Airport,Seattle,US,Washington,21.6,47.5299722222222,-122.301944444444,America/Los_Angeles
157,BFK,Buckley Space Force Base Airport,Aurora,US,Colorado,5663.0,39.7017611111111,-104.751961111111,America/Denver
158,BFL,Meadows Field,Bakersfield,US,California,509.6,35.4338611111111,-119.057666666667,America/Los_Angeles
159,BFM,Mobile International Airport,Mobile,US,Alabama,26.2,30.6267805555556,-88.0680908333333,America/Chicago
160,BFS,Belfast International Airport,Belfast,GB,Northern Ireland,268.0,54.6575012207,-6.2158298492,Europe/London
161,BGA,Palonegro Airport,Bucaramanga,CO,Santander,3897.0,7.1265,-73.1848,America/Bogota
162,BGI,Sir Grantley Adams International Airport,Bridgetown,BB,Christ-Church,169.0,13.0746002197,-59.4925003052,America/Barbados
163,BGM,Greater Binghamton/Edwin A Link Field,Binghamton,US,New York,1635.6,42.2084444444444,-75.9796111111111,America/New_York
164,BGR,Bangor International Airport,Bangor,US,Maine,192.1,44.8074444444444,-68.8281388888889,America/New_York
165,BGX,Comandante Gustavo Kraemer Airport,Bage,BR,Rio Grande do Sul,600.0,-31.390499115,-54.1122016907,America/Sao_Paulo
166,BH1,,,,,,,,
167,BHB,Hancock County/Bar Harbor Airport,Bar Harbor,US,Maine,83.2,44.4497052777778,-68.3614897222222,America/New_York
168,BHD,George Best Belfast City Airport,Belfast,GB,Northern Ireland,15.0,54.6180992126,-5.8724999428,Europe/London
169,BHM,Birmingham-Shuttlesworth International Airport,Birmingham,US,Alabama,650.0,33.5638888888889,-86.7523055555556,America/Chicago
170,BHX,Birmingham International Airport,Birmingham,GB,England,327.0,52.4538993835,-1.7480299473,Europe/London
171,BIC,,,,,,,,
172,BID,Block Island State Airport,Block Island,US,Rhode Island,107.9,41.1681111111111,-71.5778333333333,America/New_York
173,BIF,Biggs Army Air Field (Fort Bliss) Airport,Fort Bliss/El Paso/,US,Texas,3946.6,31.8495291666667,-106.380052777778,America/Denver
174,BIG,Allen Army Air Field,Delta Junction Ft Greely,US,Alaska,1285.2,63.9951666666667,-145.720055555556,America/Anchorage
175,BIH,Bishop Airport,Bishop,US,California,4124.3,37.3731111111111,-118.363611111111,America/Los_Angeles
176,BIL,Billings Logan International Airport,Billings,US,Montana,3662.3,45.8078491388889,-108.543543555556,America/Denver
177,BIM,South Bimini Airport,South Bimini,BS,Bimini,10.0,25.6998996735,-79.2647018433,America/Nassau
178,BIO,Bilbao Airport,Bilbao,ES,Basque-Country,138.0,43.3011016846,-2.9106099606,Europe/Madrid
179,BIS,Bismarck Municipal Airport,Bismarck,US,North Dakota,1661.3,46.7727338888889,-100.7457375,America/Chicago
180,BIX,Keesler Afb Airport,Biloxi,US,Mississippi,32.6,30.4104266666667,-88.9244352777778,America/Chicago
181,BJC,Rocky Mountain Metro Airport,Denver,US,Colorado,5673.4,39.9088055555556,-105.117194444444,America/Denver
182,BJI,Bemidji Regional Airport,Bemidji,US,Minnesota,1391.4,47.5107222222222,-94.9347222222222,America/Chicago
183,BJV,Milas Bodrum International Airport,Bodrum,TR,Mugla,21.0,37.2505989075,27.6643009186,Europe/Istanbul
184,BJX,Del Bajio International Airport,Silao,MX,Guanajuato,5956.0,20.9934997559,-101.481002808,America/Mexico_City
185,BKC,Buckland Airport,Buckland,US,Alaska,29.0,65.9815555555556,-161.149138888889,America/Anchorage
186,BKE,Baker City Municipal Airport,Baker City,US,Oregon,3373.4,44.8373333333333,-117.809138888889,America/Los_Angeles
187,BKG,Branson Airport,Branson,US,Missouri,1302.0,36.5320825,-93.2005444444444,America/Chicago
188,BKK,Suvarnabhumi Airport,Bangkok,TH,Samut-Prakan,5.0,13.6810998917,100.7470016479,Asia/Bangkok
189,BKL,Burke Lakefront Airport,Cleveland,US,Ohio,583.5,41.5178611111111,-81.6826388888889,America/New_York
190,BKO,Senou Airport,Senou,ML,Bamako,1247.0,12.5334997177,-7.9499402046,Africa/Bamako
191,BKW,Raleigh County Memorial Airport,Beckley,US,West Virginia,2503.8,37.7873333333333,-81.1241666666667,America/New_York
192,BLA,General Jose Antonio Anzoategui International Airport,Barcelona,VE,Anzoategui,26.0,10.1070995331,-64.689201355,America/Caracas
193,BLD,Boulder City Municipal Airport,Boulder City,US,Nevada,2203.1,35.9473080555556,-114.861084166667,America/Los_Angeles
194,BLF,Mercer County Airport,Bluefield,US,West Virginia,2856.7,37.2959483611111,-81.2075188611111,America/New_York
195,BLG,Belaga Airport,Belaga,MY,Sarawak,200.0,2.6500000954,113.766998291,Asia/Kuala_Lumpur
196,BLI,Bellingham International Airport,Bellingham,US,Washington,171.0,48.7926944444444,-122.537527777778,America/Los_Angeles
197,BLL,Billund Airport,Billund,DK,South Denmark,247.0,55.7402992249,9.1517801285,Europe/Copenhagen
198,BLM,Monmouth Exec Airport,Belmar/Farmingdale,US,New Jersey,153.4,40.1867777777778,-74.1245555555555,America/New_York
199,BLQ,Bologna / Borgo Panigale Airport,Bologna,IT,Emilia Romagna,123.0,44.5354003906,11.2887001038,Europe/Rome
200,BLR,Bengaluru International Airport,Bangalore,IN,Karnataka,3000.0,13.1978998184,77.7062988281,Asia/Kolkata
201,BLV,Scott Afb/Midamerica St Louis Airport,Belleville,US,Illinois,459.1,38.5451730555556,-89.8351855555556,America/Chicago
202,BMA,Stockholm-Bromma Airport,Stockholm,SE,Stockholm,47.0,59.3544006348,17.9416999817,Europe/Stockholm
203,BMG,Monroe County Airport,Bloomington,US,Indiana,845.5,39.1460208333333,-86.6166804722222,America/New_York
204,BMI,Central Il Regional/Bloomington-Normal Airport,Bloomington/Normal,US,Illinois,871.4,40.4771111111111,-88.9159166666667,America/Chicago
205,BMX,Big Mountain Airport,Big Mountain,US,Alaska,663.0,59.3612466666667,-155.258821388889,America/Anchorage
206,BNA,Nashville International Airport,Nashville,US,Tennessee,599.0,36.124475,-86.6781805555556,America/Chicago
207,BNE,Brisbane International Airport,Brisbane,AU,Queensland,13.0,-27.3841991425,153.1170043945,Australia/Brisbane
208,BOD,Bordeaux-Merignac (BA 106) Airport,Bordeaux/Merignac,FR,Nouvelle-Aquitaine,162.0,44.8283004761,-0.7155560255,Europe/Paris
209,BOG,El Dorado International Airport,Bogota,CO,Bogota-D-C-,8361.0,4.70159,-74.1469,America/Bogota
210,BOH,Bournemouth Airport,Bournemouth,GB,England,38.0,50.7799987793,-1.8424999714,Europe/London
211,BOI,Boise Air Trml/Gowen Field,Boise,US,Idaho,2871.7,43.5643611111111,-116.222861111111,America/Boise
212,BOK,,,,,,,,
213,BOM,Chhatrapati Shivaji International Airport,Mumbai,IN,Maharashtra,37.0,19.0886993408,72.8678970337,Asia/Kolkata
214,BON,Flamingo International Airport,Kralendijk,BQ,Bonaire,20.0,12.1309995651,-68.2685012817,America/Kralendijk
215,BOS,General Edward Lawrence Logan International Airport,Boston,US,Massachusetts,19.1,42.3629444444444,-71.0063888888889,America/New_York
216,BPT,Jack Brooks Regional Airport,Beaumont/Port Arthur,US,Texas,15.4,29.9508333333333,-94.0206944444444,America/Chicago
217,BQK,Brunswick Golden Isles Airport,Brunswick,US,Georgia,25.6,31.2590346944444,-81.4663158333333,America/New_York
218,BQN,Rafael Hernandez Airport,Aguadilla,US,Puerto Rico,237.2,18.4948611111111,-67.1294444444444,America/Puerto_Rico
219,BRD,Brainerd Lakes Regional Airport,Brainerd,US,Minnesota,1232.2,46.4042222222222,-94.1338055555556,America/Chicago
220,BRE,Bremen Airport,Bremen,DE,Bremen,14.0,53.0475006104,8.7866697311,Europe/Berlin
221,BRL,Southeast Iowa Regional Airport,Burlington,US,Iowa,698.7,40.7829722222222,-91.1255833333333,America/Chicago
222,BRM,Barquisimeto International Airport,Barquisimeto,VE,Lara,2042.0,10.0427465439,-69.3586196899,America/Caracas
223,BRN,Bern Belp Airport,Bern,CH,Bern,1674.0,46.914100647,7.4971499443,Europe/Zurich
224,BRO,Brownsville/South Padre Island International Airport,Brownsville,US,Texas,22.4,25.9061388888889,-97.426,America/Chicago
225,BRS,Bristol International Airport,Bristol,GB,England,622.0,51.3827018738,-2.7190899849,Europe/London
226,BRU,Brussels Airport,Brussels,BE,Flanders,184.0,50.9014015198,4.4844398499,Europe/Brussels
227,BRW,Wiley Post-Will Rogers Memorial Airport,Utqiagvik,US,Alaska,48.9,71.2848611111111,-156.768583333333,America/Anchorage
228,BSB,Presidente Juscelino Kubistschek International Airport,Brasilia,BR,Federal-District,3497.0,-15.8691673279,-47.9208335876,America/Sao_Paulo
229,BSL,EuroAirport Basel-Mulhouse-Freiburg Airport,Bale/Mulhouse,FR,Grand Est,885.0,47.5895996094,7.5299100876,Europe/Paris
230,BSZ,,,,,,,,
231,BTI,Barter Island Airport,Barter Island,US,Alaska,55.1,70.1131111111111,-143.653611111111,America/Anchorage
232,BTL,Battle Creek Exec At Kellogg Field,Battle Creek,US,Michigan,951.8,42.3064728055556,-85.2500889444444,America/Detroit
233,BTM,Bert Mooney Airport,Butte,US,Montana,5550.5,45.9548055555556,-112.497472222222,America/Denver
234,BTR,"Baton Rouge Metro, Ryan Field",Baton Rouge,US,Louisiana,69.7,30.5329166666667,-91.1498888888889,America/Chicago
235,BTS,M. R. Stefanik Airport,Bratislava,SK,Bratislavsky,436.0,48.1702003479,17.2126998901,Europe/Bratislava
236,BTT,Bettles Airport,Bettles,US,Alaska,647.3,66.9139444444445,-151.529055555556,America/Anchorage
237,BTV,Burlington International Airport,Burlington,US,Vermont,334.6,44.471955,-73.1532761111111,America/New_York
238,BUD,Budapest Ferenc Liszt International Airport,Budapest,HU,Budapest,495.0,47.4369010925,19.2555999756,Europe/Budapest
239,BUF,Buffalo Niagara International Airport,Buffalo,US,New York,726.8,42.9404272222222,-78.7305697222222,America/New_York
240,BUR,Bob Hope Airport,Burbank,US,California,778.0,34.2006944444444,-118.358666666667,America/Los_Angeles
241,BVO,Bartlesville Municipal Airport,Bartlesville,US,Oklahoma,716.9,36.7633611111111,-96.0111944444444,America/Chicago
242,BVU,Beluga Airport,Beluga,US,Alaska,87.2,61.1729618888889,-151.045416305556,America/Anchorage
243,BVY,Beverly Regional Airport,Beverly,US,Massachusetts,107.3,42.5841388888889,-70.9161388888889,America/New_York
244,BWD,Brownwood Regional Airport,Brownwood,US,Texas,1386.7,31.7936111111111,-98.9565,America/Chicago
245,BWG,Bowling Green-Warren County Regional Airport,Bowling Green,US,Kentucky,547.2,36.9645277777778,-86.4196666666667,America/Chicago
246,BWI,Baltimore/Washington International Thurgood Marshall Airport,Baltimore,US,Maryland,143.4,39.1757283333333,-76.6689911111111,America/New_York
247,BWS,,,,,,,,
248,BYH,Arkansas International Airport,Blytheville,US,Arkansas,254.1,35.9643333333333,-89.9439444444445,America/Chicago
249,BYW,Blakely Island Airport,Blakely Island,US,Washington,66.0,48.5789916666667,-122.826290833333,America/Los_Angeles
250,BZE,Philip S. W. Goldson International Airport,Belize City,BZ,Belize,15.0,17.539100647,-88.3081970215,America/Belize
251,BZN,Bozeman Yellowstone International Airport,Bozeman,US,Montana,4473.4,45.7772357777778,-111.150260277778,America/Denver
252,BZZ,RAF Brize Norton,Brize Norton,GB,England,288.0,51.75,-1.5836199522,Europe/London
253,C01,,,,,,,,
254,CA2,,,,,,,,
255,CAD,Wexford County Airport,Cadillac,US,Michigan,1306.5,44.2753333333333,-85.4189166666667,America/Detroit
256,CAE,Columbia Metro Airport,Columbia,US,South Carolina,236.0,33.9388377777778,-81.1195361111111,America/New_York
257,CAI,Cairo International Airport,Cairo,EG,Cairo,382.0,30.1219005585,31.4055995941,Africa/Cairo
258,CAK,Akron-Canton Regional Airport,Akron,US,Ohio,1225.5,40.9150555555556,-81.4436388888889,America/New_York
259,CAN,Guangzhou Baiyun International Airport,Guangzhou,CN,Guangdong,50.0,23.3924007416,113.2990036011,Asia/Shanghai
260,CAY,Cayenne-Rochambeau Airport,Cayenne / Rochambeau,GF,Guyane,26.0,4.8198099136,-52.3604011536,America/Cayenne
261,CBE,Greater Cumberland Regional Airport,Cumberland,US,Maryland,775.0,39.6153058333333,-78.7614783333333,America/New_York
262,CCS,Maiquetia (Simon Bolivar Internacional) Airport,Caracas,VE,Vargas,235.0,10.6031169891,-66.9905853271,America/Caracas
263,CCU,Netaji Subhash Chandra Bose International Airport,Kolkata,IN,West Bengal,16.0,22.6546993256,88.4467010498,Asia/Kolkata
264,CDB,Cold Bay Airport,Cold Bay,US,Alaska,99.5,55.2059166666667,-162.72625,America/Anchorage
265,CDC,Cedar City Regional Airport,Cedar City,US,Utah,5622.3,37.70097,-113.098850833333,America/Denver
266,CDG,Charles de Gaulle International Airport,Paris,FR,Ile-de-France,392.0,49.0127983093,2.5499999523,Europe/Paris
267,CDL,Candle 2 Airport,Candle,US,Alaska,15.0,65.9076580555556,-161.926305833333,America/Anchorage
268,CDR,Chadron Municipal Airport,Chadron,US,Nebraska,3297.8,42.8375576944444,-103.095401916667,America/Denver
269,CDV,Merle K (Mudhole) Smith Airport,Cordova,US,Alaska,53.0,60.4916397222222,-145.477557777778,America/Anchorage
270,CEB,Mactan Cebu International Airport,Lapu-Lapu City,PH,Central Visayas,31.0,10.3074998856,123.9789962769,Asia/Manila
271,CEC,Jack Mc Namara Field,Crescent City,US,California,60.7,41.7801666666667,-124.236527777778,America/Los_Angeles
272,CEF,Westover Arb/Metro Airport,Springfield/Chicopee,US,Massachusetts,241.1,42.1940155555556,-72.5347866666667,America/New_York
273,CEM,Central Airport,Central,US,Alaska,936.8,65.5739444444444,-144.780888888889,America/Anchorage
274,CEQ,Cannes-Mandelieu Airport,Cannes/Mandelieu,FR,Provence-Alpes-Cote-d'Azur,13.0,43.5419998169,6.9534797668,Europe/Paris
275,CEV,Mettel Field,Connersville,US,Indiana,866.3,39.6981944444444,-85.1311388888889,America/Indiana/Indianapolis
276,CEW,Bob Sikes Airport,Crestview,US,Florida,213.5,30.7788311111111,-86.5221127777778,America/Chicago
277,CEX,Chena Hot Springs Airport,Chena Hot Springs,US,Alaska,1195.0,65.0518255555556,-146.047431944444,America/Anchorage
278,CEZ,Cortez Municipal Airport,Cortez,US,Colorado,5917.6,37.3030025,-108.628044166667,America/Denver
279,CFA,,,,,,,,
280,CFB,Cabo Frio Airport,Cabo Frio,BR,Rio de Janeiro,23.0,-22.9216995239,-42.0742988586,America/Sao_Paulo
281,CFG,Jaime Gonzalez Airport,Cienfuegos,CU,Cienfuegos,102.0,22.1499996185,-80.4141998291,America/Havana
282,CFT,Greenlee County Airport,Clifton/Morenci,US,Arizona,3797.8,32.9570386388889,-109.211162305556,America/Phoenix
283,CGA,,,,,,,,
284,CGF,Cuyahoga County Airport,Cleveland,US,Ohio,876.1,41.5645833333333,-81.4872222222222,America/New_York
285,CGI,Cape Girardeau Regional Airport,Cape Girardeau,US,Missouri,341.6,37.2253055555556,-89.57075,America/Chicago
286,CGK,Soekarno-Hatta International Airport,Jakarta,ID,,34.0,-6.1255698204,106.65599823,Asia/Jakarta
287,CGN,Cologne Bonn Airport,Cologne,DE,Nordrhein-Westfalen,302.0,50.8658981323,7.1427397728,Europe/Berlin
288,CGP,Shah Amanat International Airport,Chittagong,BD,Chittagong,12.0,22.2495994568,91.8133010864,Asia/Dhaka
289,CGS,College Park Airport,College Park,US,Maryland,48.4,38.9805833333333,-76.9223055555556,America/New_York
290,CHA,Lovell Field,Chattanooga,US,Tennessee,682.5,35.0351944444444,-85.2035555555556,America/New_York
291,CHD,,,,,,,,
292,CHI,,,,,,,,
293,CHO,Charlottesville-Albemarle Airport,Charlottesville,US,Virginia,640.1,38.1396427777778,-78.4523441666667,America/New_York
294,CHP,,,,,,,,
295,CHR,Chateauroux-Deols Marcel Dassault Airport,Chateauroux/Deols,FR,Centre,529.0,46.8622016907,1.7306699753,Europe/Paris
296,CHS,Charleston Afb/International Airport,Charleston,US,South Carolina,46.0,32.8986388888889,-80.0405277777778,America/New_York
297,CHU,Chuathbaluk Airport,Chuathbaluk,US,Alaska,243.7,61.5790555555556,-159.215638888889,America/Anchorage
298,CHZ,,,,,,,,
299,CIC,Chico Municipal Airport,Chico,US,California,240.2,39.7953888888889,-121.858416666667,America/Los_Angeles
300,CID,The Eastern Iowa Airport,Cedar Rapids,US,Iowa,869.4,41.8846885833333,-91.7107986111111,America/Chicago
301,CIG,Craig-Moffat Airport,Craig,US,Colorado,6197.5,40.4952222222222,-107.521666666667,America/Denver
302,CIK,Chalkyitsik Airport,Chalkyitsik,US,Alaska,548.5,66.6450277777778,-143.739888888889,America/Anchorage
303,CIU,Chippewa County International Airport,Sault Ste Marie,US,Michigan,799.3,46.2507516666667,-84.4723841666667,America/New_York
304,CIW,Canouan Airport,Canouan,VC,Grenadines,11.0,12.6990003586,-61.3423995972,America/St_Vincent
305,CJS,Abraham Gonzalez International Airport,Ciudad Juarez,MX,Chihuahua,3904.0,31.636100769,-106.4290008545,America/Mazatlan
306,CJU,Jeju International Airport,Jeju City,KR,Jeju-do,118.0,33.5112991333,126.4929962158,Asia/Seoul
307,CKB,North Central West Virginia Airport,Clarksburg,US,West Virginia,1223.5,39.2976547222222,-80.2275319444445,America/New_York
308,CKD,,,,,,,,
309,CKX,,,,,,,,
310,CLD,Mc Clellan-Palomar Airport,Carlsbad,US,California,330.5,33.12825,-117.280083333333,America/Los_Angeles
311,CLE,Cleveland-Hopkins International Airport,Cleveland,US,Ohio,799.5,41.4094069444444,-81.8546911111111,America/New_York
312,CLF,,,,,,,,
313,CLL,Easterwood Field,College Station,US,Texas,320.6,30.5880418888889,-96.3625444444444,America/Chicago
314,CLM,William R Fairchild International Airport,Port Angeles,US,Washington,291.3,48.1201944444444,-123.499694444444,America/Los_Angeles
315,CLO,Alfonso Bonilla Aragon International Airport,Cali,CO,Valle-del-Cauca,3162.0,3.54322,-76.3816,America/Bogota
316,CLP,Clarks Point Airport,Clarks Point,US,Alaska,79.6,58.8336944444444,-158.529388888889,America/Anchorage
317,CLT,Charlotte/Douglas International Airport,Charlotte,US,North Carolina,747.9,35.21375,-80.9490555555556,America/New_York
318,CLU,Columbus Municipal Airport,Columbus,US,Indiana,656.1,39.261915,-85.8963388888889,America/Indiana/Indianapolis
319,CMA,Cunnamulla Airport,,AU,Queensland,630.0,-28.0300006866,145.6219940186,Australia/Brisbane
320,CME,Ciudad del Carmen International Airport,Ciudad del Carmen,MX,Campeche,10.0,18.6536998749,-91.7990036011,America/Mexico_City
321,CMH,John Glenn Columbus International Airport,Columbus,US,Ohio,815.0,39.9969466666667,-82.8921591666667,America/New_York
322,CMI,University Of Illinois/Willard Airport,Champaign/Urbana,US,Illinois,754.9,40.0385608333333,-88.2765391666667,America/Chicago
323,CMN,Mohammed V International Airport,Casablanca,MA,,656.0,33.3675003052,-7.5899701118,Africa/Casablanca
324,CMW,Ignacio Agramonte International Airport,Camaguey,CU,Camagueey,413.0,21.42029953,-77.8475036621,America/Havana
325,CMX,Houghton County Memorial Airport,Hancock,US,Michigan,1095.2,47.1684163888889,-88.4890686111111,America/New_York
326,CNF,Tancredo Neves International Airport,Belo Horizonte,BR,Minas Gerais,2715.0,-19.6244430542,-43.9719429016,America/Sao_Paulo
327,CNM,Cavern City Air Trml Airport,Carlsbad,US,New Mexico,3294.6,32.3374444444444,-104.263361111111,America/Denver
328,CNO,Chino Airport,Chino,US,California,650.0,33.9747793055556,-117.636482833333,America/Los_Angeles
329,CNS,Cairns International Airport,Cairns,AU,Queensland,10.0,-16.885799408,145.755004883,Australia/Brisbane
330,CNY,Canyonlands Regional Airport,Moab,US,Utah,4579.2,38.7576311111111,-109.753462777778,America/Denver
331,COD,Yellowstone Regional Airport,Cody,US,Wyoming,5102.3,44.5201944444444,-109.023805555556,America/Denver
332,COE,Coeur D'Alene/Pappy Boyington Field,Coeur D'Alene,US,Idaho,2320.3,47.7743055555556,-116.819583333333,America/Los_Angeles
333,COR,Ingeniero Ambrosio Taravella Airport,Cordoba,AR,Cordoba,1604.0,-31.323600769,-64.2080001831,America/Argentina/Cordoba
334,COS,City Of Colorado Springs Municipal Airport,Colorado Springs,US,Colorado,6187.0,38.8058166666667,-104.700776388889,America/Denver
335,COU,Columbia Regional Airport,Columbia,US,Missouri,889.3,38.8177355555556,-92.2177922222222,America/Chicago
336,CPH,Copenhagen Kastrup Airport,Copenhagen,DK,Capital-Region,17.0,55.6179008484,12.6560001373,Europe/Copenhagen
337,CPR,Casper/Natrona County International Airport,Casper,US,Wyoming,5344.0,42.9058611111111,-106.463638888889,America/Denver
338,CPS,St Louis Downtown Airport,Cahokia/St Louis,US,Illinois,412.9,38.5703611111111,-90.1550833333333,America/Chicago
339,CPT,Cape Town International Airport,Cape Town,ZA,Western Cape,151.0,-33.9648017883,18.6016998291,Africa/Johannesburg
340,CPX,Benjamin Rivera Noriega Airport,Isla De Culebra,US,Puerto Rico,49.0,18.3129488888889,-65.3038802777778,America/Puerto_Rico
341,CRG,Jacksonville Exec At Craig Airport,Jacksonville,US,Florida,40.7,30.3363333333333,-81.5144444444445,America/New_York
342,CRK,Diosdado Macapagal International Airport,Angeles City,PH,Central Luzon,484.0,15.1859998703,120.559997559,Asia/Manila
343,CRP,Corpus Christi International Airport,Corpus Christi,US,Texas,46.1,27.7721944444444,-97.5024166666667,America/Chicago
344,CRW,West Virginia International Yeager Airport,Charleston,US,West Virginia,947.1,38.3760130555556,-81.5928936111111,America/New_York
345,CSG,Columbus Airport,Columbus,US,Georgia,397.7,32.5163333333333,-84.9388611111111,America/New_York
346,CSL,,,,,,,,
347,CSM,Clinton/Sherman Airport,Burns Flat,US,Oklahoma,1922.1,35.3398391666667,-99.2004994444444,America/Chicago
348,CT1,,,,,,,,
349,CTG,Rafael Nunez International Airport,Cartagena,CO,Bolivar,4.0,10.4424,-75.513,America/Bogota
350,CTS,New Chitose Airport,Chitose / Tomakomai,JP,Hokkaido,82.0,42.7751998901,141.6920013428,Asia/Tokyo
351,CUC,Camilo Daza International Airport,Cucuta,CO,Norte-de-Santander,1096.0,7.92757,-72.5115,America/Bogota
352,CUL,Federal de Bachigualato International Airport,Culiacan,MX,Sinaloa,108.0,24.7644996643,-107.474998474,America/Mazatlan
353,CUN,Cancun International Airport,Cancun,MX,Quintana Roo,22.0,21.0365009308,-86.8770980835,America/Cancun
354,CUR,Hato International Airport,Willemstad,CW,,29.0,12.1888999939,-68.9598007202,America/Curacao
355,CUU,General Roberto Fierro Villalobos International Airport,Chihuahua,MX,Chihuahua,4462.0,28.7028999329,-105.964996338,America/Mazatlan
356,CVG,Cincinnati/Northern Kentucky International Airport,Covington,US,Kentucky,896.1,39.0488375,-84.6678208333333,America/New_York
357,CVM,General Pedro Jose Mendez International Airport,Ciudad Victoria,MX,Tamaulipas,761.0,23.7033004761,-98.9564971924,America/Monterrey
358,CVN,Clovis Regional Airport,Clovis,US,New Mexico,4215.8,34.42659025,-103.077580027778,America/Denver
359,CVO,Corvallis Municipal Airport,Corvallis,US,Oregon,249.9,44.4968758333333,-123.289457222222,America/Los_Angeles
360,CVS,Cannon Afb Airport,Clovis,US,New Mexico,4295.0,34.3827745555556,-103.322149527778,America/Denver
361,CWA,Central Wisconsin Airport,Mosinee,US,Wisconsin,1277.2,44.7776236666667,-89.6667780277778,America/Chicago
362,CWB,Afonso Pena Airport,Curitiba,BR,Paraná,2988.0,-25.5284996033,-49.1758003235,America/Sao_Paulo
363,CWF,Chennault International Airport,Lake Charles,US,Louisiana,16.5,30.2105833333333,-93.1431944444444,America/Chicago
364,CWL,Cardiff International Airport,Cardiff,GB,Wales,220.0,51.3967018127,-3.3433299065,Europe/London
365,CXF,Coldfoot Airport,Coldfoot,US,Alaska,1049.1,67.2521708333333,-150.203908055556,America/Anchorage
366,CXH,,,,,,,,
367,CXI,Cassidy International Airport,Banana,KI,Line-Islands,5.0,1.9861600399,-157.3500061035,Pacific/Kiritimati
368,CYB,Gerrard Smith International Airport,Cayman Brac,KY,,8.0,19.6870002747,-79.8827972412,America/Cayman
369,CYF,Chefornak Airport,Chefornak,US,Alaska,54.1,60.1368055555556,-164.279055555556,America/Anchorage
370,CYM,,,,,,,,
371,CYS,Cheyenne Regional/Jerry Olson Field,Cheyenne,US,Wyoming,6159.9,41.1556388888889,-104.810472222222,America/Denver
372,CZF,Cape Romanzof Lrrs Airport,Cape Romanzof,US,Alaska,467.0,61.7810152777778,-166.039576388889,America/Anchorage
373,CZM,Cozumel International Airport,Cozumel,MX,Quintana Roo,15.0,20.5223999023,-86.9255981445,America/Cancun
374,CZN,,,,,,,,
375,DAB,Daytona Beach International Airport,Daytona Beach,US,Florida,34.2,29.1799088888889,-81.0580422222222,America/New_York
376,DAC,Dhaka / Hazrat Shahjalal International Airport,Dhaka,BD,Dhaka,30.0,23.843347,90.397783,Asia/Dhaka
377,DAD,Da Nang International Airport,Da Nang,VN,Da-Nẵng,33.0,16.0438995361,108.1989974976,Asia/Ho_Chi_Minh
378,DAG,Barstow-Daggett Airport,Daggett,US,California,1930.0,34.8537222222222,-116.786694444444,America/Los_Angeles
379,DAL,Dallas Love Field,Dallas,US,Texas,486.9,32.8459447222222,-96.8508766666667,America/Chicago
380,DAR,Mwalimu Julius K. Nyerere International Airport,Dar es Salaam,TZ,Dar-es-Salaam,182.0,-6.8781099319,39.2025985718,Africa/Dar_es_Salaam
381,DAY,James M Cox Dayton International Airport,Dayton,US,Ohio,1009.1,39.9022522222222,-84.2194122222222,America/New_York
382,DBQ,Dubuque Regional Airport,Dubuque,US,Iowa,1076.4,42.402,-90.7094722222222,America/Chicago
383,DCA,Ronald Reagan Washington Ntl Airport,Washington,US,Dist. Of Columbia,14.1,38.8514402777778,-77.0377213888889,America/New_York
384,DCK,,,,,,,,
385,DCU,Pryor Field Regional Airport,Decatur,US,Alabama,592.0,34.6540555555556,-86.9453611111111,America/Chicago
386,DDC,Dodge City Regional Airport,Dodge City,US,Kansas,2595.5,37.7631111111111,-99.9654166666667,America/Chicago
387,DEC,Decatur Airport,Decatur,US,Illinois,681.9,39.8345625,-88.8656891666667,America/Chicago
388,DEL,Indira Gandhi International Airport,New Delhi,IN,NCT,777.0,28.5664997101,77.1031036377,Asia/Kolkata
389,DEN,Denver International Airport,Denver,US,Colorado,5433.8,39.8616666666667,-104.673166666667,America/Denver
390,DET,Coleman A Young Municipal Airport,Detroit,US,Michigan,625.8,42.4093275,-83.0101738888889,America/Detroit
391,DFW,Dallas-Fort Worth International Airport,Dallas-Fort Worth,US,Texas,606.4,32.8972330555556,-97.0376947222222,America/Chicago
392,DGB,,,,,,,,
393,DGO,General Guadalupe Victoria International Airport,Durango,MX,Durango,6104.0,24.1242008209,-104.527999878,America/Monterrey
394,DHA,King Abdulaziz Air Base,,SA,Eastern Province,84.0,26.2653999329,50.1520004272,Asia/Riyadh
395,DHF,Abu Dhabi-Al Dhafra AB Airport,Al Bihouth,AE,Abu Dhabi,77.0,24.2481994629,54.5476989746,Asia/Dubai
396,DHN,Dothan Regional Airport,Dothan,US,Alabama,400.8,31.3210277777778,-85.4494722222222,America/Chicago
397,DIK,Dickinson/Theodore Roosevelt Regional Airport,Dickinson,US,North Dakota,2592.1,46.8004736111111,-102.804435277778,America/Denver
398,DIO,,,,,,,,
399,DKR,Leopold Sedar Senghor International Airport,Dakar,SN,Dakar,85.0,14.7397003174,-17.4902000427,Africa/Dakar
400,DLA,Douala International Airport,Douala,CM,Littoral,33.0,4.0060801506,9.7194795609,Africa/Douala
401,DLC,Zhoushuizi Airport,Dalian,CN,Liaoning,107.0,38.9656982422,121.5390014648,Asia/Shanghai
402,DLG,Dillingham Airport,Dillingham,US,Alaska,82.0,59.0446666666667,-158.5055,America/Anchorage
403,DLH,Duluth International Airport,Duluth,US,Minnesota,1427.8,46.84206975,-92.1932372222222,America/Chicago
404,DLM,Dalaman International Airport,Dalaman,TR,Mugla,20.0,36.7131004333,28.7924995422,Europe/Istanbul
405,DMA,Davis Monthan Afb Airport,Tucson,US,Arizona,2704.0,32.1663644166667,-110.883169694444,America/Phoenix
406,DME,Domodedovo International Airport,Moscow,RU,Moscow-Oblast,588.0,55.4087982178,37.9062995911,Europe/Moscow
407,DMK,Don Mueang International Airport,Bangkok,TH,Bangkok,9.0,13.9125995636,100.6070022583,Asia/Bangkok
408,DMM,King Fahd International Airport,Ad Dammam,SA,Eastern Province,72.0,26.471200943,49.7979011536,Asia/Riyadh
409,DNA,Kadena Air Base,,JP,Okinawa,143.0,26.3556003571,127.7679977417,Asia/Tokyo
410,DNB,Dunbar Airport,,AU,Queensland,15.0,-16.0499992371,142.3999938965,Australia/Brisbane
411,DNN,Dalton Municipal Airport,Dalton,US,Georgia,709.0,34.7229388888889,-84.8702413888889,America/New_York
412,DNV,Vermilion Regional Airport,Danville,US,Illinois,696.9,40.1998272222222,-87.5951663888889,America/Chicago
413,DOF,,,,,,,,
414,DOH,Hamad International Airport,Doha,QA,Baladiyat-ad-Dawḩah,13.0,25.2605946,51.6137665,Asia/Qatar
415,DOM,Melville Hall Airport,Marigot,DM,Saint-Andrew,73.0,15.5469999313,-61.2999992371,America/Dominica
416,DOV,Dover Afb Airport,Dover,US,Delaware,28.9,39.1295388888889,-75.4659611111111,America/New_York
417,DPA,Dupage Airport,Chicago/West Chicago,US,Illinois,758.5,41.9070530555556,-88.247995,America/Chicago
418,DPG,Michael Army Air Field (Dugway Proving Ground) Airport,Dugway Proving Ground,US,Utah,4350.4,40.1973819444444,-112.935054444444,America/Denver
419,DQH,,,,,,,,
420,DQK,,,,,,,,
421,DQL,,,,,,,,
422,DQP,,,,,,,,
423,DQR,,,,,,,,
424,DQS,,,,,,,,
425,DRB,Derby Airport,,AU,Western Australia,24.0,-17.3700008392,123.6610031128,Australia/Perth
426,DRF,,,,,,,,
427,DRG,Deering Airport,Deering,US,Alaska,29.9,66.0691111111111,-162.767055555556,America/Anchorage
428,DRO,Durango-La Plata County Airport,Durango,US,Colorado,6689.4,37.1515277777778,-107.753777777778,America/Denver
429,DRT,Del Rio International Airport,Del Rio,US,Texas,1002.2,29.3742069444444,-100.927156944444,America/Chicago
430,DRW,Darwin International Airport,Darwin,AU,Northern Territory,103.0,-12.4146995544,130.8769989014,Australia/Darwin
431,DSA,Robin Hood Doncaster Sheffield Airport,Doncaster,GB,England,55.0,53.4805378105,-1.0106563568,Europe/London
432,DSM,Des Moines International Airport,Des Moines,US,Iowa,957.8,41.5339727777778,-93.6630722222222,America/Chicago
433,DTH,,,,,,,,
434,DTT,,,,,,,,
435,DTW,Detroit Metro Wayne County Airport,Detroit,US,Michigan,645.2,42.2124444444445,-83.3533888888889,America/New_York
436,DUB,Dublin Airport,Dublin,IE,Leinster,242.0,53.4212989807,-6.270070076,Europe/Dublin
437,DUJ,Dubois Regional Airport,Dubois,US,Pennsylvania,1816.8,41.1782777777778,-78.8986944444444,America/New_York
438,DUR,King Shaka International Airport,Durban,ZA,KwaZulu-Natal,295.0,-29.6144444444,31.1197222222,Africa/Johannesburg
439,DUS,Dusseldorf International Airport,Dusseldorf,DE,Nordrhein-Westfalen,147.0,51.2895011902,6.7667798996,Europe/Berlin
440,DUT,Unalaska Airport,Unalaska,US,Alaska,23.3,53.8989444444444,-166.545027777778,America/Anchorage
441,DVL,Devils Lake Regional Airport,Devils Lake,US,North Dakota,1469.4,48.1165908333333,-98.9099880555556,America/Chicago
442,DWA,Dwangwa Airport,Dwangwa,MW,Central Region,1605.0,-12.5183000565,34.1319007874,Africa/Blantyre
443,DWH,David Wayne Hooks Memorial Airport,Houston,US,Texas,152.4,30.0617791111111,-95.5527884166667,America/Chicago
444,DXB,Dubai International Airport,Dubai,AE,Dubai,34.0,25.2527999878,55.3643989563,Asia/Dubai
445,DYR,Ugolny Airport,Anadyr,RU,Chukotka,194.0,64.7349014282,177.7409973145,Asia/Anadyr
446,DZN,Zhezkazgan Airport,Zhezkazgan,KZ,Qaraghandy,1251.0,47.7083015442,67.7332992554,Asia/Almaty
447,EAA,Eagle Airport,Eagle,US,Alaska,907.2,64.7780833333333,-141.149611111111,America/Anchorage
448,EAR,Kearney Regional Airport,Kearney,US,Nebraska,2131.8,40.7270405555556,-99.00677,America/Chicago
449,EAT,Pangborn Memorial Airport,Wenatchee,US,Washington,1248.9,47.3988055555556,-120.206833333333,America/Los_Angeles
450,EAU,Chippewa Valley Regional Airport,Eau Claire,US,Wisconsin,913.1,44.8658055555556,-91.48425,America/Chicago
451,EBB,Entebbe International Airport,Kampala,UG,Central Region,3782.0,0.0423859991,32.4435005188,Africa/Kampala
452,ECP,Northwest Florida Beaches International Airport,Panama City,US,Florida,68.8,30.3582408333333,-85.7956022222222,America/Chicago
453,ECU,,,,,,,,
454,EDA,,,,,,,,
455,EDF,Elmendorf Afb Airport,Anchorage,US,Alaska,213.0,61.2513531944444,-149.806525666667,America/Anchorage
456,EDI,Edinburgh Airport,Edinburgh,GB,Scotland,135.0,55.9500007629,-3.3724999428,Europe/London
457,EDW,Edwards Afb Airport,Edwards,US,California,2311.0,34.9080883888889,-117.885528527778,America/Los_Angeles
458,EEK,Eek Airport,Eek,US,Alaska,26.5,60.2136944444444,-162.043888888889,America/Anchorage
459,EEN,Dillant/Hopkins Airport,Keene,US,New Hampshire,488.0,42.8983888888889,-72.2707777777778,America/New_York
460,EFD,Ellington Airport,Houston,US,Texas,32.5,29.6073333333333,-95.15875,America/Chicago
461,EGC,Bergerac-Roumaniere Airport,Bergerac/Roumaniere,FR,Nouvelle-Aquitaine,171.0,44.8252983093,0.5186110139,Europe/Paris
462,EGE,Eagle County Regional Airport,Eagle,US,Colorado,6547.4,39.64275,-106.915944444444,America/Denver
463,EGV,Eagle River Union Airport,Eagle River,US,Wisconsin,1642.2,45.9323333333333,-89.2682777777778,America/Chicago
464,EGX,Egegik Airport,Egegik,US,Alaska,92.3,58.1854902777778,-157.375427777778,America/Anchorage
465,EHM,Cape Newenham Lrrs Airport,Cape Newenham,US,Alaska,531.0,58.64815,-162.063802777778,America/Anchorage
466,EIL,Eielson Afb Airport,Fairbanks,US,Alaska,547.5,64.6656444444445,-147.101438888889,America/Anchorage
467,EIS,Terrance B. Lettsome International Airport,Road Town,VG,,15.0,18.4447994232,-64.5429992676,America/Tortola
468,EJA,Yariguies Airport,Barrancabermeja,CO,Santander,412.0,7.02433,-73.8068,America/Bogota
469,EKA,Murray Field,Eureka,US,California,10.9,40.8033980555556,-124.112790277778,America/Los_Angeles
470,EKI,Elkhart Municipal Airport,Elkhart,US,Indiana,777.6,41.7194061666667,-86.0032189722222,America/Indiana/Indianapolis
471,EKO,Elko Regional Airport,Elko,US,Nevada,5139.8,40.825,-115.791333333333,America/Los_Angeles
472,EKY,,,,,,,,
473,ELD,South Arkansas Regional At Goodwin Field,El Dorado,US,Arkansas,276.8,33.2212378055556,-92.8117488888889,America/Chicago
474,ELH,North Eleuthera Airport,North Eleuthera,BS,North Eleuthera,13.0,25.474899292,-76.6835021973,America/Nassau
475,ELI,Elim Airport,Elim,US,Alaska,161.5,64.6149722222222,-162.270527777778,America/Anchorage
476,ELM,Elmira/Corning Regional Airport,Elmira/Corning,US,New York,954.5,42.1598561388889,-76.8917456666667,America/New_York
477,ELN,Bowers Field,Ellensburg,US,Washington,1763.2,47.0348455,-120.528859138889,America/Los_Angeles
478,ELP,El Paso International Airport,El Paso,US,Texas,3961.6,31.8073333333333,-106.376361111111,America/Denver
479,ELV,,,,,,,,
480,ELY,Ely/Yelland Field,Ely,US,Nevada,6259.7,39.2996883333333,-114.841878055556,America/Los_Angeles
481,EMA,East Midlands Airport,Nottingham,GB,England,306.0,52.8311004639,-1.3280600309,Europe/London
482,EMK,Emmonak Airport,Emmonak,US,Alaska,16.2,62.7861388888889,-164.49075,America/Anchorage
483,ENA,Kenai Municipal Airport,Kenai,US,Alaska,99.6,60.5732777777778,-151.244833333333,America/Anchorage
484,ENN,Nenana Municipal Airport,Nenana,US,Alaska,367.7,64.5473,-149.073925,America/Anchorage
485,ENV,Wendover Airport,Wendover,US,Utah,4236.7,40.7187252777778,-114.028673611111,America/Denver
486,ENW,Kenosha Regional Airport,Kenosha,US,Wisconsin,742.6,42.5960633333333,-87.9273236111111,America/Chicago
487,EPA,El Palomar Airport,El Palomar,AR,Buenos-Aires,59.0,-34.6099,-58.6126,America/Argentina/Buenos_Aires
488,EPH,Ephrata Municipal Airport,Ephrata,US,Washington,1276.2,47.3080716666667,-119.516913611111,America/Los_Angeles
489,ERI,Erie International/Tom Ridge Field,Erie,US,Pennsylvania,732.1,42.0830833333333,-80.1739444444444,America/New_York
490,ESB,Esenboga International Airport,Ankara,TR,Ankara,3125.0,40.1281013489,32.995098114,Europe/Istanbul
491,ESC,Delta County Airport,Escanaba,US,Michigan,609.1,45.7226741666667,-87.0937158333333,America/New_York
492,ESD,Orcas Island Airport,Eastsound,US,Washington,34.8,48.7083372222222,-122.910595277778,America/Los_Angeles
493,ESN,Easton/Newnam Field,Easton,US,Maryland,72.2,38.80416,-76.0689902777778,America/New_York
494,EUG,Mahlon Sweet Field,Eugene,US,Oregon,373.7,44.1245833333333,-123.211972222222,America/Los_Angeles
495,EVE,Harstad/Narvik Airport Evenes,Evenes,NO,Nordland,84.0,68.4913024902,16.6781005859,Europe/Oslo
496,EVV,Evansville Regional Airport,Evansville,US,Indiana,421.9,38.0408055555556,-87.5285,America/Chicago
497,EVX,Evreux-Fauville (BA 105) Air Base,Evreux/Fauville,FR,Normandy,464.0,49.0287017822,1.2198599577,Europe/Paris
498,EWB,New Bedford Regional Airport,New Bedford,US,Massachusetts,79.1,41.6765661111111,-70.9578361111111,America/New_York
499,EWN,Coastal Carolina Regional Airport,New Bern,US,North Carolina,17.9,35.0728544444444,-77.0430197222222,America/New_York
500,EWR,Newark Liberty International Airport,Newark,US,New Jersey,17.4,40.6924798333333,-74.1686867777778,America/New_York
501,EXI,,,,,,,,
502,EYW,Key West International Airport,Key West,US,Florida,3.4,24.5561197222222,-81.7599558333333,America/New_York
503,EZE,Ministro Pistarini International Airport,Ezeiza,AR,Buenos-Aires,67.0,-34.8222,-58.5358,America/Argentina/Buenos_Aires
504,FAB,Farnborough Airport,Farnborough,GB,England,238.0,51.2757987976,-0.7763329744,Europe/London
505,FAI,Fairbanks International Airport,Fairbanks,US,Alaska,439.0,64.8153555555556,-147.856666666667,America/Anchorage
506,FAR,Hector International Airport,Fargo,US,North Dakota,901.3,46.9206388888889,-96.81575,America/Chicago
507,FAT,Fresno Yosemite International Airport,Fresno,US,California,335.5,36.7765555555556,-119.718833333333,America/Los_Angeles
508,FAY,Fayetteville Regional/Grannis Field,Fayetteville,US,North Carolina,189.4,34.9912111111111,-78.8802741666667,America/New_York
509,FBK,Ladd Army Air Field,Fairbanks/Ft Wainwright,US,Alaska,448.6,64.8376122222222,-147.614491944444,America/Anchorage
510,FCA,Glacier Park International Airport,Kalispell,US,Montana,2976.8,48.3105,-114.256,America/Denver
511,FCM,Flying Cloud Airport,Minneapolis,US,Minnesota,906.3,44.8275,-93.4585833333333,America/Chicago
512,FCO,Leonardo Da Vinci (Fiumicino) International Airport,Rome,IT,Latium,15.0,41.8045005798,12.2508001328,Europe/Rome
513,FDF,Martinique Aime Cesaire International Airport,Fort-de-France,MQ,Martinique,16.0,14.5909996033,-61.003200531,America/Martinique
514,FDY,Findlay Airport,Findlay,US,Ohio,812.8,41.0120277777778,-83.6686111111111,America/New_York
515,FFM,Fergus Falls Municipal/Einar Mickelson Field,Fergus Falls,US,Minnesota,1182.6,46.2843888888889,-96.1566944444445,America/Chicago
516,FFO,Wright-Patterson Afb Airport,Dayton,US,Ohio,823.3,39.8259705277778,-84.0461028333333,America/New_York
517,FFT,Capital City Airport,Frankfort,US,Kentucky,812.3,38.1817316944444,-84.9067497777778,America/New_York
518,FGI,Fagali'i Airport,Apia,WS,Tuamasaga,131.0,-13.8486995697,-171.740005493,Pacific/Apia
519,FHB,,,,,,,,
520,FHU,Sierra Vista Municipal-Libby Army Air Field,Fort Huachuca Sierra Vista,US,Arizona,4719.1,31.5884722222222,-110.344388888889,America/Phoenix
521,FID,Elizabeth Field,Fishers Island,US,New York,7.2,41.2521388888889,-72.0316388888889,America/New_York
522,FKB,Karlsruhe Baden-Baden Airport,Baden-Baden,DE,Baden-Württemberg,408.0,48.7793998718,8.0804996491,Europe/Berlin
523,FKI,Bangoka International Airport,Kisangani,CD,Tshopo,1417.0,0.4816389978,25.3379993439,Africa/Lubumbashi
524,FKL,Venango Regional Airport,Franklin,US,Pennsylvania,1540.2,41.3774166666667,-79.8606388888889,America/New_York
525,FLG,Flagstaff Pulliam Airport,Flagstaff,US,Arizona,7014.7,35.1403158333333,-111.669241388889,America/Phoenix
526,FLL,Fort Lauderdale/Hollywood International Airport,Fort Lauderdale,US,Florida,65.0,26.0716666666667,-80.1496944444444,America/New_York
527,FLO,Florence Regional Airport,Florence,US,South Carolina,146.6,34.1853611111111,-79.7238888888889,America/New_York
528,FLR,Firenze / Peretola Airport,Firenze,IT,Tuscany,142.0,43.8100013733,11.2051000595,Europe/Rome
529,FLT,,,,,,,,
530,FMN,Four Corners Regional Airport,Farmington,US,New Mexico,5506.6,36.7412511111111,-108.229941666667,America/Denver
531,FMY,Page Field,Fort Myers,US,Florida,17.1,26.586615,-81.8632469444444,America/New_York
532,FNL,Northern Colorado Regional Airport,Fort Collins/Loveland,US,Colorado,5020.3,40.4518158333333,-105.011325555556,America/Denver
533,FNR,,,,,,,,
534,FNT,Bishop International Airport,Flint,US,Michigan,782.3,42.9654722222222,-83.74475,America/New_York
535,FOD,Fort Dodge Regional Airport,Fort Dodge,US,Iowa,1156.3,42.5511944444444,-94.1918333333333,America/Chicago
536,FOE,Topeka Regional Airport,Topeka,US,Kansas,1077.9,38.9509491666667,-95.6636136111111,America/Chicago
537,FOK,Francis S Gabreski Airport,Westhampton Beach,US,New York,66.1,40.8436186111111,-72.6318119444444,America/New_York
538,FOR,Pinto Martins International Airport,Fortaleza,BR,Ceará,82.0,-3.7762799263,-38.5326004028,America/Fortaleza
539,FPO,Grand Bahama International Airport,Freeport,BS,Freeport,7.0,26.5587005615,-78.695602417,America/Nassau
540,FPR,Treasure Coast International Airport,Fort Pierce,US,Florida,23.4,27.4974722222222,-80.3726388888889,America/New_York
541,FQQ,,,,,,,,
542,FQW,,,,,,,,
543,FRA,Frankfurt am Main International Airport,Frankfurt am Main,DE,Hesse,364.0,50.0264015198,8.543129921,Europe/Berlin
544,FRD,Friday Harbor Airport,Friday Harbor,US,Washington,112.7,48.5219722222222,-123.024361111111,America/Los_Angeles
545,FRG,Republic Airport,Farmingdale,US,New York,81.0,40.7292744444444,-73.4134205555556,America/New_York
546,FRS,Mundo Maya International Airport,San Benito,GT,Peten,427.0,16.9137992859,-89.8664016724,America/Guatemala
547,FRU,Manas International Airport,Bishkek,KG,Chuey,2090.0,43.0612983704,74.4776000977,Asia/Bishkek
548,FSD,Joe Foss Field,Sioux Falls,US,South Dakota,1430.0,43.5820180555556,-96.741925,America/Chicago
549,FSM,Fort Smith Regional Airport,Fort Smith,US,Arkansas,468.9,35.3365866666667,-94.3674447222222,America/Chicago
550,FSP,St Pierre Airport,Saint-Pierre,PM,,27.0,46.7629013062,-56.1730995178,America/Miquelon
551,FTW,Fort Worth Meacham International Airport,Fort Worth,US,Texas,710.1,32.8197702777778,-97.36245,America/Chicago
552,FTY,Fulton County Exec/Charlie Brown Field,Atlanta,US,Georgia,841.1,33.7791263888889,-84.521366,America/New_York
553,FUK,Fukuoka Airport,Fukuoka,JP,Fukuoka,32.0,33.585899353,130.4510040283,Asia/Tokyo
554,FVC,,,,,,,,
555,FVG,,,,,,,,
556,FVO,,,,,,,,
557,FVQ,,,,,,,,
558,FVX,,,,,,,,
559,FVZ,,,,,,,,
560,FWA,Fort Wayne International Airport,Fort Wayne,US,Indiana,814.5,40.9784722222222,-85.1951666666667,America/New_York
561,FWH,Fort Worth Nas Jrb (Carswell Field) Airport,Fort Worth,US,Texas,650.0,32.7691861111111,-97.4415347222222,America/Chicago
562,FWL,,,,,,,,
563,FXE,Fort Lauderdale Exec Airport,Fort Lauderdale,US,Florida,13.4,26.1972793611111,-80.1707062777778,America/New_York
564,FYU,Fort Yukon Airport,Fort Yukon,US,Alaska,447.2,66.5724166666667,-145.246333333333,America/Anchorage
565,FYV,Drake Field,Fayetteville,US,Arkansas,1252.0,36.0050833333333,-94.1700555555556,America/Chicago
566,GAI,Montgomery County Airpark,Gaithersburg,US,Maryland,538.7,39.1683333333333,-77.166,America/New_York
567,GAL,Edward G Pitka Sr Airport,Galena,US,Alaska,153.7,64.7361897222222,-156.934554722222,America/Anchorage
568,GAM,Gambell Airport,Gambell,US,Alaska,29.5,63.7666163888889,-171.732783888889,America/Anchorage
569,GAO,Mariana Grajales Airport,Guantanamo,CU,Guantanamo,56.0,20.0853004456,-75.1583023071,America/Havana
570,GAQ,Gao Airport,,ML,Gao,870.0,16.2483997345,-0.0054560001,Africa/Bamako
571,GB1,,,,,,,,
572,GBD,Great Bend Municipal Airport,Great Bend,US,Kansas,1886.7,38.3442513888889,-98.8591969444444,America/Chicago
573,GBH,Galbraith Lake Airport,Galbraith Lake,US,Alaska,2662.7,68.4796666666667,-149.489916666667,America/Anchorage
574,GCC,Northeast Wyoming Regional Airport,Gillette,US,Wyoming,4365.1,44.3489080555556,-105.5393675,America/Denver
575,GCK,Garden City Regional Airport,Garden City,US,Kansas,2890.8,37.9275277777778,-100.724416666667,America/Chicago
576,GCM,Owen Roberts International Airport,Georgetown,KY,,8.0,19.2928009033,-81.3576965332,America/Cayman
577,GCN,Grand Canyon Ntl Park Airport,Grand Canyon,US,Arizona,6608.9,35.9523611111111,-112.146972222222,America/Phoenix
578,GDC,Donaldson Field,Greenville,US,South Carolina,955.9,34.7583055555556,-82.3764166666667,America/New_York
579,GDL,Don Miguel Hidalgo Y Costilla International Airport,Guadalajara,MX,Jalisco,5016.0,20.5217990875,-103.3109970093,America/Mexico_City
580,GDN,Gdańsk Lech Wałęsa Airport,Gdańsk,PL,Pomerania,489.0,54.3776016235,18.4661998749,Europe/Warsaw
581,GDT,JAGS McCartney International Airport,Cockburn Town,TC,,13.0,21.4444999695,-71.1423034668,America/Grand_Turk
582,GDV,Dawson Community Airport,Glendive,US,Montana,2458.3,47.1387222222222,-104.807222222222,America/Denver
583,GDX,Sokol Airport,Magadan,RU,Magadan,574.0,59.9109992981,150.7200012207,Asia/Magadan
584,GED,Delaware Coastal Airport,Georgetown,US,Delaware,53.3,38.6876327777778,-75.3593044444444,America/New_York
585,GEG,Spokane International Airport,Spokane,US,Washington,2385.0,47.6190277777778,-117.535222222222,America/Los_Angeles
586,GEK,,,,,,,,
587,GEO,Cheddi Jagan International Airport,Georgetown,GY,Demerara-Mahaica,95.0,6.4985499382,-58.2541007996,America/Guyana
588,GFK,Grand Forks International Airport,Grand Forks,US,North Dakota,844.6,47.9472777777778,-97.1737777777778,America/Chicago
589,GFL,Floyd Bennett Memorial Airport,Glens Falls,US,New York,328.4,43.3412222222222,-73.6103055555556,America/New_York
590,GGG,East Texas Regional Airport,Longview,US,Texas,365.5,32.384,-94.7115,America/Chicago
591,GGT,Exuma International Airport,George Town,BS,Exuma,9.0,23.5625991821,-75.8779983521,America/Nassau
592,GGW,Wokal Field/Glasgow-Valley County Airport,Glasgow,US,Montana,2295.9,48.2124444444445,-106.614805555556,America/Denver
593,GHB,Governor's Harbour Airport,Governor's Harbour,BS,North Eleuthera,26.0,25.2847003937,-76.3310012817,America/Nassau
594,GIG,Galeao - Antonio Carlos Jobim International Airport,Rio De Janeiro,BR,Rio de Janeiro,28.0,-22.8099994659,-43.2505569458,America/Sao_Paulo
595,GJT,Grand Junction Regional Airport,Grand Junction,US,Colorado,4861.4,39.1224166666667,-108.52675,America/Denver
596,GKN,Gulkana Airport,Gulkana,US,Alaska,1586.1,62.1543347222222,-145.455291666667,America/Anchorage
597,GLA,Glasgow International Airport,Glasgow,GB,Scotland,26.0,55.8718986511,-4.4330601692,Europe/London
598,GLH,Greenville Mid-Delta Airport,Greenville,US,Mississippi,130.5,33.4828811111111,-90.9856138888889,America/Chicago
599,GLR,Gaylord Regional Airport,Gaylord,US,Michigan,1328.1,45.0130277777778,-84.7034444444444,America/Detroit
600,GLV,Golovin Airport,Golovin,US,Alaska,64.6,64.5504586111111,-163.007171944444,America/Anchorage
601,GMP,Gimpo International Airport,Seoul,KR,Seoul,58.0,37.5583000183,126.791000366,Asia/Seoul
602,GMT,Granite Mountain As Airport,Granite Mountain,US,Alaska,1313.0,65.4021333333333,-161.281475,America/Anchorage
603,GND,Point Salines International Airport,Saint George's,GD,Saint-George,41.0,12.0041999817,-61.7862014771,America/Grenada
604,GNU,,,,,,,,
605,GNV,Gainesville Regional Airport,Gainesville,US,Florida,151.4,29.6900555555556,-82.2717777777778,America/New_York
606,GOA,Genova / Sestri Cristoforo Colombo Airport,Genova,IT,Liguria,13.0,44.4132995605,8.8374996185,Europe/Rome
607,GON,Groton-New London Airport,Groton (New London),US,Connecticut,9.1,41.3300555555556,-72.0451388888889,America/New_York
608,GOT,Gothenburg-Landvetter Airport,Gothenburg,SE,Vaestra-Gotaland,506.0,57.6627998352,12.279800415,Europe/Stockholm
609,GPT,Gulfport-Biloxi International Airport,Gulfport,US,Mississippi,28.0,30.4072691666667,-89.0700958333333,America/Chicago
610,GRB,Green Bay/Austin Straubel International Airport,Green Bay,US,Wisconsin,695.1,44.4846336111111,-88.1297133333333,America/Chicago
611,GRI,Central Nebraska Regional Airport,Grand Island,US,Nebraska,1847.1,40.9675425,-98.3096388888889,America/Chicago
612,GRK,Robert Gray Army Air Field,Fort Hood/Killeen,US,Texas,1015.2,31.06725,-97.8289166666667,America/Chicago
613,GRR,Gerald R Ford International Airport,Grand Rapids,US,Michigan,793.6,42.8808333333333,-85.5228055555555,America/New_York
614,GRS,Grosseto Airport,Grosetto,IT,Tuscany,17.0,42.7597007751,11.0719003677,Europe/Rome
615,GRU,Guarulhos - Governador Andre Franco Montoro International Airport,Sao Paulo,BR,São Paulo,2459.0,-23.4355564117,-46.4730567932,America/Sao_Paulo
616,GRZ,Graz Airport,Graz,AT,Styria,1115.0,46.9911003113,15.4395999908,Europe/Vienna
617,GSB,Seymour Johnson Afb Airport,Goldsboro,US,North Carolina,109.0,35.3393852777778,-77.9605944444445,America/New_York
618,GSO,Piedmont Triad International Airport,Greensboro,US,North Carolina,925.5,36.1013266666667,-79.9411227777778,America/New_York
619,GSP,Greenville Spartanburg International Airport,Greer,US,South Carolina,963.6,34.8956711111111,-82.2188594444444,America/New_York
620,GST,Gustavus Airport,Gustavus,US,Alaska,36.3,58.4252777777778,-135.707416666667,America/Anchorage
621,GTB,,,,,,,,
622,GTF,Great Falls International Airport,Great Falls,US,Montana,3680.0,47.4822992777778,-111.370279416667,America/Denver
623,GTR,Golden Triangle Regional Airport,Columbus/W Point/Starkville,US,Mississippi,264.0,33.4482777777778,-88.5913888888889,America/Chicago
624,GTU,,,,,,,,
625,GUA,La Aurora Airport,Guatemala City,GT,Guatemala,4952.0,14.5832996368,-90.5274963379,America/Guatemala
626,GUC,Gunnison-Crested Butte Regional Airport,Gunnison,US,Colorado,7679.6,38.5343333333333,-106.93175,America/Denver
627,GUF,Gulf Shores International/Jack Edwards Field,Gulf Shores,US,Alabama,17.1,30.2896388888889,-87.6717777777778,America/Chicago
628,GUM,Guam International Airport,Guam,GU,,304.5,13.4839506666667,144.797127111111,Pacific/Guam
629,GUP,Gallup Municipal Airport,Gallup,US,New Mexico,6472.3,35.5110583333333,-108.789309444444,America/Denver
630,GUS,Grissom Arb Airport,Peru,US,Indiana,810.6,40.6480916666667,-86.1521194444445,America/Indiana/Indianapolis
631,GVA,Geneva Cointrin International Airport,Geneva,CH,Geneva,1411.0,46.2380981445,6.1089501381,Europe/Zurich
632,GYE,Simon Bolivar International Airport,Guayaquil,EC,Guayas,19.0,-2.15741992,-79.8835983276,America/Guayaquil
633,GYM,General Jose Maria Yanez International Airport,Guaymas,MX,Sonora,59.0,27.9689998627,-110.9250030518,America/Hermosillo
634,GYR,Phoenix Goodyear Airport,Goodyear,US,Arizona,969.1,33.4232777777778,-112.375361111111,America/Phoenix
635,GYY,,,,,,,,
636,HAE,,,,,,,,
637,HAJ,Hannover Airport,Hannover,DE,Niedersachsen,183.0,52.461101532,9.6850795746,Europe/Berlin
638,HAM,Hamburg Airport,Hamburg,DE,Hamburg,53.0,53.6304016113,9.9882297516,Europe/Berlin
639,HAN,Noi Bai International Airport,Hanoi,VN,Ha-Nội,39.0,21.221200943,105.8069992065,Asia/Ho_Chi_Minh
640,HAO,Butler County Regional/Hogan Field,Hamilton,US,Ohio,631.8,39.36375,-84.5219444444444,America/New_York
641,HAR,Capital City Airport,Harrisburg,US,Pennsylvania,346.7,40.2171388888889,-76.8513611111111,America/New_York
642,HAV,Jose Marti International Airport,Havana,CU,La Habana,210.0,22.989200592,-82.4091033936,America/Havana
643,HBH,,,,,,,,
644,HBV,,,,,,,,
645,HCA,,,,,,,,
646,HCB,,,,,,,,
647,HCR,Holy Cross Airport,Holy Cross,US,Alaska,74.5,62.1883055555556,-159.774944444444,America/Anchorage
648,HDN,Yampa Valley Airport,Hayden,US,Colorado,6606.3,40.4811944444444,-107.217666666667,America/Denver
649,HEL,Helsinki Vantaa Airport,Helsinki,FI,Uusimaa,179.0,60.317199707,24.963300705,Europe/Helsinki
650,HES,Hermiston Municipal Airport,Hermiston,US,Oregon,644.4,45.8282222222222,-119.259166666667,America/Los_Angeles
651,HFD,Hartford-Brainard Airport,Hartford,US,Connecticut,18.3,41.7367222222222,-72.6494444444445,America/New_York
652,HGH,Hangzhou Xiaoshan International Airport,Hangzhou,CN,Zhejiang,23.0,30.2294998169,120.4339981079,Asia/Shanghai
653,HGR,Hagerstown Regional/Richard A Henson Field,Hagerstown,US,Maryland,703.1,39.7085,-77.7265,America/New_York
654,HGZ,Hog River Airport,Hogatza,US,Alaska,534.0,66.1761333333333,-155.684816666667,America/Anchorage
655,HHH,Hilton Head Airport,Hilton Head Island,US,South Carolina,19.4,32.224495,-80.6974008333333,America/New_York
656,HHN,Frankfurt-Hahn Airport,Hahn,DE,Rheinland-Pfalz,1649.0,49.9486999512,7.2638897896,Europe/Berlin
657,HIB,Range Regional Airport,Hibbing,US,Minnesota,1353.7,47.386575,-92.8389780555556,America/Chicago
658,HIF,Hill Afb Airport,Ogden,US,Utah,4789.0,41.12394,-111.973056388889,America/Denver
659,HII,Lake Havasu City Airport,Lake Havasu City,US,Arizona,782.8,34.5711238888889,-114.358276944444,America/Phoenix
660,HIJ,Hiroshima Airport,Hiroshima,JP,Hiroshima,1088.0,34.4361000061,132.919006348,Asia/Tokyo
661,HIK,,,,,,,,
662,HIO,Portland-Hillsboro Airport,Portland,US,Oregon,207.9,45.54212175,-122.950721888889,America/Los_Angeles
663,HKB,,,,,,,,
664,HKD,Hakodate Airport,Hakodate,JP,Hokkaido,151.0,41.7700004578,140.822006226,Asia/Tokyo
665,HKG,Chek Lap Kok International Airport,Hong Kong,HK,,28.0,22.3089008331,113.915000916,Asia/Hong_Kong
666,HKS,Hawkins Field,Jackson,US,Mississippi,341.3,32.3347777777778,-90.2225277777778,America/Chicago
667,HKY,Hickory Regional Airport,Hickory,US,North Carolina,1189.6,35.7411455555556,-81.3895505555556,America/New_York
668,HLM,,,,,,,,
669,HLN,Helena Regional Airport,Helena,US,Montana,3877.3,46.6067222222222,-111.983277777778,America/Denver
670,HMN,Holloman Afb Airport,Alamogordo,US,New Mexico,4092.6,32.8518583333333,-106.108541666667,America/Denver
671,HMO,General Ignacio P. Garcia International Airport,Hermosillo,MX,Sonora,627.0,29.0958995819,-111.047996521,America/Hermosillo
672,HND,Tokyo International Airport,Tokyo,JP,Tokyo,35.0,35.5522994995,139.7799987793,Asia/Tokyo
673,HNH,Hoonah Airport,Hoonah,US,Alaska,21.5,58.0961991666667,-135.40875625,America/Anchorage
674,HNL,Daniel K Inouye International Airport,Honolulu,US,Hawaii,12.6,21.3178172222222,-157.9202275,Pacific/Honolulu
675,HNM,Hana Airport,Hana,US,Hawaii,77.5,20.7956371666667,-156.014437888889,Pacific/Honolulu
676,HNS,Haines Airport,Haines,US,Alaska,15.3,59.2438291666667,-135.5235375,America/Anchorage
677,HOB,Lea County Regional Airport,Hobbs,US,New Mexico,3660.7,32.6875,-103.217333333333,America/Denver
678,HOG,Frank Pais International Airport,Holguin,CU,Holguin,361.0,20.7856006622,-76.3151016235,America/Havana
679,HOM,Homer Airport,Homer,US,Alaska,84.3,59.6449949722222,-151.485808416667,America/Anchorage
680,HON,Huron Regional Airport,Huron,US,South Dakota,1288.7,44.3851944444444,-98.2285555555556,America/Chicago
681,HOP,Campbell Army Air Field (Fort Campbell) Airport,Fort Campbell/Hopkinsville,US,Kentucky,571.0,36.672956,-87.4918195,America/Chicago
682,HOT,Memorial Field,Hot Springs,US,Arkansas,540.3,34.4780277777778,-93.0962222222222,America/Chicago
683,HOU,William P Hobby Airport,Houston,US,Texas,46.3,29.6457998333333,-95.2772315833333,America/Chicago
684,HPB,Hooper Bay Airport,Hooper Bay,US,Alaska,19.5,61.5238705555556,-166.146622777778,America/Anchorage
685,HPN,Westchester County Airport,White Plains,US,New York,439.0,41.0669530555556,-73.7075661111111,America/New_York
686,HRL,Valley International Airport,Harlingen,US,Texas,36.3,26.2271111111111,-97.6551388888889,America/Chicago
687,HRO,Boone County Airport,Harrison,US,Arkansas,1364.5,36.2615205555556,-93.1547288888889,America/Chicago
688,HSH,Henderson Exec Airport,Las Vegas,US,Nevada,2491.4,35.972855,-115.134384722222,America/Los_Angeles
689,HSL,Huslia Airport,Huslia,US,Alaska,219.7,65.6978611111111,-156.351388888889,America/Anchorage
690,HST,Homestead Arb Airport,Homestead,US,Florida,5.6,25.4885506388889,-80.3835664166667,America/New_York
691,HSV,Huntsville International-Carl T Jones Field,Huntsville,US,Alabama,628.9,34.6371969444444,-86.7750541666667,America/Chicago
692,HTO,,,,,,,,
693,HTS,Tri-State/Milton J Ferguson Field,Huntington,US,West Virginia,828.3,38.3685078055556,-82.5603602222222,America/New_York
694,HUF,Terre Haute Regional Airport,Terre Haute,US,Indiana,589.2,39.4506319444444,-87.30699,America/Indiana/Indianapolis
695,HUM,Houma-Terrebonne Airport,Houma,US,Louisiana,9.0,29.5665020833333,-90.6604266666667,America/Chicago
696,HUS,Hughes Airport,Hughes,US,Alaska,298.6,66.0390833333333,-154.264694444444,America/Anchorage
697,HUX,Bahias de Huatulco International Airport,Huatulco,MX,Oaxaca,464.0,15.7753000259,-96.2626037598,America/Mexico_City
698,HUY,Humberside Airport,Grimsby,GB,England,121.0,53.5744018555,-0.3508329988,Europe/London
699,HVC,,,,,,,,
700,HVN,Tweed/New Haven Airport,New Haven,US,Connecticut,12.6,41.2637247222222,-72.8877291666667,America/New_York
701,HVR,Havre City-County Airport,Havre,US,Montana,2591.3,48.5429847222222,-109.762342222222,America/Denver
702,HYA,Cape Cod Gateway Airport,Hyannis,US,Massachusetts,54.1,41.6693372222222,-70.2803591666667,America/New_York
703,HYD,Rajiv Gandhi International Airport Shamshabad,Hyderabad,IN,Telangana,2024.0,17.2313175201,78.4298553467,Asia/Kolkata
704,HYG,,,,,,,,
705,HYL,,,,,,,,
706,HYS,Hays Regional Airport,Hays,US,Kansas,1999.1,38.8422222222222,-99.2731666666667,America/Chicago
707,IA1,,,,,,,,
708,IAB,Mc Connell Afb Airport,Wichita,US,Kansas,1371.5,37.6231159722222,-97.2676291666667,America/Chicago
709,IAD,Washington Dulles International Airport,Washington,US,Dist. Of Columbia,313.0,38.9474444444444,-77.4599444444444,America/New_York
710,IAG,Niagara Falls International Airport,Niagara Falls,US,New York,592.3,43.1075573611111,-78.9458466666667,America/New_York
711,IAH,George Bush Intcntl/Houston Airport,Houston,US,Texas,95.8,29.9844352777778,-95.3414425,America/Chicago
712,IAN,Bob Baker Memorial Airport,Kiana,US,Alaska,178.7,66.9761775,-160.438599166667,America/Anchorage
713,IBE,Perales Airport,Ibague,CO,Tolima,2999.0,4.42161,-75.1333,America/Bogota
714,IBR,Hyakuri Airport,Omitama,JP,Ibaraki,105.0,36.181098938,140.414993286,Asia/Tokyo
715,ICN,Incheon International Airport,Seoul,KR,Incheon,23.0,37.4691009521,126.4509963989,Asia/Seoul
716,ICT,Wichita Dwight D Eisenhower Ntl Airport,Wichita,US,Kansas,1332.6,37.6499525,-97.4330427777778,America/Chicago
717,ID1,,,,,,,,
718,IDA,Idaho Falls Regional Airport,Idaho Falls,US,Idaho,4743.7,43.5136733333333,-112.070820277778,America/Boise
719,IFP,Laughlin/Bullhead International Airport,Bullhead City,US,Arizona,707.1,35.1546144444444,-114.559332222222,America/Phoenix
720,IGG,Igiugig Airport,Igiugig,US,Alaska,90.4,59.3240416666667,-155.901772777778,America/Anchorage
721,IGM,Kingman Airport,Kingman,US,Arizona,3448.8,35.2594780555556,-113.938050277778,America/Phoenix
722,IGS,Ingolstadt Manching Airport,Manching,DE,Bayern,1202.0,48.7156982422,11.5340003967,Europe/Berlin
723,II2,,,,,,,,
724,IKO,Nikolski As Airport,Nikolski,US,Alaska,76.6,52.9415555555556,-168.849027777778,America/Adak
725,ILG,New Castle Airport,Wilmington,US,Delaware,79.9,39.6787097222222,-75.606635,America/New_York
726,ILI,Iliamna Airport,Iliamna,US,Alaska,192.4,59.7555781111111,-154.91775225,America/Anchorage
727,ILM,Wilmington International Airport,Wilmington,US,North Carolina,31.7,34.2711388888889,-77.9028888888889,America/New_York
728,ILN,Wilmington Air Park,Wilmington,US,Ohio,1076.7,39.4279166666667,-83.7921111111111,America/New_York
729,IMT,Ford Airport,Iron Mountain Kingsford,US,Michigan,1182.0,45.8183611111111,-88.1145555555556,America/Chicago
730,INC,Yinchuan Airport,Yinchuan,CN,Ningsia-Hui-Autonomous-Region,0.0,38.4818992615,106.0090026855,Asia/Shanghai
731,IND,Indianapolis International Airport,Indianapolis,US,Indiana,796.2,39.7173055555556,-86.2946388888889,America/New_York
732,INL,Falls International/Einarson Field,International Falls,US,Minnesota,1184.4,48.5655877777778,-93.4021791666667,America/Chicago
733,INN,Innsbruck Airport,Innsbruck,AT,Tyrol,1906.0,47.2602005005,11.3439998627,Europe/Vienna
734,INS,Creech Afb Airport,Indian Springs,US,Nevada,3134.1,36.5863437777778,-115.677370555556,America/Los_Angeles
735,INT,Smith Reynolds Airport,Winston Salem,US,North Carolina,969.4,36.1337138055556,-80.2219877222222,America/New_York
736,INV,Inverness Airport,Inverness,GB,Scotland,31.0,57.5424995422,-4.0475001335,Europe/London
737,IOW,Iowa City Municipal Airport,Iowa City,US,Iowa,683.7,41.6397683333333,-91.5481375,America/Chicago
738,IPL,Imperial County Airport,Imperial,US,California,-53.6,32.8342222222222,-115.57875,America/Los_Angeles
739,IPT,Williamsport Regional Airport,Williamsport,US,Pennsylvania,528.1,41.2416666666667,-76.9218055555556,America/New_York
740,IQ2,,,,,,,,
741,IQQ,Diego Aracena Airport,Iquique,CL,Tarapaca,155.0,-20.535200119,-70.1812973022,America/Santiago
742,IQT,Coronel FAP Francisco Secada Vignetta International Airport,Iquitos,PE,Loreto,306.0,-3.7847399712,-73.3087997437,America/Lima
743,IRC,Circle City Airport,Circle,US,Alaska,613.2,65.8279166666667,-144.076197222222,America/Anchorage
744,IRK,Kirksville Regional Airport,Kirksville,US,Missouri,966.3,40.0934722222222,-92.5449166666667,America/Chicago
745,IRS,Kirsch Municipal Airport,Sturgis,US,Michigan,924.8,41.8132876111111,-85.4389607222222,America/Detroit
746,ISB,Islamabad International Airport,Islamabad,PK,Punjab,1761.0,33.5490833333333,72.82565,Asia/Karachi
747,ISN,,,,,,,,
748,ISO,Kinston Regional Jetport At Stallings Field,Kinston,US,North Carolina,92.9,35.3314313888889,-77.6088313888889,America/New_York
749,ISP,Long Island Mac Arthur Airport,New York,US,New York,98.7,40.7961356944444,-73.1006650555556,America/New_York
750,IST,Istanbul Airport,Istanbul,TR,Istanbul,325.0,41.275333,28.752,Europe/Istanbul
751,IT1,,,,,,,,
752,ITH,Ithaca Tompkins International Airport,Ithaca,US,New York,1099.0,42.4913611111111,-76.4587222222222,America/New_York
753,ITO,Hilo International Airport,Hilo,US,Hawaii,37.6,19.720263,-155.048470138889,Pacific/Honolulu
754,IUD,Al Udeid Air Base,Ar Rayyan,QA,Baladiyat-ar-Rayyan,130.0,25.1173000336,51.3149986267,Asia/Qatar
755,IWD,Gogebic/Iron County Airport,Ironwood,US,Michigan,1230.3,46.5274813888889,-90.1313944444444,America/Menominee
756,IWO,Iwo Jima Airport,,JP,Tokyo,384.0,24.7840003967,141.3229980469,Asia/Tokyo
757,IYK,Inyokern Airport,Inyokern,US,California,2457.0,35.6587412777778,-117.8295325,America/Los_Angeles
758,JAC,Jackson Hole Airport,Jackson,US,Wyoming,6450.7,43.6073333333333,-110.73775,America/Denver
759,JAN,Jackson-Medgar Wiley Evers International Airport,Jackson,US,Mississippi,346.4,32.3111666666667,-90.0758888888889,America/Chicago
760,JAX,Jacksonville International Airport,Jacksonville,US,Florida,29.6,30.4940455555556,-81.6878466666667,America/New_York
761,JBR,Jonesboro Municipal Airport,Jonesboro,US,Arkansas,262.1,35.8317111111111,-90.6464219444445,America/Chicago
762,JDA,Grant County Regional/Ogilvie Field,John Day,US,Oregon,3702.5,44.402982,-118.967719472222,America/Los_Angeles
763,JED,King Abdulaziz International Airport,Jeddah,SA,Makkah,48.0,21.679599762,39.15650177,Asia/Riyadh
764,JEF,Jefferson City Memorial Airport,Jefferson City,US,Missouri,549.4,38.5911736111111,-92.1561447222222,America/Chicago
765,JER,Jersey Airport,Saint Helier,JE,St-Peter,277.0,49.207901001,-2.1955099106,Europe/Jersey
766,JFK,John F Kennedy International Airport,New York,US,New York,13.0,40.6399277777778,-73.7786925,America/New_York
767,JGC,,,,,,,,
768,JHM,Kapalua Airport,Lahaina,US,Hawaii,255.8,20.9629363888889,-156.673031666667,Pacific/Honolulu
769,JHW,Chautauqua County/Jamestown Airport,Jamestown,US,New York,1723.3,42.1533938888889,-79.2580230555556,America/New_York
770,JIB,Djibouti-Ambouli Airport,Djibouti City,DJ,Djibouti,49.0,11.5473003387,43.1595001221,Africa/Djibouti
771,JLN,Joplin Regional Airport,Joplin,US,Missouri,977.7,37.1531675,-94.4988083333333,America/Chicago
772,JMK,Mikonos Airport,Mykonos Island,GR,South Aegean,405.0,37.4351005554,25.3481006622,Europe/Athens
773,JMS,Jamestown Regional Airport,Jamestown,US,North Dakota,1499.9,46.9297222222222,-98.6781944444444,America/Chicago
774,JNB,O. R. Tambo International Airport,Johannesburg,ZA,Gauteng,5558.0,-26.133667,28.242333,Africa/Johannesburg
775,JNU,Juneau International Airport,Juneau,US,Alaska,25.3,58.3547118055556,-134.578470527778,America/Anchorage
776,JO2,,,,,,,,
777,JO3,,,,,,,,
778,JQF,,,,,,,,
779,JRV,,,,,,,,
780,JST,John Murtha Johnstown/Cambria County Airport,Johnstown,US,Pennsylvania,2284.2,40.3155555555556,-78.8346666666667,America/New_York
781,JZE,,,,,,,,
782,JZI,,,,,,,,
783,JZL,,,,,,,,
784,JZM,,,,,,,,
785,JZT,,,,,,,,
786,KAE,,,,,,,,
787,KAL,Kaltag Airport,Kaltag,US,Alaska,181.1,64.31898,-158.741305833333,America/Anchorage
788,KBC,,,,,,,,
789,KBE,,,,,,,,
790,KBL,Kabul International Airport,Kabul,AF,Kabul,5877.0,34.5658988953,69.2123031616,Asia/Kabul
791,KBP,Boryspil International Airport,Kyiv,UA,Kyiv,427.0,50.3450012207,30.8946990967,Europe/Kyiv
792,KCC,,,,,,,,
793,KCG,,,,,,,,
794,KCL,,,,,,,,
795,KCN,,,,,,,,
796,KCQ,,,,,,,,
797,KCR,,,,,,,,
798,KCZ,Kochi Ryoma Airport,Nankoku,JP,Kochi,42.0,33.5461006165,133.669006348,Asia/Tokyo
799,KDH,Kandahar Airport,,AF,Kandahar,3337.0,31.5058002472,65.8478012085,Asia/Kabul
800,KEB,,,,,,,,
801,KEF,Keflavik International Airport,Reykjavik,IS,Southern Peninsula,171.0,63.9850006104,-22.6056003571,Atlantic/Reykjavik
802,KEH,,,,,,,,
803,KEK,,,,,,,,
804,KFP,False Pass Airport,False Pass,US,Alaska,18.3,54.8478611111111,-163.407111111111,America/Anchorage
805,KGK,Koliganek Airport,Koliganek,US,Alaska,271.8,59.72675,-157.26025,America/Anchorage
806,KGX,,,,,,,,
807,KHH,Kaohsiung International Airport,Kaohsiung City,TW,Takao,31.0,22.5771007538,120.3499984741,Asia/Taipei
808,KHI,Jinnah International Airport,Karachi,PK,Sindh,100.0,24.9064998627,67.1607971191,Asia/Karachi
809,KHV,Khabarovsk-Novy Airport,Khabarovsk,RU,Khabarovsk,244.0,48.5279998779,135.18800354,Asia/Vladivostok
810,KIJ,Niigata Airport,Niigata,JP,Niigata,29.0,37.9558982849,139.121002197,Asia/Tokyo
811,KIK,Kirkuk Air Base,Kirkuk,IQ,Kirkuk,1061.0,35.4695014954,44.3488998413,Asia/Baghdad
812,KIN,Norman Manley International Airport,Kingston,JM,Kingston,10.0,17.9356994629,-76.7874984741,America/Jamaica
813,KIX,Kansai International Airport,Osaka,JP,Osaka,26.0,34.4272994995,135.2440032959,Asia/Tokyo
814,KKA,Koyuk Alfred Adams Airport,Koyuk,US,Alaska,161.5,64.9395277777778,-161.154277777778,America/Anchorage
815,KKB,,,,,,,,
816,KKH,Kongiganak Airport,Kongiganak,US,Alaska,32.7,59.9616308333333,-162.880593888889,America/Anchorage
817,KKI,,,,,,,,
818,KLG,Kalskag Airport,Kalskag,US,Alaska,63.3,61.5359722222222,-160.345583333333,America/Anchorage
819,KLL,,,,,,,,
820,KLN,Larsen Bay Airport,Larsen Bay,US,Alaska,86.7,57.5350833333333,-153.976666666667,America/Anchorage
821,KLW,Klawock Airport,Klawock,US,Alaska,79.7,55.5792222222222,-133.076,America/Anchorage
822,KMJ,Kumamoto Airport,Kumamoto,JP,Kumamoto,642.0,32.8372993469,130.8549957275,Asia/Tokyo
823,KMO,Manokotak Airport,Manokotak,US,Alaska,106.6,58.9320555555556,-158.901888888889,America/Anchorage
824,KMQ,Komatsu Airport,Kanazawa,JP,Ishikawa,36.0,36.3945999146,136.4069976807,Asia/Tokyo
825,KMY,,,,,,,,
826,KNK,Kokhanok Airport,Kokhanok,US,Alaska,114.7,59.4332861111111,-154.802591666667,America/Anchorage
827,KNW,New Stuyahok Airport,New Stuyahok,US,Alaska,370.7,59.4515277777778,-157.373166666667,America/Anchorage
828,KOA,Ellison Onizuka Kona International At Keahole Airport,Kailua/Kona,US,Hawaii,47.1,19.7387658333333,-156.045631388889,Pacific/Honolulu
829,KOJ,Kagoshima Airport,Kagoshima,JP,Kagoshima,906.0,31.8034000397,130.7189941406,Asia/Tokyo
830,KOT,Kotlik Airport,Kotlik,US,Alaska,13.6,63.0305833333333,-163.532638888889,America/Anchorage
831,KOY,,,,,,,,
832,KOZ,,,,,,,,
833,KPB,,,,,,,,
834,KPC,Port Clarence Cgs Airport,Port Clarence,US,Alaska,10.0,65.2534555555556,-166.857627777778,America/Nome
835,KPM,Kompiam Airport,,PG,Enga,5100.0,-5.3816666667,143.924722222,Pacific/Port_Moresby
836,KPN,Kipnuk Airport,Kipnuk,US,Alaska,19.5,59.9316111111111,-164.028111111111,America/Anchorage
837,KPR,,,,,,,,
838,KPV,Perryville Airport,Perryville,US,Alaska,29.9,55.9067236111111,-159.160829166667,America/Anchorage
839,KPY,,,,,,,,
840,KQA,,,,,,,,
841,KRK,John Paul II International Airport Kraków-Balice Airport,Kraków,PL,Lesser-Poland-Voivodeship,791.0,50.0777015686,19.7847995758,Europe/Warsaw
842,KSA,Kosrae Airport,Kosrae,FM,,11.6,5.35697222222222,162.958388888889,Pacific/Kosrae
843,KSC,Kosice Airport,Kosice,SK,Kosicky,755.0,48.6631011963,21.2411003113,Europe/Bratislava
844,KSM,St Mary's Airport,St Mary'S,US,Alaska,314.1,62.0608308333333,-163.301836388889,America/Nome
845,KSP,,,,,,,,
846,KTB,,,,,,,,
847,KTN,Ketchikan International Airport,Ketchikan,US,Alaska,92.4,55.3540833333333,-131.711222222222,America/Anchorage
848,KTP,Tinson Pen Airport,Tinson Pen,JM,St-Andrew,16.0,17.9885997772,-76.8237991333,America/Jamaica
849,KTS,Brevig Mission Airport,Brevig Mission,US,Alaska,38.1,65.3313333333333,-166.465722222222,America/Anchorage
850,KTW,Katowice International Airport,Katowice,PL,Silesia,995.0,50.4743003845,19.0799999237,Europe/Warsaw
851,KUK,Kasigluk Airport,Kasigluk,US,Alaska,47.9,60.8733333333333,-162.524305555556,America/Anchorage
852,KUL,Kuala Lumpur International Airport,Kuala Lumpur,MY,,69.0,2.745579958,101.7099990845,Asia/Kuala_Lumpur
853,KUV,Kunsan Air Base,Kunsan,KR,Jeollabuk-do,29.0,35.9038009644,126.6159973145,Asia/Seoul
854,KVC,King Cove Airport,King Cove,US,Alaska,148.9,55.1163841666667,-162.266535555556,America/Anchorage
855,KVL,Kivalina Airport,Kivalina,US,Alaska,18.4,67.7361388888889,-164.5635,America/Anchorage
856,KWA,Bucholz Army Air Field(Kwajalein Kmr)(Atoll) Airport,Kwajalein,MH,,15.9,8.72012522222222,167.73165225,Pacific/Kwajalein
857,KWF,,,,,,,,
858,KWI,Kuwait International Airport,Kuwait City,KW,,206.0,29.2267666666667,47.9799527777778,Asia/Kuwait
859,KWK,Kwigillingok Airport,Kwigillingok,US,Alaska,21.4,59.8756888888889,-163.1680875,America/Anchorage
860,KWN,Quinhagak Airport,Quinhagak,US,Alaska,43.2,59.7550930555556,-161.845365555556,America/Anchorage
861,KWP,,,,,,,,
862,KWT,Kwethluk Airport,Kwethluk,US,Alaska,25.3,60.7903333333333,-161.443694444444,America/Anchorage
863,KXA,,,,,,,,
864,KYK,Karluk Airport,Karluk,US,Alaska,141.9,57.5660555555556,-154.453805555556,America/Anchorage
865,KYU,Koyukuk Airport,Koyukuk,US,Alaska,148.9,64.8758055555555,-157.730444444444,America/Anchorage
866,KZB,,,,,,,,
867,KZN,Kazan International Airport,Kazan,RU,Tatarstan,411.0,55.6062011719,49.2787017822,Europe/Moscow
868,L41,,,,,,,,
869,LAD,Quatro De Fevereiro Airport,Luanda,AO,Luanda,243.0,-8.8583698273,13.2312002182,Africa/Luanda
870,LAF,Purdue University Airport,Lafayette,US,Indiana,605.9,40.4123055555556,-86.9368888888889,America/New_York
871,LAL,Lakeland Linder International Airport,Lakeland,US,Florida,141.8,27.9876388888889,-82.019,America/New_York
872,LAN,Capital Region International Airport,Lansing,US,Michigan,860.8,42.7786388888889,-84.5861944444444,America/Detroit
873,LAP,Manuel Marquez de Leon International Airport,La Paz,MX,Baja California Sur,69.0,24.0727005005,-110.361999512,America/Mazatlan
874,LAR,Laramie Regional Airport,Laramie,US,Wyoming,7283.5,41.3120555555556,-105.675,America/Denver
875,LAS,Harry Reid International Airport,Las Vegas,US,Nevada,2181.2,36.0800438888889,-115.152234722222,America/Los_Angeles
876,LAW,Lawton-Fort Sill Regional Airport,Lawton,US,Oklahoma,1110.3,34.5677144444444,-98.4166366666667,America/Chicago
877,LAX,Los Angeles International Airport,Los Angeles,US,California,127.8,33.9424963888889,-118.408048611111,America/Los_Angeles
878,LBA,Leeds Bradford Airport,Leeds,GB,England,681.0,53.8658981323,-1.6605700254,Europe/London
879,LBB,Lubbock Preston Smith International Airport,Lubbock,US,Texas,3282.4,33.6636666666667,-101.820555555556,America/Chicago
880,LBE,Arnold Palmer Regional Airport,Latrobe,US,Pennsylvania,1198.7,40.2731005,-79.4103255555556,America/New_York
881,LBF,North Platte Regional/Lee Bird Field,North Platte,US,Nebraska,2777.0,41.1262127777778,-100.683653055556,America/Chicago
882,LBG,Paris-Le Bourget Airport,Paris,FR,Ile-de-France,218.0,48.9693984985,2.4413900375,Europe/Paris
883,LBL,Liberal Mid-America Regional Airport,Liberal,US,Kansas,2885.4,37.0439211111111,-100.959968611111,America/Chicago
884,LBV,Leon M Ba Airport,Libreville,GA,Estuaire,39.0,0.4586000144,9.4122800827,Africa/Libreville
885,LCA,Larnaca International Airport,Larnarca,CY,Larnaka,8.0,34.8750991821,33.6249008179,Asia/Nicosia
886,LCE,Goloson International Airport,La Ceiba,HN,Atlantida,49.0,15.7425003052,-86.8529968262,America/Tegucigalpa
887,LCG,A Coruna Airport,Culleredo,ES,Galicia,326.0,43.3021011353,-8.3772602081,Europe/Madrid
888,LCH,Lake Charles Regional Airport,Lake Charles,US,Louisiana,14.6,30.1260833333333,-93.2234166666667,America/Chicago
889,LCI,Laconia Municipal Airport,Laconia,US,New Hampshire,545.4,43.5730416666667,-71.4178416666667,America/New_York
890,LCK,Rickenbacker International Airport,Columbus,US,Ohio,743.9,39.8137777777778,-82.9278055555556,America/New_York
891,LCY,London City Airport,London,GB,England,19.0,51.5052986145,0.0552779995,Europe/London
892,LDE,Tarbes-Lourdes-Pyrenees Airport,Tarbes/Lourdes/Pyrenees,FR,Occitanie,1260.0,43.1786994934,-0.0064389999,Europe/Paris
893,LDY,City of Derry Airport,Derry,GB,Northern Ireland,22.0,55.0428009033,-7.1611099243,Europe/London
894,LEB,Lebanon Municipal Airport,Lebanon,US,New Hampshire,603.3,43.6261111111111,-72.3041944444444,America/New_York
895,LED,Pulkovo Airport,St. Petersburg,RU,Leningradskaya-Oblast',78.0,59.8003005981,30.2625007629,Europe/Moscow
896,LEH,Le Havre Octeville Airport,Le Havre/Octeville,FR,Normandy,313.0,49.5339012146,0.0880559981,Europe/Paris
897,LEJ,Leipzig Halle Airport,Leipzig,DE,Saxony,465.0,51.4323997498,12.2416000366,Europe/Berlin
898,LEW,Auburn/Lewiston Municipal Airport,Auburn/Lewiston,US,Maine,287.5,44.0484727777778,-70.2835075,America/New_York
899,LEX,Blue Grass Airport,Lexington,US,Kentucky,979.3,38.03675,-84.6086388888889,America/New_York
900,LFI,Langley Afb Airport,Hampton,US,Virginia,8.0,37.0828861111111,-76.3605388888889,America/New_York
901,LFT,Lafayette Regional/Paul Fournet Field,Lafayette,US,Louisiana,41.7,30.2050277777778,-91.98775,America/Chicago
902,LGA,Laguardia Airport,New York,US,New York,20.6,40.77725,-73.8726111111111,America/New_York
903,LGB,Long Beach (Daugherty Field) Airport,Long Beach,US,California,60.4,33.8179297222222,-118.151890555556,America/Los_Angeles
904,LGC,Lagrange/Callaway Airport,Lagrange,US,Georgia,693.6,33.0091508333333,-85.0732041666667,America/New_York
905,LGD,La Grande/Union County Airport,La Grande,US,Oregon,2717.6,45.2890780555556,-118.006123611111,America/Los_Angeles
906,LGG,Liege Airport,Liege,BE,Wallonia,659.0,50.6374015808,5.4432201385,Europe/Brussels
907,LGU,Logan-Cache Airport,Logan,US,Utah,4456.9,41.7917705555556,-111.851647222222,America/Denver
908,LGW,London Gatwick Airport,London,GB,England,202.0,51.1481018066,-0.1902779937,Europe/London
909,LHE,Alama Iqbal International Airport,Lahore,PK,Punjab,712.0,31.5216007233,74.4036026001,Asia/Karachi
910,LHR,London Heathrow Airport,London,GB,England,83.0,51.4706001282,-0.4619410038,Europe/London
911,LIH,Lihue Airport,Lihue,US,Hawaii,152.4,21.9759833333333,-159.338957777778,Pacific/Honolulu
912,LIJ,,,,,,,,
913,LIL,Lille-Lesquin Airport,Lille/Lesquin,FR,Hauts-de-France,157.0,50.5619010925,3.0894401073,Europe/Paris
914,LIM,Jorge Chavez International Airport,Lima,PE,Callao,113.0,-12.021900177,-77.1143035889,America/Lima
915,LIN,Linate Airport,Milan,IT,Lombardy,353.0,45.445098877,9.2767400742,Europe/Rome
916,LIR,Daniel Oduber Quiros International Airport,Liberia,CR,Guanacaste,270.0,10.5932998657,-85.5444030762,America/Costa_Rica
917,LIS,Lisbon Portela Airport,Lisbon,PT,Lisbon,374.0,38.7812995911,-9.1359195709,Europe/Lisbon
918,LIT,Bill And Hillary Clinton Ntl/Adams Field,Little Rock,US,Arkansas,266.0,34.7294413888889,-92.2247772222222,America/Chicago
919,LIV,,,,,,,,
920,LJN,Texas Gulf Coast Regional Airport,Angleton/Lake Jackson,US,Texas,25.2,29.1086388888889,-95.4620833333333,America/Chicago
921,LKE,,,,,,,,
922,LKK,Kulik Lake Airport,Kulik Lake,US,Alaska,717.0,58.9650055555556,-155.0956125,America/Anchorage
923,LMA,Minchumina Airport,Minchumina,US,Alaska,681.8,63.8859722222222,-152.301833333333,America/Anchorage
924,LMM,Valle del Fuerte International Airport,Los Mochis,MX,Sinaloa,16.0,25.6851997375,-109.081001282,America/Mazatlan
925,LMT,Crater Lake/Klamath Regional Airport,Klamath Falls,US,Oregon,4095.4,42.1561438888889,-121.733204722222,America/Los_Angeles
926,LNK,Lincoln Airport,Lincoln,US,Nebraska,1218.6,40.8508888888889,-96.7591111111111,America/Chicago
927,LNS,Lancaster Airport,Lancaster,US,Pennsylvania,402.6,40.1223611111111,-76.2943611111111,America/New_York
928,LNY,Lanai Airport,Lanai City,US,Hawaii,1308.1,20.7856111111111,-156.951418055556,Pacific/Honolulu
929,LOM,,,,,,,,
930,LOS,Murtala Muhammed International Airport,Lagos,NG,Lagos,135.0,6.5773701668,3.321160078,Africa/Lagos
931,LOZ,London/Corbin/Magee Airport,London,US,Kentucky,1212.3,37.0868888888889,-84.0773888888889,America/New_York
932,LPA,Gran Canaria Airport,Gran Canaria Island,ES,Canary-Islands,78.0,27.9319000244,-15.3865995407,Atlantic/Canary
933,LPB,El Alto International Airport,La Paz / El Alto,BO,La Paz,13355.0,-16.513299942,-68.1922988892,America/La_Paz
934,LPC,Lompoc Airport,Lompoc,US,California,88.1,34.6656194444444,-120.467502777778,America/Los_Angeles
935,LPS,,,,,,,,
936,LRD,Laredo International Airport,Laredo,US,Texas,508.0,27.5441944444444,-99.4615833333333,America/Chicago
937,LRM,Casa De Campo International Airport,La Romana,DO,La Romana,240.0,18.4507007599,-68.9117965698,America/Santo_Domingo
938,LRO,,,,,,,,
939,LRU,Las Cruces International Airport,Las Cruces,US,New Mexico,4456.9,32.2894166666667,-106.921972222222,America/Denver
940,LSE,La Crosse Regional Airport,La Crosse,US,Wisconsin,655.4,43.8792656666667,-91.2566336111111,America/Chicago
941,LSF,Lawson Army Air Field (Fort Benning) Airport,Fort Benning(Columbus),US,Georgia,227.4,32.3317805555556,-84.9871522222222,America/New_York
942,LSP,Josefa Camejo International Airport,Paraguana,VE,Falcon,75.0,11.7807750702,-70.1514968872,America/Caracas
943,LSV,Nellis Afb Airport,Las Vegas,US,Nevada,1869.1,36.2362,-115.034255555556,America/Los_Angeles
944,LTN,London Luton Airport,London,GB,England,526.0,51.8746986389,-0.3683330119,Europe/London
945,LTO,Loreto International Airport,Loreto,MX,Baja California Sur,34.0,25.989200592,-111.3479995728,America/Mazatlan
946,LUF,Luke Afb Airport,Glendale,US,Arizona,1083.9,33.5349605,-112.383205222222,America/Phoenix
947,LUK,Cincinnati Municipal/Lunken Field,Cincinnati,US,Ohio,483.3,39.1033333333333,-84.4186111111111,America/New_York
948,LUP,Kalaupapa Airport,Kalaupapa,US,Hawaii,23.9,21.2110402777778,-156.973597222222,Pacific/Honolulu
949,LUR,Cape Lisburne Lrrs Airport,Cape Lisburne,US,Alaska,14.0,68.8751277777778,-166.111081944444,America/Anchorage
950,LUX,Luxembourg-Findel International Airport,Luxembourg,LU,Luxembourg,1234.0,49.6265983582,6.211520195,Europe/Luxembourg
951,LVD,,,,,,,,
952,LVM,Mission Field,Livingston,US,Montana,4659.4,45.6994166666667,-110.448027777778,America/Denver
953,LWB,Greenbrier Valley Airport,Lewisburg,US,West Virginia,2301.6,37.8583066666667,-80.3994825,America/New_York
954,LWF,,,,,,,,
955,LWM,Lawrence Municipal Airport,Lawrence,US,Massachusetts,147.6,42.7170422222222,-71.1235333333333,America/New_York
956,LWS,Lewiston/Nez Perce County Airport,Lewiston,US,Idaho,1442.1,46.3744986111111,-117.015396388889,America/Los_Angeles
957,LWT,Lewistown Municipal Airport,Lewistown,US,Montana,4170.4,47.04925,-109.466694444444,America/Denver
958,LWV,Lawrenceville-Vincennes International Airport,Lawrenceville,US,Illinois,429.8,38.7642777777778,-87.6055,America/Chicago
959,LYH,Lynchburg Regional/Preston Glenn Field,Lynchburg,US,Virginia,938.2,37.3253888888889,-79.2012222222222,America/New_York
960,LYS,Lyon Saint-Exupery Airport,Lyon,FR,Auvergne-Rhone-Alpes,821.0,45.726398468,5.0908298492,Europe/Paris
961,LZU,Gwinnett County/Briscoe Field,Lawrenceville,US,Georgia,1061.5,33.9780919444444,-83.9623638888889,America/New_York
962,MAA,Chennai International Airport,Chennai,IN,Tamil-Nadu,52.0,12.9900054932,80.1692962646,Asia/Kolkata
963,MAD,Madrid Barajas International Airport,Madrid,ES,Madrid,2001.0,40.4936,-3.56676,Europe/Madrid
964,MAF,Midland International Air And Space Port Airport,Midland,US,Texas,2872.1,31.9425277777778,-102.201916666667,America/Chicago
965,MAJ,Amata Kabua International Airport,Majuro Atoll,MH,,6.6,7.06497222222222,171.272027777778,Pacific/Majuro
966,MAN,Manchester Airport,Manchester,GB,England,257.0,53.3536987305,-2.2749500275,Europe/London
967,MAO,Eduardo Gomes International Airport,Manaus,BR,Amazonas,264.0,-3.0386099815,-60.0497016907,America/Boa_Vista
968,MAR,La Chinita International Airport,Maracaibo,VE,Zulia,239.0,10.5582084656,-71.7278594971,America/Caracas
969,MAZ,Eugenio Maria De Hostos Airport,Mayaguez,US,Puerto Rico,27.7,18.2556944444444,-67.1484722222222,America/Puerto_Rico
970,MBJ,Sangster International Airport,Montego Bay,JM,St-James,4.0,18.5037002563,-77.9133987427,America/Jamaica
971,MBL,Manistee County/Blacker Airport,Manistee,US,Michigan,621.4,44.272465,-86.2469008333333,America/Detroit
972,MBS,Mbs International Airport,Saginaw,US,Michigan,668.2,43.5329269444444,-84.0796358333333,America/New_York
973,MCC,Mc Clellan Airfield,Sacramento,US,California,76.8,38.6676388888889,-121.400611111111,America/Los_Angeles
974,MCD,Mackinac Island Airport,Mackinac Island,US,Michigan,741.0,45.8649833333333,-84.6370944444445,America/Detroit
975,MCE,Merced Regional/Macready Field,Merced,US,California,155.2,37.28475,-120.513916666667,America/Los_Angeles
976,MCF,Macdill Afb Airport,Tampa,US,Florida,14.0,27.8493444444444,-82.5212194444444,America/New_York
977,MCG,Mc Grath Airport,Mc Grath,US,Alaska,342.7,62.9527839166667,-155.607048055556,America/Anchorage
978,MCI,Kansas City International Airport,Kansas City,US,Missouri,1026.9,39.2976111111111,-94.7138888888889,America/Chicago
979,MCK,Mc Cook Ben Nelson Regional Airport,Mc Cook,US,Nebraska,2582.9,40.2062777777778,-100.592083333333,America/Chicago
980,MCL,Mc Kinley Ntl Park Airport,Mckinley Park,US,Alaska,1720.0,63.7325983333333,-148.910638333333,America/Anchorage
981,MCN,Middle Georgia Regional Airport,Macon,US,Georgia,354.2,32.6928333333333,-83.6492222222222,America/New_York
982,MCO,Orlando International Airport,Orlando,US,Florida,96.4,28.4293888888889,-81.309,America/New_York
983,MCW,Mason City Municipal Airport,Mason City,US,Iowa,1213.4,43.1578055555556,-93.33125,America/Chicago
984,MDE,Jose Maria Cordova International Airport,Rionegro,CO,Antioquia,6955.0,6.16454,-75.4231,America/Bogota
985,MDF,Taylor County Airport,Medford,US,Wisconsin,1478.1,45.1013184722222,-90.3001744166667,America/Chicago
986,MDH,Southern Illinois Airport,Carbondale/Murphysboro,US,Illinois,411.2,37.7780833333333,-89.2520277777778,America/Chicago
987,MDO,Middleton Island Airport,Middleton Island,US,Alaska,100.4,59.4499436111111,-146.307240555556,America/Anchorage
988,MDT,Harrisburg International Airport,Harrisburg,US,Pennsylvania,310.0,40.1931916666667,-76.7626191666667,America/New_York
989,MDW,Chicago Midway International Airport,Chicago,US,Illinois,619.8,41.7859722222222,-87.7524166666667,America/Chicago
990,MDY,Henderson Field,Midway Atoll,UM,Midway Islands,12.0,28.2014838888889,-177.381308888889,Pacific/Midway
991,MDZ,El Plumerillo Airport,Mendoza,AR,Mendoza,2310.0,-32.8316993713,-68.7929000854,America/Argentina/Mendoza
992,MEI,Key Field,Meridian,US,Mississippi,298.0,32.3326111111111,-88.7518611111111,America/Chicago
993,MEL,Melbourne International Airport,Melbourne,AU,Victoria,434.0,-37.6733016968,144.8430023193,Australia/Melbourne
994,MEM,Memphis International Airport,Memphis,US,Tennessee,340.9,35.0424113888889,-89.9766791666667,America/Chicago
995,MEO,Dare County Regional Airport,Manteo,US,North Carolina,12.8,35.9189827777778,-75.6955358333333,America/New_York
996,MER,Castle Airport,Merced,US,California,190.4,37.3804844444444,-120.568186388889,America/Los_Angeles
997,MEX,Licenciado Benito Juarez International Airport,Mexico City,MX,Mexico City,7316.0,19.4363002777,-99.0720977783,America/Mexico_City
998,MFE,Mc Allen Miller International Airport,Mc Allen,US,Texas,107.2,26.1758333333333,-98.2386111111111,America/Chicago
999,MFH,,,,,,,,
1000,MFR,Rogue Valley International - Medford Airport,Medford,US,Oregon,1335.3,42.3749647222222,-122.8732875,America/Los_Angeles
1001,MGA,Augusto C. Sandino (Managua) International Airport,Managua,NI,Managua,194.0,12.141500473,-86.1681976318,America/Managua
1002,MGE,Dobbins Arb Airport,Marietta,US,Georgia,1068.5,33.9144416666667,-84.5142472222222,America/New_York
1003,MGF,Regional de Maringa - Silvio Nane Junior Airport,Maringa,BR,Paraná,1788.0,-23.4794445038,-52.01222229,America/Sao_Paulo
1004,MGM,Montgomery Regional (Dannelly Field) Airport,Montgomery,US,Alabama,221.1,32.3006388888889,-86.3939722222222,America/Chicago
1005,MGN,Baracoa Airport,Magangue,CO,Bolivar,178.0,9.28474,-74.8461,America/Bogota
1006,MGW,Morgantown Municipal (Walter L Bill Hart Field) Airport,Morgantown,US,West Virginia,1243.7,39.6435952777778,-79.9175469444445,America/New_York
1007,MHH,Marsh Harbour International Airport,Marsh Harbour,BS,,6.0,26.5114002228,-77.0835037231,America/Nassau
1008,MHK,Manhattan Regional Airport,Manhattan,US,Kansas,1066.0,39.1412222222222,-96.6718055555556,America/Chicago
1009,MHM,,,,,,,,
1010,MHR,Sacramento Mather Airport,Sacramento,US,California,98.3,38.5553108333333,-121.297211388889,America/Los_Angeles
1011,MHT,Manchester Boston Regional Airport,Manchester,US,New Hampshire,266.4,42.9328055555556,-71.43575,America/New_York
1012,MHV,Mojave Air & Space Port/Rutan Field,Mojave,US,California,2801.3,35.0589444444444,-118.150611111111,America/Los_Angeles
1013,MHZ,RAF Mildenhall,Mildenhall,GB,England,33.0,52.3619003296,0.4864059985,Europe/London
1014,MI2,,,,,,,,
1015,MI4,,,,,,,,
1016,MIA,Miami International Airport,Miami,US,Florida,9.3,25.7953611111111,-80.2901158333333,America/New_York
1017,MIB,Minot Afb Airport,Minot,US,North Dakota,1666.1,48.4157678333333,-101.358040861111,America/Chicago
1018,MID,Licenciado Manuel Crescencio Rejon Int Airport,Merida,MX,Yucatan,38.0,20.9370002747,-89.657699585,America/Merida
1019,MIE,Delaware County Regional Airport,Muncie,US,Indiana,937.4,40.2424722222222,-85.39575,America/Indiana/Indianapolis
1020,MIL,,,,,,,,
1021,MKC,Charles B Wheeler Downtown Airport,Kansas City,US,Missouri,756.8,39.1229444444444,-94.5928333333333,America/Chicago
1022,MKE,General Mitchell International Airport,Milwaukee,US,Wisconsin,728.4,42.9469319444444,-87.8970644444445,America/Chicago
1023,MKG,Muskegon County Airport,Muskegon,US,Michigan,628.5,43.1676717222222,-86.2354387222222,America/New_York
1024,MKK,Molokai Airport,Kaunakakai,US,Hawaii,453.9,21.1528858333333,-157.096256111111,Pacific/Honolulu
1025,MKL,Mc Kellar-Sipes Regional Airport,Jackson,US,Tennessee,433.3,35.5998805555556,-88.9156119444444,America/Chicago
1026,MLA,Luqa Airport,Luqa,MT,Luqa,300.0,35.857498,14.4775,Europe/Malta
1027,MLB,Melbourne Orlando International Airport,Melbourne,US,Florida,33.3,28.10275,-80.64525,America/New_York
1028,MLH,EuroAirport Basel-Mulhouse-Freiburg Airport,Bale/Mulhouse,CH,Grand Est,885.0,47.5895996094,7.5299100876,Europe/Paris
1029,MLI,Quad Cities International Airport,Moline,US,Illinois,589.6,41.4482777777778,-90.5075277777778,America/Chicago
1030,MLL,Marshall Don Hunter Sr Airport,Marshall,US,Alaska,115.3,61.8641666666667,-162.026111111111,America/Nome
1031,MLM,General Francisco J. Mujica International Airport,Morelia,MX,Michoacan,6033.0,19.849899292,-101.025001526,America/Mexico_City
1032,MLS,Frank Wiley Field,Miles City,US,Montana,2634.2,46.4268863888889,-105.888225277778,America/Denver
1033,MLU,Monroe Regional Airport,Monroe,US,Louisiana,79.2,32.51055525,-92.0361337222222,America/Chicago
1034,MLY,Manley Hot Springs Airport,Manley Hot Springs,US,Alaska,275.3,64.9879444444445,-150.647583333333,America/Anchorage
1035,MMH,Mammoth Yosemite Airport,Mammoth Lakes,US,California,7134.8,37.6240555555556,-118.83875,America/Los_Angeles
1036,MMJ,Matsumoto Airport,Matsumoto,JP,Nagano,2182.0,36.1668014526,137.9230041504,Asia/Tokyo
1037,MMU,Morristown Municipal Airport,Morristown,US,New Jersey,186.6,40.7993383333333,-74.4148886111111,America/New_York
1038,MNL,Ninoy Aquino International Airport,Manila,PH,,75.0,14.508600235,121.019996643,Asia/Manila
1039,MNM,Menominee Regional Airport,Menominee,US,Michigan,624.6,45.1266877777778,-87.6385427777778,America/Menominee
1040,MNT,,,,,,,,
1041,MNZ,Manassas Regional/Harry P Davis Field,Washington,US,Dist. Of Columbia,192.3,38.7210230833333,-77.5151011944444,America/New_York
1042,MO2,,,,,,,,
1043,MOB,Mobile Regional Airport,Mobile,US,Alabama,218.7,30.6914166666667,-88.2428333333333,America/Chicago
1044,MOD,Modesto City-County-Harry Sham Field,Modesto,US,California,99.2,37.6258247222222,-120.95443,America/Los_Angeles
1045,MOR,Moore-Murrell Airport,Morristown,US,Tennessee,1313.1,36.1793888888889,-83.3754444444444,America/New_York
1046,MOS,,,,,,,,
1047,MOT,Minot International Airport,Minot,US,North Dakota,1715.7,48.2576388888889,-101.278027777778,America/Chicago
1048,MOU,Mountain Village Airport,Mountain Village,US,Alaska,339.1,62.0947777777778,-163.682861111111,America/Anchorage
1049,MOW,,,,,,,,
1050,MPL,Montpellier-Mediterranee Airport,Montpellier/Mediterranee,FR,Occitanie,17.0,43.5761985779,3.9630100727,Europe/Paris
1051,MPV,Edward F Knapp State Airport,Barre/Montpelier,US,Vermont,1165.6,44.2034891666667,-72.5620963888889,America/New_York
1052,MQJ,Moma Airport,Honuu,RU,Chukot,656.0,66.4508590698,143.2615509033,Asia/Srednekolymsk
1053,MQT,Sawyer International Airport,Marquette,US,Michigan,1204.5,46.3491583333333,-87.3963716666667,America/New_York
1054,MQY,Smyrna Airport,Smyrna,US,Tennessee,543.0,36.0089702777778,-86.5200897222222,America/Chicago
1055,MRB,Eastern Wv Regional/Shepherd Field,Martinsburg,US,West Virginia,564.8,39.4023577777778,-77.983,America/New_York
1056,MRC,Maury County Regional Airport,Columbia/Mount Pleasant,US,Tennessee,681.3,35.5543386111111,-87.17914,America/Chicago
1057,MRI,Merrill Field,Anchorage,US,Alaska,137.3,61.2135450555556,-149.844724138889,America/Anchorage
1058,MRK,Marco Island Exec Airport,Marco Island,US,Florida,5.2,25.9950277777778,-81.6725277777778,America/New_York
1059,MRN,Foothills Regional Airport,Morganton,US,North Carolina,1269.9,35.8202222222222,-81.6114166666667,America/New_York
1060,MRS,Marseille Provence Airport,Marseille,FR,Provence-Alpes-Cote-d'Azur,74.0,43.439271922,5.2214241028,Europe/Paris
1061,MRY,Monterey Regional Airport,Monterey,US,California,256.6,36.5869522222222,-121.842783055556,America/Los_Angeles
1062,MS2,,,,,,,,
1063,MSC,Falcon Field,Mesa,US,Arizona,1394.0,33.4608405555556,-111.728325277778,America/Phoenix
1064,MSE,Kent International Airport,Manston,GB,England,178.0,51.3422012329,1.3461099863,Europe/London
1065,MSL,Northwest Alabama Regional Airport,Muscle Shoals,US,Alabama,550.5,34.7453055555556,-87.6102222222222,America/Chicago
1066,MSN,Dane County Regional/Truax Field,Madison,US,Wisconsin,886.6,43.1398791388889,-89.3375044722222,America/Chicago
1067,MSO,Missoula Montana Airport,Missoula,US,Montana,3205.6,46.9163055555556,-114.090555555556,America/Denver
1068,MSP,Minneapolis-St Paul International/Wold-Chamberlain Airport,Minneapolis,US,Minnesota,841.8,44.8819722222222,-93.2217777777778,America/Chicago
1069,MSS,Massena International-Richards Field,Massena,US,New York,221.4,44.9362411111111,-74.8451197222222,America/New_York
1070,MST,Maastricht Aachen Airport,Maastricht,NL,Limburg,375.0,50.9117012024,5.7701401711,Europe/Amsterdam
1071,MSV,Sullivan County International Airport,Monticello,US,New York,1403.1,41.7016388888889,-74.7950277777778,America/New_York
1072,MSY,Louis Armstrong New Orleans International Airport,New Orleans,US,Louisiana,3.7,29.9932777777778,-90.2590277777778,America/Chicago
1073,MTC,Selfridge Angb Airport,Mount Clemens,US,Michigan,579.5,42.6138936111111,-82.8369097222222,America/Detroit
1074,MTH,The Florida Keys Marathon International Airport,Marathon,US,Florida,5.2,24.7261944444444,-81.0513611111111,America/New_York
1075,MTJ,Montrose Regional Airport,Montrose,US,Colorado,5758.5,38.5098055555556,-107.89425,America/Denver
1076,MTM,,,,,,,,
1077,MTN,Martin State Airport,Baltimore,US,Maryland,21.5,39.3256666666667,-76.4137777777778,America/New_York
1078,MTO,Coles County Memorial Airport,Mattoon/Charleston,US,Illinois,722.3,39.4778888888889,-88.2799722222222,America/Chicago
1079,MTP,Montauk Airport,Montauk,US,New York,6.8,41.0766666666667,-71.9204722222222,America/New_York
1080,MTR,Los Garzones Airport,Monteria,CO,Cordoba,36.0,8.82374,-75.8258,America/Bogota
1081,MTY,General Mariano Escobedo International Airport,Monterrey,MX,Nuevo Leon,1278.0,25.7784996033,-100.107002258,America/Mexico_City
1082,MUC,Munich International Airport,Munich,DE,Bayern,1487.0,48.3538017273,11.7861003876,Europe/Berlin
1083,MUE,Waimea-Kohala Airport,Kamuela,US,Hawaii,2671.1,20.0013269444444,-155.668107222222,Pacific/Honolulu
1084,MUL,Spence Airport,Moultrie,US,Georgia,292.0,31.1376866666667,-83.7040597222222,America/New_York
1085,MUO,Mountain Home Afb Airport,Mountain Home,US,Idaho,2996.3,43.0435972222222,-115.872433333333,America/Denver
1086,MVD,Carrasco International /General C L Berisso Airport,Montevideo,UY,Canelones,105.0,-34.8384017944,-56.0307998657,America/Montevideo
1087,MVL,Morrisville-Stowe State Airport,Morrisville,US,Vermont,732.9,44.5343611111111,-72.614,America/New_York
1088,MVM,,,,,,,,
1089,MVW,Skagit Regional Airport,Burlington/Mount Vernon,US,Washington,145.1,48.4705261111111,-122.421689444444,America/Los_Angeles
1090,MVY,Martha's Vineyard Airport,Vineyard Haven,US,Massachusetts,66.9,41.3934175,-70.6138744444444,America/New_York
1091,MWA,Veterans Airport Of Southern Illinois Airport,Marion,US,Illinois,471.7,37.7549722222222,-89.0110833333333,America/Chicago
1092,MWH,Grant County International Airport,Moses Lake,US,Washington,1188.6,47.2085833333333,-119.319138888889,America/Los_Angeles
1093,MXE,Laurinburg/Maxton Airport,Maxton,US,North Carolina,215.6,34.7921722222222,-79.3658961111111,America/New_York
1094,MXP,Malpensa International Airport,Milan,IT,Lombardy,768.0,45.6305999756,8.7281103134,Europe/Rome
1095,MXY,Mccarthy Airport,Mccarthy,US,Alaska,1532.8,61.4378190833333,-142.902503,America/Anchorage
1096,MYC,Escuela Mariscal Sucre Airport,Maracay,VE,Aragua,1338.0,10.2499780655,-67.6494216919,America/Caracas
1097,MYF,Montgomery-Gibbs Exec Airport,San Diego,US,California,427.3,32.8157222222222,-117.139555555556,America/Los_Angeles
1098,MYH,,,,,,,,
1099,MYJ,Matsuyama Airport,Matsuyama,JP,Ehime,25.0,33.8272018433,132.6999969482,Asia/Tokyo
1100,MYK,,,,,,,,
1101,MYR,Myrtle Beach International Airport,Myrtle Beach,US,South Carolina,25.0,33.6797411111111,-78.9283213888889,America/New_York
1102,MYU,Mekoryuk Airport,Mekoryuk,US,Alaska,53.3,60.3723888888889,-166.270194444444,America/Anchorage
1103,MZJ,Pinal Airpark,Marana,US,Arizona,1893.1,32.5098333333333,-111.325333333333,America/Phoenix
1104,MZL,La Nubia Airport,Manizales,CO,Caldas,6871.0,5.0296,-75.4647,America/Bogota
1105,MZR,Mazar I Sharif Airport,,AF,Balkh,1284.0,36.7069015503,67.2097015381,Asia/Kabul
1106,MZT,General Rafael Buelna International Airport,Mazatlan,MX,Sinaloa,38.0,23.1613998413,-106.26599884,America/Mazatlan
1107,NAN,Nadi International Airport,Nadi,FJ,Western,59.0,-17.755399704,177.4429931641,Pacific/Fiji
1108,NAP,Napoli / Capodichino International Airport,Napoli,IT,Campania,294.0,40.8860015869,14.2908000946,Europe/Rome
1109,NAS,Lynden Pindling International Airport,Nassau,BS,New-Providence,16.0,25.0389995575,-77.4662017822,America/Nassau
1110,NAT,Augusto Severo Airport,Natal,BR,Rio Grande do Norte,169.0,-5.9114198685,-35.2476997375,America/Recife
1111,NBW,Leeward Point Field,Guantanamo Bay Naval Station,CU,Guantanamo,56.0,19.9064998627,-75.2070999146,America/Havana
1112,NCE,Nice-Cote d'Azur Airport,Nice,FR,Provence-Alpes-Cote-d'Azur,12.0,43.6584014893,7.2158699036,Europe/Paris
1113,NCL,Newcastle Airport,Newcastle,GB,England,266.0,55.0374984741,-1.6916699409,Europe/London
1114,NCN,Chenega Bay Airport,Chenega,US,Alaska,68.9,60.0785611111111,-147.994734722222,America/Anchorage
1115,NEV,Vance W. Amory International Airport,Charlestown,KN,Saint-James-Windwa,14.0,17.2056999207,-62.5899009705,America/St_Kitts
1116,NGF,Kaneohe Bay Mcas (Marion E Carl Field) Airport,Kaneohe,US,Hawaii,23.0,21.4504555555556,-157.767948611111,Pacific/Honolulu
1117,NGO,Chubu Centrair International Airport,Tokoname,JP,Aichi,15.0,34.8583984375,136.8049926758,Asia/Tokyo
1118,NGU,Norfolk Ns (Chambers Field) Airport,Norfolk,US,Virginia,14.8,36.9374686111111,-76.2892780555556,America/New_York
1119,NHK,Patuxent River Nas (Trapnell Field) Airport,Patuxent River,US,Maryland,38.6,38.2863336111111,-76.4099713888889,America/New_York
1120,NHT,RAF Northolt,London,GB,England,124.0,51.5530014038,-0.418166995,Europe/London
1121,NIB,Nikolai Airport,Nikolai,US,Alaska,447.3,63.0185588888889,-154.358438055556,America/Anchorage
1122,NIP,Jacksonville Nas (Towers Field) Airport,Jacksonville,US,Florida,22.5,30.2337060277778,-81.6760571944445,America/New_York
1123,NJK,El Centro Naf (Vraciu Field) Airport,El Centro,US,California,-42.0,32.8266333333333,-115.668561111111,America/Los_Angeles
1124,NKC,Nouakchott International Airport,Nouakchott,MR,Trarza,13.0,18.0981998444,-15.9484996796,Africa/Nouakchott
1125,NKG,Nanjing Lukou Airport,Nanjing,CN,Jiangsu,49.0,31.7420005798,118.8619995117,Asia/Shanghai
1126,NKI,,,,,,,,
1127,NKT,,,,,,,,
1128,NKX,Miramar Mcas (Joe Foss Field) Airport,San Diego,US,California,477.1,32.8685289722222,-117.143188388889,America/Los_Angeles
1129,NLG,Nelson Lagoon Airport,Nelson Lagoon,US,Alaska,14.0,56.0075361111111,-161.160367222222,America/Anchorage
1130,NME,Nightmute Airport,Nightmute,US,Alaska,7.1,60.4691708333333,-164.7040375,America/Anchorage
1131,NNK,,,,,,,,
1132,NNL,Nondalton Airport,Nondalton,US,Alaska,314.0,59.9802302777778,-154.839174722222,America/Anchorage
1133,NPA,Pensacola Nas (Forrest Sherman Field) Airport,Pensacola,US,Florida,28.2,30.3532727777778,-87.3179711388889,America/Chicago
1134,NPT,Newport State Airport,Newport,US,Rhode Island,171.8,41.53243975,-71.2815439444444,America/New_York
1135,NQA,Millington/Memphis Airport,Millington,US,Tennessee,322.4,35.3566391666667,-89.8704302777778,America/Chicago
1136,NQX,Key West Nas (Boca Chica Field) Airport,Key West,US,Florida,5.7,24.5746370833333,-81.6866454444445,America/New_York
1137,NQY,Newquay Cornwall Airport,Newquay,GB,England,390.0,50.4406013489,-4.9954099655,Europe/London
1138,NRB,Mayport Ns (Adm David L Mcdonald Field) Airport,Mayport,US,Florida,14.8,30.3913741944444,-81.4245211666667,America/New_York
1139,NRT,Narita International Airport,Tokyo,JP,Chiba,141.0,35.7647018433,140.3860015869,Asia/Tokyo
1140,NSY,Sigonella Airport,,IT,Sicily,79.0,37.4016990662,14.9224004745,Europe/Rome
1141,NTD,Point Mugu Nas (Naval Base Ventura Co) Airport,Oxnard,US,California,13.0,34.1192744444444,-119.119585,America/Los_Angeles
1142,NTE,Nantes Atlantique Airport,Nantes,FR,Pays-de-la-Loire,90.0,47.1531982422,-1.610730052,Europe/Paris
1143,NUE,Nuremberg Airport,Nuremberg,DE,Bayern,1046.0,49.4986991882,11.0669002533,Europe/Berlin
1144,NUI,Nuiqsut Airport,Nuiqsut,US,Alaska,45.4,70.2098333333333,-151.006472222222,America/Anchorage
1145,NUL,Nulato Airport,Nulato,US,Alaska,405.9,64.7293333333333,-158.074222222222,America/Anchorage
1146,NUP,,,,,,,,
1147,NUQ,Moffett Federal Airfield,Mountain View,US,California,36.9,37.4161438888889,-122.049129166667,America/Los_Angeles
1148,NUW,Whidbey Island Nas (Ault Field) Airport,Oak Harbor,US,Washington,47.4,48.3518400277778,-122.655958861111,America/Los_Angeles
1149,NVA,Benito Salas Airport,Neiva,CO,Huila,1464.0,2.95015,-75.294,America/Bogota
1150,NVT,Ministro Victor Konder International Airport,Navegantes,BR,Santa Catarina,18.0,-26.8799991608,-48.6514015198,America/Sao_Paulo
1151,NY1,,,,,,,,
1152,NY2,,,,,,,,
1153,NY3,,,,,,,,
1154,NY4,,,,,,,,
1155,NY5,,,,,,,,
1156,NYL,,,,,,,,
1157,NYO,Stockholm Skavsta Airport,Stockholm / Nykoping,SE,Sodermanland,140.0,58.7886009216,16.9122009277,Europe/Stockholm
1158,NZC,Maria Reiche Neuman Airport,,PE,Ica,1860.0,-14.8540000916,-74.9615020752,America/Lima
1159,NZY,North Island Nas (Halsey Field) Airport,San Diego,US,California,25.9,32.6981961111111,-117.21311,America/Los_Angeles
1160,OAI,Bagram Air Base,Bagram,AF,Parwan,4895.0,34.9460983276,69.2649993896,Asia/Kabul
1161,OAJ,Albert J Ellis Airport,Jacksonville,US,North Carolina,92.9,34.8291666666667,-77.6121388888889,America/New_York
1162,OAK,Metro Oakland International Airport,Oakland,US,California,9.0,37.72125,-122.221138888889,America/Los_Angeles
1163,OAX,Xoxocotlan International Airport,Oaxaca,MX,Oaxaca,4989.0,16.9999008179,-96.726600647,America/Mexico_City
1164,OBO,Tokachi-Obihiro Airport,Obihiro,JP,Hokkaido,505.0,42.7332992554,143.216995239,Asia/Tokyo
1165,OBU,Kobuk Airport,Kobuk,US,Alaska,142.2,66.9123333333333,-156.897333333333,America/Anchorage
1166,OCF,Ocala International-Jim Taylor Field,Ocala,US,Florida,89.7,29.1718767777778,-82.2241146388889,America/New_York
1167,ODW,Aj Eisenberg Airport,Oak Harbor,US,Washington,193.3,48.2515277777778,-122.673666666667,America/Los_Angeles
1168,OFF,Offutt Afb Airport,Omaha,US,Nebraska,1048.6,41.1193288888889,-95.9085141666667,America/Chicago
1169,OFK,Norfolk Regional/Karl Stefan Memorial Field,Norfolk,US,Nebraska,1572.6,41.9854602777778,-97.4351138888889,America/Chicago
1170,OGD,Ogden-Hinckley Airport,Ogden,US,Utah,4472.5,41.1950703611111,-112.012194722222,America/Denver
1171,OGG,Kahului Airport,Kahului,US,Hawaii,55.4,20.8986486111111,-156.430458611111,Pacific/Honolulu
1172,OGS,Ogdensburg International Airport,Ogdensburg,US,New York,301.8,44.68225,-75.46325,America/New_York
1173,OH5,,,,,,,,
1174,OHC,,,,,,,,
1175,OKA,Naha Airport,Naha,JP,Okinawa,12.0,26.1958007812,127.646003723,Asia/Tokyo
1176,OKC,Will Rogers World Airport,Oklahoma City,US,Oklahoma,1295.8,35.3930740277778,-97.6007617222222,America/Chicago
1177,OKJ,Okayama Airport,Okayama City,JP,Okayama,806.0,34.7569007874,133.854995728,Asia/Tokyo
1178,OKO,Yokota Air Base,Fussa,JP,Tokyo,463.0,35.748500824,139.3480072021,Asia/Tokyo
1179,OLB,Olbia / Costa Smeralda Airport,Olbia,IT,Sardinia,37.0,40.8987007141,9.5176296234,Europe/Rome
1180,OLF,L M Clayton Airport,Wolf Point,US,Montana,1988.5,48.0945,-105.575055555556,America/Denver
1181,OLH,,,,,,,,
1182,OLM,Olympia Regional Airport,Olympia,US,Washington,207.8,46.9694044444444,-122.902544722222,America/Los_Angeles
1183,OLS,Nogales International Airport,Nogales,US,Arizona,3955.3,31.4177222222222,-110.847888888889,America/Phoenix
1184,OLU,Columbus Municipal Airport,Columbus,US,Nebraska,1447.3,41.4487222222222,-97.3409444444444,America/Chicago
1185,OMA,Eppley Airfield,Omaha,US,Nebraska,984.5,41.3031666666667,-95.8940555555556,America/Chicago
1186,OME,Nome Airport,Nome,US,Alaska,40.6,64.5125555555556,-165.444388888889,America/Anchorage
1187,OMK,Omak Airport,Omak,US,Washington,1304.5,48.4644102777778,-119.518054166667,America/Los_Angeles
1188,ONP,Newport Municipal Airport,Newport,US,Oregon,160.1,44.5803611111111,-124.057916666667,America/Los_Angeles
1189,ONT,Ontario International Airport,Ontario,US,California,944.1,34.0560141666667,-117.6011875,America/Los_Angeles
1190,OOK,Toksook Bay Airport,Toksook Bay,US,Alaska,72.2,60.5413333333333,-165.087194444444,America/Anchorage
1191,OPF,Miami-Opa Locka Exec Airport,Miami,US,Florida,8.0,25.9074166666667,-80.2782222222222,America/New_York
1192,OPH,,,,,,,,
1193,OPO,Francisco de Sa Carneiro Airport,Porto,PT,Porto,228.0,41.2481002808,-8.6813898087,Europe/Lisbon
1194,OQC,,,,,,,,
1195,OQI,,,,,,,,
1196,OQN,,,,,,,,
1197,OQP,,,,,,,,
1198,OR2,,,,,,,,
1199,ORB,Orebro Airport,Orebro,SE,Oerebro,188.0,59.2237014771,15.0380001068,Europe/Stockholm
1200,ORD,Chicago O'Hare International Airport,Chicago,US,Illinois,680.0,41.9769402777778,-87.9081497222222,America/Chicago
1201,ORF,Norfolk International Airport,Norfolk,US,Virginia,26.4,36.8946041666667,-76.2012291666667,America/New_York
1202,ORH,Worcester Regional Airport,Worcester,US,Massachusetts,1009.0,42.2671388888889,-71.8756111111111,America/New_York
1203,ORI,,,,,,,,
1204,ORL,Exec Airport,Orlando,US,Florida,112.6,28.5454616666667,-81.33293,America/New_York
1205,ORN,Es Senia Airport,Oran,DZ,Oran,295.0,35.6239013672,-0.6211829782,Africa/Algiers
1206,ORT,Northway Airport,Northway,US,Alaska,1720.1,62.9611666666667,-141.928083333333,America/Anchorage
1207,ORV,Robert/Bob/Curtis Memorial Airport,Noorvik,US,Alaska,54.5,66.8175277777778,-161.02225,America/Anchorage
1208,ORY,Paris-Orly Airport,Paris,FR,Ile-de-France,291.0,48.7252998352,2.3594400883,Europe/Paris
1209,OSC,Oscoda/Wurtsmith Airport,Oscoda,US,Michigan,633.1,44.4515277777778,-83.3941666666667,America/Detroit
1210,OSH,Wittman Regional Airport,Oshkosh,US,Wisconsin,808.4,43.9843708333333,-88.5570430555556,America/Chicago
1211,OSL,Oslo Gardermoen Airport,Oslo,NO,Akershus,681.0,60.193901062,11.100399971,Europe/Oslo
1212,OSN,Osan Air Base,,KR,Gyeonggi-do,38.0,37.0905990601,127.0299987793,Asia/Seoul
1213,OST,Ostend-Bruges International Airport,Ostend,BE,Flanders,13.0,51.1988983154,2.8622200489,Europe/Brussels
1214,OTH,Southwest Oregon Regional Airport,North Bend,US,Oregon,17.4,43.4169444444444,-124.247027777778,America/Los_Angeles
1215,OTP,Henri Coanda International Airport,Bucharest,RO,Ilfov,314.0,44.5722007751,26.1021995544,Europe/Bucharest
1216,OTS,,,,,,,,
1217,OTZ,Ralph Wien Memorial Airport,Kotzebue,US,Alaska,15.4,66.8848055555556,-162.598138888889,America/Anchorage
1218,OUA,Ouagadougou Airport,Ouagadougou,BF,,1037.0,12.3531999588,-1.5124200583,Africa/Ouagadougou
1219,OWB,Owensboro/Daviess County Regional Airport,Owensboro,US,Kentucky,407.3,37.7388341666667,-87.1668285555556,America/Chicago
1220,OWD,Norwood Memorial Airport,Norwood,US,Massachusetts,49.2,42.1905277777778,-71.1729444444445,America/New_York
1221,OXC,Waterbury-Oxford Airport,Oxford,US,Connecticut,730.1,41.4782805555556,-73.1351825,America/New_York
1222,OXR,Oxnard Airport,Oxnard,US,California,44.8,34.2008069444444,-119.207226388889,America/Los_Angeles
1223,PAC,Marcos A. Gelabert International Airport,Albrook,PA,Panama,31.0,8.9733400345,-79.5556030273,America/Panama
1224,PAE,Snohomish County (Paine Field) Airport,Everett,US,Washington,606.9,47.9073180555556,-122.282093888889,America/Los_Angeles
1225,PAH,Barkley Regional Airport,Paducah,US,Kentucky,410.9,37.0602883333333,-88.7729591666667,America/Chicago
1226,PAM,Tyndall Afb Airport,Panama City,US,Florida,17.4,30.0690475,-85.5749813888889,America/New_York
1227,PAP,Toussaint Louverture International Airport,Port-au-Prince,HT,Ouest,122.0,18.5799999237,-72.2925033569,America/Port-au-Prince
1228,PAQ,"Warren ""Bud"" Woods Palmer Municipal Airport",Palmer,US,Alaska,248.6,61.5949166666667,-149.088722222222,America/Anchorage
1229,PBC,Hermanos Serdan International Airport,Puebla,MX,Puebla,7361.0,19.1581001282,-98.3713989258,America/Mexico_City
1230,PBG,Plattsburgh International Airport,Plattsburgh,US,New York,234.2,44.6509444444444,-73.4681388888889,America/New_York
1231,PBI,Palm Beach International Airport,West Palm Beach,US,Florida,19.6,26.6831616666667,-80.0955919444444,America/New_York
1232,PBK,,,,,,,,
1233,PBM,Johan Adolf Pengel International Airport,Zandery,SR,Pará,59.0,5.4528298378,-55.1878013611,America/Paramaribo
1234,PCA,Portage Creek Airport,Portage Creek,US,Alaska,129.0,58.906525,-157.711166666667,America/Anchorage
1235,PCE,,,,,,,,
1236,PDB,,,,,,,,
1237,PDK,Dekalb-Peachtree Airport,Atlanta,US,Georgia,998.4,33.8760019444444,-84.3020305555555,America/New_York
1238,PDL,Joao Paulo II Airport,Ponta Delgada,PT,Azores,259.0,37.7411994934,-25.6979007721,Atlantic/Azores
1239,PDT,Eastern Oregon Regional At Pendleton Airport,Pendleton,US,Oregon,1496.5,45.6947655555556,-118.843008055556,America/Los_Angeles
1240,PDX,Portland International Airport,Portland,US,Oregon,30.8,45.5887088611111,-122.596869416667,America/Los_Angeles
1241,PEC,,,,,,,,
1242,PEI,Matecana International Airport,Pereira,CO,Risaralda,4416.0,4.81267,-75.7395,America/Bogota
1243,PEK,Beijing Capital International Airport,Beijing,CN,Beijing,116.0,40.0801010132,116.5849990845,Asia/Shanghai
1244,PFN,,,,,,,,
1245,PGA,Page Municipal Airport,Page,US,Arizona,4316.6,36.9260694444444,-111.448350555556,America/Phoenix
1246,PGD,Punta Gorda Airport,Punta Gorda,US,Florida,25.5,26.9185925,-81.9908861111111,America/New_York
1247,PGM,,,,,,,,
1248,PGR,Kirk Field,Paragould,US,Arkansas,290.2,36.0638055555556,-90.5091944444444,America/Chicago
1249,PGS,,,,,,,,
1250,PGV,Pitt-Greenville Airport,Greenville,US,North Carolina,26.4,35.6356944444444,-77.3840833333333,America/New_York
1251,PHF,Newport News/Williamsburg International Airport,Newport News,US,Virginia,42.2,37.1318888888889,-76.4929722222222,America/New_York
1252,PHL,Philadelphia International Airport,Philadelphia,US,Pennsylvania,35.9,39.8720838888889,-75.2406630555556,America/New_York
1253,PHN,St Clair County International Airport,Port Huron,US,Michigan,650.1,42.9109586111111,-82.5288497222222,America/New_York
1254,PHO,Point Hope Airport,Point Hope,US,Alaska,20.7,68.3487722222222,-166.799261111111,America/Nome
1255,PHX,Phoenix Sky Harbor International Airport,Phoenix,US,Arizona,1134.8,33.4342777777778,-112.011583333333,America/Phoenix
1256,PIA,General Downing - Peoria International Airport,Peoria,US,Illinois,660.7,40.6641944444444,-89.69325,America/Chicago
1257,PIB,Hattiesburg/Laurel Regional Airport,Hattiesburg-Laurel,US,Mississippi,297.6,31.4671388888889,-89.3370555555556,America/Chicago
1258,PIE,St Pete-Clearwater International Airport,St Petersburg-Clearwater,US,Florida,10.7,27.9086336111111,-82.68651,America/New_York
1259,PIH,Pocatello Regional Airport,Pocatello,US,Idaho,4451.9,42.9097925,-112.595918888889,America/Denver
1260,PIK,Glasgow Prestwick Airport,Glasgow,GB,Scotland,65.0,55.5093994141,-4.5866699219,Europe/London
1261,PIO,Capitan FAP Renan Elias Olivera International Airport,Pisco,PE,Ica,39.0,-13.7448997498,-76.2202987671,America/Lima
1262,PIP,Pilot Point Airport,Pilot Point,US,Alaska,57.0,57.5803805555556,-157.571956944444,America/Anchorage
1263,PIR,Pierre Regional Airport,Pierre,US,South Dakota,1744.3,44.3826944444444,-100.285972222222,America/Chicago
1264,PIT,Pittsburgh International Airport,Pittsburgh,US,Pennsylvania,1202.9,40.4914166666667,-80.2326944444444,America/New_York
1265,PIZ,Point Lay Lrrs Airport,Point Lay,US,Alaska,28.5,69.7328888888889,-163.005333333333,America/Anchorage
1266,PKA,Napaskiak Airport,Napaskiak,US,Alaska,11.4,60.7029125,-161.7783075,America/Anchorage
1267,PKB,Mid-Ohio Valley Regional Airport,Parkersburg,US,West Virginia,858.5,39.3449619444444,-81.4392930555556,America/New_York
1268,PKC,Yelizovo Airport,Petropavlovsk-Kamchatsky,RU,Kamtsjatka,131.0,53.1679000854,158.453994751,Asia/Anadyr
1269,PLN,Pellston Regional/Emmet County Airport,Pellston,US,Michigan,720.6,45.5709166666667,-84.7967222222222,America/Detroit
1270,PLS,Providenciales Airport,Providenciales Island,TC,,15.0,21.7735996246,-72.2658996582,America/Grand_Turk
1271,PML,Port Moller Airport,Cold Bay,US,Alaska,20.0,56.0059858333333,-160.560791944444,America/Anchorage
1272,PMO,Palermo / Punta Raisi Airport,Palermo,IT,Sicily,65.0,38.1759986877,13.0909996033,Europe/Rome
1273,PMV,Del Caribe Santiago Marino International Airport,Isla Margarita,VE,Nueva-Esparta,74.0,10.9126033783,-63.9665985107,America/Caracas
1274,PNE,Northeast Philadelphia Airport,Philadelphia,US,Pennsylvania,119.8,40.0819388888889,-75.0105775,America/New_York
1275,PNI,Pohnpei International Airport,Pohnpei Island,FM,,8.9,6.98508333333333,158.209805555556,Pacific/Pohnpei
1276,PNR,Pointe Noire Airport,Pointe Noire,CG,Kouilou,55.0,-4.8160300255,11.8865995407,Africa/Brazzaville
1277,PNS,Pensacola International Airport,Pensacola,US,Florida,120.9,30.4734166666667,-87.1866111111111,America/Chicago
1278,POA,Salgado Filho Airport,Porto Alegre,BR,Rio Grande do Sul,11.0,-29.9944000244,-51.1713981628,America/Sao_Paulo
1279,POB,Pope Army Air Field,Fayetteville,US,North Carolina,218.0,35.1708891666667,-79.0144966666667,America/New_York
1280,POP,Gregorio Luperon International Airport,Puerto Plata,DO,Puerto-Plata,15.0,19.757900238,-70.5699996948,America/Santo_Domingo
1281,POS,Piarco International Airport,Port of Spain,TT,Tunapuna/Piarco,58.0,10.5953998566,-61.3372001648,America/Port_of_Spain
1282,POU,Hudson Valley Regional Airport,Poughkeepsie,US,New York,163.5,41.626585,-73.8841886111111,America/New_York
1283,POX,Pontoise - Cormeilles-en-Vexin Airport,Pontoise,FR,Ile-de-France,325.0,49.0965995789,2.0408298969,Europe/Paris
1284,PPC,Prospect Creek Airport,Prospect Creek,US,Alaska,1094.7,66.8140555555556,-150.643611111111,America/Anchorage
1285,PPG,Pago Pago International Airport,Pago Pago,AS,,31.2,-14.3316622222222,-170.711503055556,Pacific/Pago_Pago
1286,PPN,Guillermo Leon Valencia Airport,Popayan,CO,Cauca,5687.0,2.4544,-76.6093,America/Bogota
1287,PPT,Faa'a International Airport,Papeete,PF,Iles-du-Vent,5.0,-17.5536994934,-149.606994629,Pacific/Tahiti
1288,PPV,,,,,,,,
1289,PQI,Presque Isle International Airport,Presque Isle,US,Maine,534.0,46.6889638888889,-68.0447913888889,America/New_York
1290,PQS,,,,,,,,
1291,PRB,Paso Robles Municipal Airport,Paso Robles,US,California,838.7,35.6728888888889,-120.627083333333,America/Los_Angeles
1292,PRC,Prescott Regional - Ernest A Love Field,Prescott,US,Arizona,5045.2,34.6548333333333,-112.419222222222,America/Phoenix
1293,PRG,Václav Havel Airport,Prague,CZ,Praha,1247.0,50.1007995605,14.2600002289,Europe/Prague
1294,PRZ,,,,,,,,
1295,PSA,Pisa / San Giusto - Galileo Galilei International Airport,Pisa,IT,Tuscany,6.0,43.6838989258,10.3927001953,Europe/Rome
1296,PSB,Mid-State Airport,Philipsburg,US,Pennsylvania,1948.0,40.8843913888889,-78.0873416666667,America/New_York
1297,PSC,Tri-Cities Airport,Pasco,US,Washington,410.4,46.2646816666667,-119.119023888889,America/Los_Angeles
1298,PSE,Mercedita Airport,Ponce,US,Puerto Rico,28.4,18.0087805555556,-66.5645208333333,America/Puerto_Rico
1299,PSF,Pittsfield Municipal Airport,Pittsfield,US,Massachusetts,1188.4,42.4276201111111,-73.2908398055555,America/New_York
1300,PSG,Petersburg James A Johnson Airport,Petersburg,US,Alaska,113.2,56.8014722222222,-132.946222222222,America/Juneau
1301,PSK,New River Valley Airport,Dublin,US,Virginia,2104.5,37.1373363888889,-80.6784794444444,America/New_York
1302,PSM,Portsmouth International At Pease Airport,Portsmouth,US,New Hampshire,100.4,43.0779444444444,-70.8232777777778,America/New_York
1303,PSO,Antonio Narino Airport,Pasto,CO,Narino,5951.0,1.39625,-77.2915,America/Bogota
1304,PSP,Palm Springs International Airport,Palm Springs,US,California,476.4,33.8296666666667,-116.506694444444,America/Los_Angeles
1305,PTA,Port Alsworth Airport,Port Alsworth,US,Alaska,280.0,60.2043333333333,-154.318872777778,America/Anchorage
1306,PTD,,,,,,,,
1307,PTH,Port Heiden Airport,Port Heiden,US,Alaska,95.3,56.9591011111111,-158.633361944444,America/Anchorage
1308,PTK,Oakland County International Airport,Pontiac,US,Michigan,980.6,42.6656361944444,-83.4205056388889,America/New_York
1309,PTP,Pointe-a-Pitre Le Raizet,Pointe-a-Pitre Le Raizet,GP,Guadeloupe,36.0,16.2653007507,-61.5317993164,America/Guadeloupe
1310,PTU,Platinum Airport,Platinum,US,Alaska,18.0,59.0178305555556,-161.827191666667,America/Anchorage
1311,PTV,Porterville Municipal Airport,Porterville,US,California,443.2,36.0295833333333,-119.062722222222,America/Los_Angeles
1312,PTY,Tocumen International Airport,Tocumen,PA,Panama,135.0,9.0713596344,-79.3834991455,America/Panama
1313,PUB,Pueblo Memorial Airport,Pueblo,US,Colorado,4729.3,38.2899475,-104.498028055556,America/Denver
1314,PUF,Pau Pyrenees Airport,Pau/Pyrenees (Uzein),FR,Nouvelle-Aquitaine,616.0,43.3800010681,-0.41861099,Europe/Paris
1315,PUG,Port Augusta Airport,,AU,South Australia,56.0,-32.5069007874,137.7169952393,Australia/Adelaide
1316,PUJ,Punta Cana International Airport,Punta Cana,DO,La Altagracia,47.0,18.5673999786,-68.3634033203,America/Santo_Domingo
1317,PUS,Gimhae International Airport,Busan,KR,Busan,6.0,35.1795005798,128.93800354,Asia/Seoul
1318,PUW,Pullman/Moscow Regional Airport,Pullman/Moscow,US,Washington,2566.6,46.7416913888889,-117.111619166667,America/Los_Angeles
1319,PVC,Provincetown Municipal Airport,Provincetown,US,Massachusetts,7.8,42.0722777777778,-70.2207222222222,America/New_York
1320,PVD,Rhode Island Tf Green International Airport,Providence,US,Rhode Island,54.0,41.7223333333333,-71.4277222222222,America/New_York
1321,PVG,Shanghai Pudong International Airport,Shanghai,CN,Shanghai,13.0,31.1434001923,121.8050003052,Asia/Shanghai
1322,PVR,Licenciado Gustavo Diaz Ordaz International Airport,Puerto Vallarta,MX,Jalisco,23.0,20.6800994873,-105.2539978027,America/Mexico_City
1323,PVS,Provideniya Bay Airport,Chukotka,RU,Chukotka,72.0,64.3780975342,-173.2429962158,Asia/Anadyr
1324,PVU,Provo Municipal Airport,Provo,US,Utah,4496.9,40.2191666666667,-111.723361111111,America/Denver
1325,PVY,,,,,,,,
1326,PWA,Wiley Post Airport,Oklahoma City,US,Oklahoma,1299.6,35.5341638888889,-97.6470527777778,America/Chicago
1327,PWK,,,,,,,,
1328,PWM,Portland International Jetport Airport,Portland,US,Maine,75.7,43.6456435,-70.3086163611111,America/New_York
1329,PWT,Bremerton Ntl Airport,Bremerton,US,Washington,444.0,47.49025,-122.764805555556,America/Los_Angeles
1330,PYM,Plymouth Municipal Airport,Plymouth,US,Massachusetts,148.2,41.9086175,-70.727685,America/New_York
1331,QPG,Paya Lebar Air Base,,SG,,65.0,1.3604199886,103.9100036621,Asia/Singapore
1332,QQB,,,,,,,,
1333,QQN,,,,,,,,
1334,QQY,,,,,,,,
1335,QRO,Queretaro Intercontinental Airport,Queretaro,MX,Queretaro,6296.0,20.6173000336,-100.185997009,America/Mexico_City
1336,RAC,Batten International Airport,Racine,US,Wisconsin,673.6,42.7611666666667,-87.8139166666667,America/Chicago
1337,RAI,Praia International Airport,Praia,CV,Praia,230.0,14.9245004654,-23.4934997559,Atlantic/Cape_Verde
1338,RAK,Menara Airport,Marrakech,MA,Marrakesh-Safi,1545.0,31.6068992615,-8.0362997055,Africa/Casablanca
1339,RAP,Rapid City Regional Airport,Rapid City,US,South Dakota,3203.5,44.0453333333333,-103.057361111111,America/Denver
1340,RAR,Rarotonga International Airport,Avarua,CK,,19.0,-21.2026996613,-159.8059997559,Pacific/Rarotonga
1341,RBA,Rabat-Sale Airport,Rabat,MA,,276.0,34.0514984131,-6.7515201569,Africa/Casablanca
1342,RBB,Borba Airport,Borba,BR,Amazonas,293.0,-4.4063401222,-59.6024017334,America/Boa_Vista
1343,RBD,Dallas Exec Airport,Dallas,US,Texas,660.5,32.6813055555556,-96.8687777777778,America/Chicago
1344,RBG,Roseburg Regional Airport,Roseburg,US,Oregon,533.4,43.2393352777778,-123.3558525,America/Los_Angeles
1345,RBH,,,,,,,,
1346,RBY,Ruby Airport,Ruby,US,Alaska,657.5,64.7272222222222,-155.469888888889,America/Anchorage
1347,RCE,,,,,,,,
1348,RCH,Almirante Padilla Airport,Riohacha,CO,La Guajira,43.0,11.5262,-72.926,America/Bogota
1349,RDB,Red Dog Airport,Red Dog,US,Alaska,969.0,68.0321111111111,-162.899194444444,America/Nome
1350,RDD,Redding Municipal Airport,Redding,US,California,504.7,40.5089722222222,-122.293388888889,America/Los_Angeles
1351,RDG,Reading Regional/Carl A Spaatz Field,Reading,US,Pennsylvania,343.4,40.3784986111111,-75.9652472222222,America/New_York
1352,RDM,Roberts Field,Redmond,US,Oregon,3081.5,44.2540688888889,-121.149971388889,America/Los_Angeles
1353,RDU,Raleigh-Durham International Airport,Raleigh/Durham,US,North Carolina,435.2,35.8776388888889,-78.7874722222222,America/New_York
1354,RDV,,,,,,,,
1355,REC,Guararapes - Gilberto Freyre International Airport,Recife,BR,Pernambuco,33.0,-8.1264896393,-34.9235992432,America/Recife
1356,RFD,Chicago/Rockford International Airport,Chicago/Rockford,US,Illinois,742.0,42.1953611111111,-89.0972222222222,America/Chicago
1357,RGA,Hermes Quijada International Airport,Rio Grande,AR,Tierra-del-Fuego,65.0,-53.7777,-67.7494,America/Argentina/Ushuaia
1358,RHI,Rhinelander/Oneida County Airport,Rhinelander,US,Wisconsin,1623.3,45.6309005555556,-89.4666277777778,America/Chicago
1359,RIC,Richmond International Airport,Richmond,US,Virginia,167.5,37.5051811111111,-77.3197386111111,America/New_York
1360,RIL,Rifle Garfield County Airport,Rifle,US,Colorado,5536.8,39.5266066666667,-107.727986944444,America/Denver
1361,RIV,March Arb Airport,Riverside,US,California,1536.0,33.8819433333333,-117.259016944444,America/Los_Angeles
1362,RIW,Central Wyoming Regional Airport,Riverton,US,Wyoming,5515.9,43.06425,-108.459833333333,America/Denver
1363,RIX,Riga International Airport,Riga,LV,Marupe,36.0,56.9235992432,23.9710998535,Europe/Riga
1364,RKD,Knox County Regional Airport,Rockland,US,Maine,55.4,44.0601422222222,-69.0996697222222,America/New_York
1365,RKS,Southwest Wyoming Regional Airport,Rock Springs,US,Wyoming,6764.6,41.5942222222222,-109.065194444444,America/Denver
1366,RLG,Rostock-Laage Airport,Rostock,DE,Mecklenburg-Vorpommern,138.0,53.9182014465,12.2783002853,Europe/Berlin
1367,RLU,,,,,,,,
1368,RME,Griffiss International Airport,Rome,US,New York,504.0,43.2337994444444,-75.4070258333333,America/New_York
1369,RMG,Richard B Russell Regional - J H Towers Field,Rome,US,Georgia,644.1,34.3507777777778,-85.1586666666667,America/New_York
1370,RMP,,,,,,,,
1371,RMS,Ramstein Air Base,Ramstein,DE,Rheinland-Pfalz,776.0,49.4369010925,7.600279808,Europe/Berlin
1372,RNO,Reno/Tahoe International Airport,Reno,US,Nevada,4414.9,39.4991111111111,-119.768111111111,America/Los_Angeles
1373,RNT,Renton Municipal Airport,Renton,US,Washington,32.0,47.4931388888889,-122.21575,America/Los_Angeles
1374,ROA,Roanoke/Blacksburg Regional (Woodrum Field) Airport,Roanoke,US,Virginia,1175.2,37.3254722222222,-79.9754166666667,America/New_York
1375,ROB,Roberts International Airport,Monrovia,LR,Margibi,31.0,6.2337899208,-10.3622999191,Africa/Monrovia
1376,ROC,Frederick Douglass/Greater Rochester International Airport,Rochester,US,New York,558.9,43.1191436111111,-77.6718688888889,America/New_York
1377,ROG,Rogers Exec - Carter Field,Rogers,US,Arkansas,1358.8,36.3724166666667,-94.1069722222222,America/Chicago
1378,ROP,Benjamin Taisacan Manglona International Airport,Rota Island,MP,,606.3,14.1743494444444,145.241119166667,Pacific/Saipan
1379,ROR,Babelthuap/Koror Airport,Babelthuap Island,PW,,176.5,7.36730555555556,134.54425,Pacific/Palau
1380,ROS,Islas Malvinas Airport,Rosario,AR,Santa Fe,85.0,-32.9036,-60.785,America/Argentina/Cordoba
1381,ROV,Platov International Airport,Rostov-on-Don,RU,Rostov,282.0,47.50083333,39.93361111,Europe/Moscow
1382,ROW,Roswell Air Center Airport,Roswell,US,New Mexico,3671.0,33.2998696666667,-104.529397638889,America/Denver
1383,RQI,,,,,,,,
1384,RQR,,,,,,,,
1385,RQZ,,,,,,,,
1386,RSD,Rock Sound Airport,Rock Sound,BS,South Eleuthera,10.0,24.8950787333,-76.1768817902,America/Nassau
1387,RSH,Russian Mission Airport,Russian Mission,US,Alaska,58.3,61.7748902777778,-161.319398722222,America/Anchorage
1388,RSJ,,,,,,,,
1389,RSL,Russell Municipal Airport,Russell,US,Kansas,1863.5,38.8713635833333,-98.8116037222222,America/Chicago
1390,RST,Rochester International Airport,Rochester,US,Minnesota,1317.4,43.9082777777778,-92.5000277777778,America/Chicago
1391,RSW,Southwest Florida International Airport,Fort Myers,US,Florida,29.7,26.5361666666667,-81.7551666666667,America/New_York
1392,RTB,Juan Manuel Galvez International Airport,Roatan Island,HN,Bay-Islands,18.0,16.3167991638,-86.5230026245,America/Tegucigalpa
1393,RU3,,,,,,,,
1394,RUH,King Khaled International Airport,Riyadh,SA,,2049.0,24.9575996399,46.6987991333,Asia/Riyadh
1395,RUT,Rutland/Southern Vermont Regional Airport,Rutland,US,Vermont,787.3,43.5297302777778,-72.9496261111111,America/New_York
1396,RWI,Rocky Mount/Wilson Regional Airport,Rocky Mount,US,North Carolina,157.7,35.8562527777778,-77.8919333333333,America/New_York
1397,RZE,Rzeszow-Jasionka Airport,Rzeszow,PL,Subcarpathian-Voivodeship,675.0,50.1100006104,22.0189990997,Europe/Warsaw
1398,S27,,,,,,,,
1399,SAA,Shively Field,Saratoga,US,Wyoming,7014.2,41.4435277777778,-106.827527777778,America/Denver
1400,SAC,Sacramento Exec Airport,Sacramento,US,California,23.6,38.5128611111111,-121.493300277778,America/Los_Angeles
1401,SAF,Santa Fe Municipal Airport,Santa Fe,US,New Mexico,6348.7,35.6171111111111,-106.089416666667,America/Denver
1402,SAL,El Salvador International Airport,Santa Clara,SV,La Paz,101.0,13.4408998489,-89.0557022095,America/El_Salvador
1403,SAN,San Diego International Airport,San Diego,US,California,16.8,32.7335627777778,-117.189663333333,America/Los_Angeles
1404,SAP,Ramon Villeda Morales International Airport,La Mesa,HN,Cortes,91.0,15.4525995255,-87.9235992432,America/Tegucigalpa
1405,SAT,San Antonio International Airport,San Antonio,US,Texas,809.1,29.5339583333333,-98.4690569444444,America/Chicago
1406,SAV,Savannah/Hilton Head International Airport,Savannah,US,Georgia,50.2,32.1275833333333,-81.2021388888889,America/New_York
1407,SAW,Sabiha Gokcen International Airport,Istanbul,TR,Istanbul,312.0,40.898601532,29.3092002869,Europe/Istanbul
1408,SBA,Santa Barbara Municipal Airport,Santa Barbara,US,California,13.4,34.4261913611111,-119.841492694444,America/Los_Angeles
1409,SBH,Gustaf III Airport,Gustavia,BL,,49.0,17.9043998718,-62.8436012268,America/St_Barthelemy
1410,SBM,Sheboygan County Memorial Airport,Sheboygan,US,Wisconsin,755.2,43.7697777777778,-87.8517222222222,America/Chicago
1411,SBN,South Bend International Airport,South Bend,US,Indiana,798.4,41.7082238888889,-86.3173375,America/Indiana/Indianapolis
1412,SBO,,,,,,,,
1413,SBP,San Luis County Regional Airport,San Luis Obispo,US,California,212.3,35.2372777777778,-120.642611111111,America/Los_Angeles
1414,SBY,Salisbury-Ocean City Wicomico Regional Airport,Salisbury,US,Maryland,52.5,38.3401894444444,-75.5094780555556,America/New_York
1415,SC1,,,,,,,,
1416,SCC,Deadhorse Airport,Deadhorse,US,Alaska,67.4,70.1947541111111,-148.465164861111,America/Anchorage
1417,SCE,University Park Airport,State College,US,Pennsylvania,1231.3,40.85,-77.8475833333333,America/New_York
1418,SCF,Scottsdale Airport,Scottsdale,US,Arizona,1510.1,33.6228888888889,-111.910527777778,America/Phoenix
1419,SCH,Schenectady County Airport,Schenectady,US,New York,377.9,42.8527183333333,-73.9295644444445,America/New_York
1420,SCK,Stockton Metro Airport,Stockton,US,California,33.2,37.8944102777778,-121.23874,America/Los_Angeles
1421,SCL,Comodoro Arturo Merino Benitez International Airport,Santiago,CL,Santiago-Metropolitan,1555.0,-33.3930015564,-70.7857971191,America/Santiago
1422,SCM,Scammon Bay Airport,Scammon Bay,US,Alaska,22.0,61.8445416666667,-165.57375,America/Anchorage
1423,SCQ,Santiago de Compostela Airport,Santiago de Compostela,ES,Galicia,1213.0,42.8963012695,-8.415140152,Europe/Madrid
1424,SCU,Antonio Maceo International Airport,Santiago,CU,Santiago-de-Cuba,249.0,19.9698009491,-75.8354034424,America/Havana
1425,SD2,,,,,,,,
1426,SDF,Louisville Muhammad Ali International Airport,Louisville,US,Kentucky,500.8,38.174085,-85.7364936111111,America/Kentucky/Louisville
1427,SDJ,Sendai Airport,Sendai,JP,Miyagi,15.0,38.1397018433,140.917007446,Asia/Tokyo
1428,SDM,Brown Field Municipal Airport,San Diego,US,California,526.1,32.5722777777778,-116.980166666667,America/Los_Angeles
1429,SDP,Sand Point Airport,Sand Point,US,Alaska,23.6,55.3136952777778,-160.521424722222,America/Anchorage
1430,SDQ,Las Americas International Airport,Santo Domingo,DO,Nacional,59.0,18.4297008514,-69.6688995361,America/Santo_Domingo
1431,SDX,Sedona Airport,Sedona,US,Arizona,4830.5,34.8485891666667,-111.7884475,America/Phoenix
1432,SDY,Sidney-Richland Regional Airport,Sidney,US,Montana,1985.3,47.7068611111111,-104.192555555556,America/Denver
1433,SEA,Seattle-Tacoma International Airport,Seattle,US,Washington,432.3,47.4498888888889,-122.311777777778,America/Los_Angeles
1434,SEN,Southend Airport,Southend,GB,England,49.0,51.5713996887,0.695555985,Europe/London
1435,SFB,Orlando Sanford International Airport,Orlando,US,Florida,54.9,28.7771780555556,-81.2349138888889,America/New_York
1436,SFJ,Kangerlussuaq Airport,Kangerlussuaq,GL,Qeqqata,165.0,67.0122218992,-50.7116031647,America/Nuuk
1437,SFO,San Francisco International Airport,San Francisco,US,California,13.1,37.6188055555556,-122.375416666667,America/Los_Angeles
1438,SGF,Springfield-Branson Ntl Airport,Springfield,US,Missouri,1268.3,37.2456666666667,-93.3886388888889,America/Chicago
1439,SGH,Springfield/Beckley Municipal Airport,Springfield,US,Ohio,1051.3,39.8402777777778,-83.8401666666667,America/New_York
1440,SGN,Tan Son Nhat International Airport,Ho Chi Minh City,VN,Ho-Chi-Minh-City,33.0,10.8187999725,106.652000427,Asia/Ho_Chi_Minh
1441,SGR,Sugar Land Regional Airport,Houston,US,Texas,81.1,29.6222486111111,-95.6565341666667,America/Chicago
1442,SGU,St George Regional Airport,St George,US,Utah,2883.6,37.0363780555556,-113.510302777778,America/Denver
1443,SGY,Skagway Airport,Skagway,US,Alaska,44.0,59.4602,-135.316859722222,America/Anchorage
1444,SHA,Shanghai Hongqiao International Airport,Shanghai,CN,Shanghai,10.0,31.1979007721,121.3359985352,Asia/Shanghai
1445,SHD,Shenandoah Valley Regional Airport,Staunton/Waynesboro/Harrisonburg,US,Virginia,1201.0,38.2638333333333,-78.8964444444445,America/New_York
1446,SHG,,,,,,,,
1447,SHH,Shishmaref Airport,Shishmaref,US,Alaska,13.9,66.2495833333333,-166.089361111111,America/Anchorage
1448,SHJ,Sharjah International Airport,Sharjah,AE,Ash-Shariqah,111.0,25.3285999298,55.51720047,Asia/Dubai
1449,SHR,Sheridan County Airport,Sheridan,US,Wyoming,4021.1,44.7691944444444,-106.980277777778,America/Denver
1450,SHV,Shreveport Regional Airport,Shreveport,US,Louisiana,257.6,32.4465152777778,-93.82604,America/Chicago
1451,SHX,Shageluk Airport,Shageluk,US,Alaska,78.6,62.6923055555555,-159.569222222222,America/Anchorage
1452,SID,Amilcar Cabral International Airport,Espargos,CV,Sal,177.0,16.741399765,-22.9493999481,Atlantic/Cape_Verde
1453,SIG,Fernando Luis Ribas Dominicci Airport,San Juan,US,Puerto Rico,9.8,18.4567777777778,-66.0984722222222,America/Puerto_Rico
1454,SIN,Singapore Changi International Airport,Singapore,SG,North East,22.0,1.3501900434,103.9940032959,Asia/Singapore
1455,SIT,Sitka Rocky Gutierrez Airport,Sitka,US,Alaska,26.5,57.0468343611111,-135.361068694444,America/Anchorage
1456,SJC,Norman Y Mineta San Jose International Airport,San Jose,US,California,62.2,37.3629947222222,-121.928620555556,America/Los_Angeles
1457,SJD,Los Cabos International Airport,San Jose del Cabo,MX,Baja California Sur,374.0,23.1518001556,-109.7210006714,America/Mazatlan
1458,SJJ,Sarajevo International Airport,Sarajevo,BA,Federation-of-B&H,1708.0,43.8246002197,18.3314990997,Europe/Sarajevo
1459,SJK,Professor Urbano Ernesto Stumpf Airport,Sao Jose Dos Campos,BR,São Paulo,2120.0,-23.2292003632,-45.8614997864,America/Sao_Paulo
1460,SJO,Juan Santamaria International Airport,San Jose,CR,Alajuela,3021.0,9.9938602448,-84.2088012695,America/Costa_Rica
1461,SJT,San Angelo Regional/Mathis Field,San Angelo,US,Texas,1918.6,31.3577483333333,-100.496304166667,America/Chicago
1462,SJU,Luis Munoz Marin International Airport,San Juan,US,Puerto Rico,9.6,18.4393991666667,-66.0021333333333,America/Puerto_Rico
1463,SKB,Robert L. Bradshaw International Airport,Basseterre,KN,Saint-George-Basseterre,170.0,17.3111991882,-62.7187004089,America/St_Kitts
1464,SKF,Kelly Field,San Antonio,US,Texas,690.6,29.3842333333333,-98.5811166666667,America/Chicago
1465,SKJ,,,,,,,,
1466,SKK,Shaktoolik Airport,Shaktoolik,US,Alaska,24.4,64.3710833333333,-161.223972222222,America/Anchorage
1467,SKW,Skwentna Airport,Skwentna,US,Alaska,148.0,61.9661125,-151.195390277778,America/Anchorage
1468,SKY,,,,,,,,
1469,SLA,Martin Miguel De Guemes International Airport,Salta,AR,Salta,4088.0,-24.8560009003,-65.4861984253,America/Argentina/Salta
1470,SLC,Salt Lake City International Airport,Salt Lake City,US,Utah,4230.9,40.7883933333333,-111.977773333333,America/Denver
1471,SLE,Mcnary Field,Salem,US,Oregon,213.4,44.9095277777778,-123.0025,America/Los_Angeles
1472,SLJ,Solomon Airport,Karijini National Park,AU,Western Australia,2021.0,-22.255278,117.761944,Australia/Perth
1473,SLK,Adirondack Regional Airport,Saranac Lake,US,New York,1662.6,44.3853080555556,-74.2061813888889,America/New_York
1474,SLN,Salina Regional Airport,Salina,US,Kansas,1288.0,38.7906111111111,-97.6522222222222,America/Chicago
1475,SLP,Ponciano Arriaga International Airport,San Luis Potosi,MX,San Luis Potosi,6035.0,22.2542991638,-100.930999756,America/Mexico_City
1476,SLQ,Sleetmute Airport,Sleetmute,US,Alaska,191.6,61.7005094444444,-157.165849722222,America/Anchorage
1477,SLU,George F. L. Charles Airport,Castries,LC,Castries,22.0,14.0202,-60.992901,America/St_Lucia
1478,SLW,Plan De Guadalupe International Airport,Saltillo,MX,Coahuila,4778.0,25.5494995117,-100.9290008545,America/Monterrey
1479,SMA,Santa Maria Airport,Vila do Porto,PT,Azores,308.0,36.9714012146,-25.1706008911,Atlantic/Azores
1480,SMF,Sacramento International Airport,Sacramento,US,California,26.9,38.6954444444444,-121.590777777778,America/Los_Angeles
1481,SMK,St Michael Airport,St Michael,US,Alaska,98.2,63.4900555555556,-162.110388888889,America/Nome
1482,SMO,Santa Monica Municipal Airport,Santa Monica,US,California,169.8,34.0158219444444,-118.451306111111,America/Los_Angeles
1483,SMR,Simon Bolivar International Airport,Santa Marta,CO,Magdalena,22.0,11.1196,-74.2306,America/Bogota
1484,SMX,Santa Maria Pub/Capt G Allan Hancock Field,Santa Maria,US,California,261.2,34.8999444444444,-120.458083333333,America/Los_Angeles
1485,SNA,John Wayne/Orange County Airport,Santa Ana,US,California,55.9,33.6756619444444,-117.868233055556,America/Los_Angeles
1486,SNF,Sub Teniente Nestor Arias Airport,San Felipe,VE,Yaracuy,761.0,10.2786998749,-68.7552032471,America/Caracas
1487,SNK,Winston Field,Snyder,US,Texas,2430.3,32.6933888888889,-100.950472222222,America/Chicago
1488,SNN,Shannon Airport,Shannon,IE,Munster,46.0,52.7019996643,-8.9248199463,Europe/Dublin
1489,SNP,St Paul Island Airport,St Paul Island,US,Alaska,66.4,57.1663055555556,-170.222555555556,America/Adak
1490,SNS,Salinas Municipal Airport,Salinas,US,California,84.3,36.6627865,-121.606366416667,America/Los_Angeles
1491,SNY,Sidney Municipal/Lloyd W Carr Field,Sidney,US,Nebraska,4314.2,41.0997608333333,-102.984993055556,America/Denver
1492,SOF,Sofia Airport,Sofia,BG,Sofia-Capital,1742.0,42.6966934204,23.4114360809,Europe/Sofia
1493,SOP,Moore County Airport,Pinehurst/Southern Pines,US,North Carolina,459.3,35.2374225,-79.3890336111111,America/New_York
1494,SOV,Seldovia Airport,Seldovia,US,Alaska,29.0,59.4439055555556,-151.705041666667,America/Anchorage
1495,SOW,Show Low Regional Airport,Show Low,US,Arizona,6415.5,34.2654716666667,-110.0056625,America/Phoenix
1496,SPB,,,,,,,,
1497,SPI,Abraham Lincoln Capital Airport,Springfield,US,Illinois,597.8,39.8446136111111,-89.6775466666667,America/Chicago
1498,SPM,Spangdahlem Air Base,Trier,DE,Rheinland-Pfalz,1197.0,49.9726982117,6.6925001144,Europe/Berlin
1499,SPN,Francisco C Ada/Saipan International Airport,Saipan Island,MP,,214.0,15.1202486111111,145.729986388889,Pacific/Saipan
1500,SPS,Sheppard Afb/Wichita Falls Municipal Airport,Wichita Falls,US,Texas,1019.1,33.9888005555556,-98.4919025,America/Chicago
1501,SPW,Spencer Municipal Airport,Spencer,US,Iowa,1338.9,43.1656519444444,-95.2027930555556,America/Chicago
1502,SQA,Santa Ynez Airport,Santa Ynez,US,California,674.3,34.6068152777778,-120.07555,America/Los_Angeles
1503,SQV,,,,,,,,
1504,SRQ,Sarasota/Bradenton International Airport,Sarasota/Bradenton,US,Florida,29.9,27.3954444444444,-82.5543888888889,America/New_York
1505,SRV,,,,,,,,
1506,SSA,Deputado Luiz Eduardo Magalhaes International Airport,Salvador,BR,Bahia,64.0,-12.9086112976,-38.3224983215,America/Bahia
1507,SSB,,,,,,,,
1508,SSC,Shaw Afb Airport,Sumter,US,South Carolina,241.0,33.9727240277778,-80.4705643611111,America/New_York
1509,SSG,Malabo Airport,Malabo,GQ,,76.0,3.7552700043,8.7087202072,Africa/Malabo
1510,SSI,St Simons Island Airport,St Simons Island,US,Georgia,18.9,31.1519663888889,-81.3910597222222,America/New_York
1511,SSW,,,,,,,,
1512,STC,St Cloud Regional Airport,St Cloud,US,Minnesota,1030.5,45.5462222222222,-94.0593888888889,America/Chicago
1513,STE,Stevens Point Municipal Airport,Stevens Point,US,Wisconsin,1110.0,44.5451355555556,-89.5302844444444,America/Chicago
1514,STG,St George Airport,St George,US,Alaska,127.9,56.5773611111111,-169.663722222222,America/Anchorage
1515,STI,Cibao International Airport,Santiago,DO,Dajabon,565.0,19.4060993195,-70.6046981812,America/Santo_Domingo
1516,STJ,Rosecrans Memorial Airport,St Joseph,US,Missouri,826.5,39.7719444444444,-94.9097055555556,America/Chicago
1517,STL,St Louis Lambert International Airport,St Louis,US,Missouri,617.3,38.7486982222222,-90.3700257222222,America/Chicago
1518,STN,London Stansted Airport,London,GB,England,348.0,51.8849983215,0.2349999994,Europe/London
1519,STP,St Paul Downtown Holman Field,St Paul,US,Minnesota,705.4,44.9346225,-93.0603424444444,America/Chicago
1520,STR,Stuttgart Airport,Stuttgart,DE,Baden-Württemberg,1276.0,48.6898994446,9.2219600677,Europe/Berlin
1521,STS,Charles M Schulz - Sonoma County Airport,Santa Rosa,US,California,128.7,38.5096944444444,-122.812888888889,America/Los_Angeles
1522,STT,Cyril E King Airport,Charlotte Amalie,US,Virgin Islands,23.6,18.3373055555556,-64.9733333333333,America/St_Thomas
1523,STX,Henry E Rohlsen Airport,Christiansted,US,Virgin Islands,74.1,17.7015044444444,-64.8019429166667,America/St_Thomas
1524,SUN,Friedman Memorial Airport,Hailey,US,Idaho,5319.5,43.5037805555556,-114.295558333333,America/Denver
1525,SUS,Spirit Of St Louis Airport,St Louis,US,Missouri,463.2,38.6621111111111,-90.6520555555556,America/Chicago
1526,SUU,Travis Afb Airport,Fairfield,US,California,63.4,38.2645366666667,-121.924131472222,America/Los_Angeles
1527,SUX,Sioux Gateway/Brig General Bud Day Field,Sioux City,US,Iowa,1098.4,42.4013094444444,-96.3844180555556,America/Chicago
1528,SVA,Savoonga Airport,Savoonga,US,Alaska,59.0,63.6862777777778,-170.493166666667,America/Anchorage
1529,SVC,Grant County Airport,Silver City,US,New Mexico,5445.6,32.6365469444444,-108.156385277778,America/Denver
1530,SVD,E. T. Joshua Airport,Kingstown,VC,Saint-George,66.0,13.1443004608,-61.210899353,America/St_Vincent
1531,SVG,Stavanger Airport Sola,Stavanger,NO,Rogaland,29.0,58.876701355,5.6377801895,Europe/Oslo
1532,SVH,Statesville Regional Airport,Statesville,US,North Carolina,967.8,35.765,-80.9538888888889,America/New_York
1533,SVN,Hunter Army Air Field,Savannah,US,Georgia,41.3,32.0100202777778,-81.1459877777778,America/New_York
1534,SVO,Sheremetyevo International Airport,Moscow,RU,Moscow-Oblast,622.0,55.9725990295,37.4146003723,Europe/Moscow
1535,SVQ,Sevilla Airport,Sevilla,ES,Andalusia,112.0,37.4179992676,-5.8931097984,Europe/Madrid
1536,SVS,,,,,,,,
1537,SVW,Sparrevohn Lrrs Airport,Sparrevohn,US,Alaska,1565.0,61.0971138888889,-155.574808333333,America/Anchorage
1538,SWB,,,,,,,,
1539,SWD,Seward Airport,Seward,US,Alaska,27.7,60.1298858611111,-149.416629444444,America/Anchorage
1540,SWF,New York Stewart International Airport,New York,US,New York,490.7,41.5041111111111,-74.1048333333333,America/New_York
1541,SWO,Stillwater Regional Airport,Stillwater,US,Oklahoma,1000.3,36.1613894444444,-97.0858933333333,America/Chicago
1542,SXF,,,,,,,,
1543,SXM,Princess Juliana International Airport,Saint Martin,SX,,13.0,18.0410003662,-63.1088981628,America/Lower_Princes
1544,SXP,,,,,,,,
1545,SXQ,Soldotna Airport,Soldotna,US,Alaska,113.4,60.4751388888889,-151.039638888889,America/Anchorage
1546,SYA,Eareckson As Airport,Shemya,US,Alaska,97.7,52.7122583333333,174.113588888889,America/Adak
1547,SYB,,,,,,,,
1548,SYD,Sydney Kingsford Smith International Airport,Sydney,AU,New South Wales,21.0,-33.9460983276,151.1770019531,Australia/Sydney
1549,SYR,Syracuse Hancock International Airport,Syracuse,US,New York,421.4,43.1111944444444,-76.1063055555556,America/New_York
1550,SZG,Salzburg Airport,Salzburg,AT,Salzburg,1411.0,47.7933006287,13.0043001175,Europe/Vienna
1551,SZL,Whiteman Afb Airport,Knob Noster,US,Missouri,871.0,38.7303055555556,-93.5478638888889,America/Chicago
1552,SZT,San Cristobal De Las Casas Airport,,MX,Chiapas,7707.0,16.6902999878,-92.5300979614,America/Mexico_City
1553,SZW,Schwerin Parchim Airport,,DE,Mecklenburg-Vorpommern,166.0,53.4269981384,11.7833995819,Europe/Berlin
1554,SZX,Shenzhen Bao'an International Airport,Shenzhen,CN,Guangdong,13.0,22.6392993927,113.8109970093,Asia/Shanghai
1555,TAB,Tobago-Crown Point Airport,Scarborough,TT,Tobago,38.0,11.1497001648,-60.8321990967,America/Port_of_Spain
1556,TAK,Takamatsu Airport,Takamatsu,JP,Kagawa,607.0,34.2141990662,134.01600647,Asia/Tokyo
1557,TAL,Ralph M Calhoun Memorial Airport,Tanana,US,Alaska,242.3,65.1743888888889,-152.108111111111,America/Anchorage
1558,TAM,General Francisco Javier Mina International Airport,Tampico,MX,Tamaulipas,80.0,22.2964000702,-97.8658981323,America/Mexico_City
1559,TAO,Liuting Airport,Qingdao,CN,Shandong,33.0,36.2661018372,120.374000549,Asia/Shanghai
1560,TAR,Taranto / Grottaglie Airport,Grottaglie,IT,Apulia,215.0,40.5175018311,17.4032001495,Europe/Rome
1561,TAS,Tashkent International Airport,Tashkent,UZ,Toshkent-Shahri,1417.0,41.257900238,69.2811965942,Asia/Samarkand
1562,TBI,New Bight Airport,Cat Island,BS,Cat-Island,5.0,24.3152999878,-75.4523010254,America/Nassau
1563,TBN,Waynesville-St Robert Regional Forney Field,Fort Leonard Wood,US,Missouri,1159.5,37.7416388888889,-92.1407222222222,America/Chicago
1564,TBR,Statesboro-Bulloch County Airport,Statesboro,US,Georgia,186.7,32.48275,-81.7369444444444,America/New_York
1565,TBS,Tbilisi International Airport,Tbilisi,GE,,1624.0,41.6692008972,44.95470047,Asia/Tbilisi
1566,TCB,Treasure Cay Airport,Treasure Cay,BS,,8.0,26.745300293,-77.3912963867,America/Nassau
1567,TCL,Tuscaloosa Ntl Airport,Tuscaloosa,US,Alabama,169.9,33.2206288888889,-87.6114038888889,America/Chicago
1568,TCM,Mcchord Field (Joint Base Lewis-Mcchord) Airport,Tacoma,US,Washington,322.0,47.1376777777778,-122.476475,America/Los_Angeles
1569,TCO,La Florida Airport,Tumaco,CO,Narino,8.0,1.81442,-78.7492,America/Bogota
1570,TCT,,,,,,,,
1571,TDF,,,,,,,,
1572,TDZ,Toledo Exec Airport,Toledo,US,Ohio,622.7,41.5649444444444,-83.4822222222222,America/New_York
1573,TEB,Teterboro Airport,Teterboro,US,New Jersey,8.4,40.8501111111111,-74.0608333333333,America/New_York
1574,TEK,,,,,,,,
1575,TER,Lajes Field,Lajes,PT,Azores,180.0,38.7617988586,-27.0907993317,Atlantic/Azores
1576,TEX,Telluride Regional Airport,Telluride,US,Colorado,9069.7,37.9538055555556,-107.90875,America/Denver
1577,TFN,Tenerife Norte Airport,Tenerife Island,ES,Canary-Islands,2076.0,28.4827003479,-16.3414993286,Atlantic/Canary
1578,TFS,Tenerife South Airport,Tenerife Island,ES,Canary-Islands,209.0,28.044500351,-16.5725002289,Atlantic/Canary
1579,TGU,Toncontin International Airport,Tegucigalpa,HN,Francisco-Morazan,3294.0,14.0608997345,-87.2172012329,America/Tegucigalpa
1580,TGZ,Angel Albino Corzo International Airport,Tuxtla Gutierrez,MX,Chiapas,1499.0,16.5636005402,-93.0224990845,America/Mexico_City
1581,THU,Thule Air Base,Thule,GL,Qaasuitsup,251.0,76.5311965942,-68.7032012939,America/Thule
1582,TIJ,General Abelardo L. Rodriguez International Airport,Tijuana,MX,Baja California Sur,489.0,32.5410995483,-116.9700012207,America/Tijuana
1583,TIK,Tinker Afb Airport,Oklahoma City,US,Oklahoma,1290.6,35.41475,-97.3866388888889,America/Chicago
1584,TIQ,Tinian International Airport,Tinian Island,MP,,270.0,14.9992305555556,145.619350833333,Pacific/Saipan
1585,TIW,Tacoma Narrows Airport,Tacoma,US,Washington,294.8,47.2679444444444,-122.578111111111,America/Los_Angeles
1586,TIX,Space Coast Regional Airport,Titusville,US,Florida,33.8,28.5148055555556,-80.7992222222222,America/New_York
1587,TKA,Talkeetna Airport,Talkeetna,US,Alaska,365.0,62.3213719444445,-150.092718333333,America/Anchorage
1588,TKE,,,,,,,,
1589,TKF,Truckee-Tahoe Airport,Truckee,US,California,5904.3,39.3200555555556,-120.139583333333,America/Los_Angeles
1590,TKJ,Tok Junction Airport,Tok,US,Alaska,1642.8,63.3295143055556,-142.953684027778,America/Anchorage
1591,TKK,Chuuk International Airport,Weno Island,FM,,10.4,7.46189083333333,151.843017222222,Pacific/Chuuk
1592,TKU,Turku Airport,Turku,FI,Finland-Proper,161.0,60.5140991211,22.2628002167,Europe/Helsinki
1593,TLA,Teller Airport,Teller,US,Alaska,298.5,65.2403888888889,-166.339388888889,America/Anchorage
1594,TLC,Licenciado Adolfo Lopez Mateos International Airport,Toluca,MX,Mexico,8466.0,19.3370990753,-99.5660018921,America/Mexico_City
1595,TLF,,,,,,,,
1596,TLH,Tallahassee International Airport,Tallahassee,US,Florida,83.1,30.3967541666667,-84.3508688888889,America/New_York
1597,TLJ,Tatalina Lrrs Airport,Takotna,US,Alaska,933.0,62.8949152777778,-155.9780125,America/Anchorage
1598,TLL,Tallinn Airport,Tallinn,EE,Harjumaa,131.0,59.4132995605,24.8327999115,Europe/Tallinn
1599,TLN,Toulon-Hyeres Airport,Toulon/Hyeres/Le Palyvestre,FR,Provence-Alpes-Cote-d'Azur,7.0,43.0973014832,6.1460299492,Europe/Paris
1600,TLS,Toulouse-Blagnac Airport,Toulouse/Blagnac,FR,Occitanie,499.0,43.6291007996,1.3638199568,Europe/Paris
1601,TLT,,,,,,,,
1602,TLV,Ben Gurion International Airport,Tel Aviv,IL,Central District,135.0,32.0113983154,34.8866996765,Asia/Jerusalem
1603,TMB,Miami Exec Airport,Miami,US,Florida,10.0,25.6475637222222,-80.4332246111111,America/New_York
1604,TMP,Tampere-Pirkkala Airport,Tampere / Pirkkala,FI,Pirkanmaa,390.0,61.414100647,23.6044006348,Europe/Helsinki
1605,TN2,,,,,,,,
1606,TN7,,,,,,,,
1607,TNC,Tin City Lrrs Airport,Tin City,US,Alaska,273.0,65.5640333333333,-167.922458333333,America/Nome
1608,TNK,,,,,,,,
1609,TOG,Togiak Airport,Togiak Village,US,Alaska,18.0,59.0535555555556,-160.396777777778,America/Anchorage
1610,TOJ,Torrejon Airport,Madrid,ES,Madrid,2026.0,40.4967002869,-3.4458699226,Europe/Madrid
1611,TOL,Eugene F Kranz Toledo Express Airport,Toledo,US,Ohio,683.9,41.5868166666667,-83.8078266666667,America/New_York
1612,TOY,Toyama Airport,Toyama,JP,Toyama,95.0,36.6483001709,137.18800354,Asia/Tokyo
1613,TPA,Tampa International Airport,Tampa,US,Florida,26.4,27.9754722222222,-82.53325,America/New_York
1614,TPE,Taiwan Taoyuan International Airport,Taipei,TW,Taiwan,106.0,25.0776996613,121.233001709,Asia/Taipei
1615,TRC,Francisco Sarabia International Airport,Torreon,MX,Coahuila,3688.0,25.5683002472,-103.411003113,America/Mexico_City
1616,TRD,Trondheim Airport Vaernes,Trondheim,NO,Nord-Trøndelag,56.0,63.4578018188,10.9239997864,Europe/Oslo
1617,TRI,Tri-Cities Airport,Bristol/Johnson/Kingsport,US,Tennessee,1518.7,36.4752077777778,-82.4074152777778,America/New_York
1618,TRM,Jacqueline Cochran Regional Airport,Palm Springs,US,California,-114.4,33.6266705555556,-116.159654444444,America/Los_Angeles
1619,TRN,Torino / Caselle International Airport,Torino,IT,Piedmont,989.0,45.2008018494,7.6496300697,Europe/Rome
1620,TSE,,,,,,,,
1621,TSF,Treviso / Sant'Angelo Airport,Treviso,IT,Veneto,59.0,45.648399353,12.1943998337,Europe/Rome
1622,TSG,,,,,,,,
1623,TSN,Tianjin Binhai International Airport,Tianjin,CN,Tianjin,10.0,39.1244010925,117.346000671,Asia/Shanghai
1624,TSP,Tehachapi Municipal Airport,Tehachapi,US,California,4001.1,35.1349944444444,-118.4393,America/Los_Angeles
1625,TTH,Thumrait Air Base,Thumrait,OM,Dhofar,1570.0,17.6660003662,54.0246009827,Asia/Muscat
1626,TTN,Trenton Mercer Airport,Trenton,US,New Jersey,212.6,40.2766944444444,-74.8134722222222,America/New_York
1627,TUC,Teniente Benjamin Matienzo Airport,San Miguel de Tucuman,AR,Tucuman,1493.0,-26.8409004211,-65.1048965454,America/Argentina/Tucuman
1628,TUL,Tulsa International Airport,Tulsa,US,Oklahoma,677.5,36.1983936111111,-95.8881055555556,America/Chicago
1629,TUP,Tupelo Regional Airport,Tupelo,US,Mississippi,346.5,34.269,-88.7698888888889,America/Chicago
1630,TUS,Tucson International Airport,Tucson,US,Arizona,2643.0,32.1160691666667,-110.941013888889,America/Phoenix
1631,TVC,Cherry Capital Airport,Traverse City,US,Michigan,623.9,44.7415786111111,-85.58187,America/New_York
1632,TVF,Thief River Falls Regional Airport,Thief River Falls,US,Minnesota,1118.8,48.0656772222222,-96.1849952777778,America/Chicago
1633,TVL,Lake Tahoe Airport,South Lake Tahoe,US,California,6268.4,38.8938888888889,-119.995333333333,America/Los_Angeles
1634,TWA,,,,,,,,
1635,TWD,,,,,,,,
1636,TWF,Joslin Field/Magic Valley Regional Airport,Twin Falls,US,Idaho,4153.4,42.4818091666667,-114.487736111111,America/Boise
1637,TWH,,,,,,,,
1638,TX3,,,,,,,,
1639,TX7,,,,,,,,
1640,TX8,,,,,,,,
1641,TXK,Texarkana Regional-Webb Field,Texarkana,US,Arkansas,389.5,33.4537222222222,-93.9910277777778,America/Chicago
1642,TXL,Berlin-Tegel International Airport,Berlin,DE,Berlin,122.0,52.5597000122,13.2876996994,Europe/Berlin
1643,TYE,,,,,,,,
1644,TYR,Tyler Pounds Regional Airport,Tyler,US,Texas,543.9,32.3535472222222,-95.4029777777778,America/Chicago
1645,TYS,Mc Ghee Tyson Airport,Knoxville,US,Tennessee,986.4,35.8110911111111,-83.9940672222222,America/New_York
1646,U36,,,,,,,,
1647,UAB,Incirlik Air Base,Adana,TR,Adana,238.0,37.0021018982,35.4258995056,Europe/Istanbul
1648,UAM,Andersen Afb Airport,Yigo,GU,,617.4,13.5838861111111,144.930055555556,Pacific/Guam
1649,UBF,,,,,,,,
1650,UDD,Bermuda Dunes Airport,Palm Springs,US,California,73.0,33.7484375,-116.274813333333,America/Los_Angeles
1651,UES,Waukesha County Airport,Waukesha,US,Wisconsin,911.5,43.0410277777778,-88.2370555555556,America/Chicago
1652,UGB,,,,,,,,
1653,UGI,,,,,,,,
1654,UGN,Waukegan Ntl Airport,Chicago/Waukegan,US,Illinois,728.1,42.4221486111111,-87.8679161111111,America/Chicago
1655,UIN,Quincy Regional-Baldwin Field,Quincy,US,Illinois,768.7,39.9430173888889,-91.1944633611111,America/Chicago
1656,UIO,Nuevo Aeropuerto Internacional Mariscal Sucre,Quito,EC,Pichincha,9200.0,-0.1291666667,-78.3575,America/Guayaquil
1657,UKI,Ukiah Municipal Airport,Ukiah,US,California,616.8,39.1259444444444,-123.200861111111,America/Los_Angeles
1658,ULY,Ulyanovsk East Airport,Ulyanovsk,RU,Ulyanovsk,252.0,54.4010009766,48.8027000427,Europe/Ulyanovsk
1659,UMT,Umiat Airport,Umiat,US,Alaska,267.6,69.3711126666667,-152.134982666667,America/Anchorage
1660,UNK,Unalakleet Airport,Unalakleet,US,Alaska,27.3,63.8885,-160.799111111111,America/Anchorage
1661,UOS,Franklin County Airport,Sewanee,US,Tennessee,1953.3,35.2051458333333,-85.8981472222222,America/Chicago
1662,UST,Northeast Florida Regional Airport,St Augustine,US,Florida,9.8,29.9592502777778,-81.3397291666667,America/New_York
1663,UT1,,,,,,,,
1664,UTM,Tunica Municipal Airport,Tunica,US,Mississippi,194.4,34.6850555555556,-90.3477777777778,America/Chicago
1665,UTO,Indian Mountain Lrrs Airport,Utopia Creek,US,Alaska,1261.0,65.9927722222222,-153.703488888889,America/Anchorage
1666,UTP,U-Tapao International Airport,Rayong,TH,Rayong,42.0,12.6799001694,101.0049972534,Asia/Bangkok
1667,UUD,Ulan-Ude Airport (Mukhino),Ulan Ude,RU,Respublika-Buryatiya,1690.0,51.807800293,107.43800354,Asia/Irkutsk
1668,UUK,Ugnu-Kuparuk Airport,Kuparuk,US,Alaska,75.0,70.3306666666667,-149.598055555556,America/Anchorage
1669,UUS,Yuzhno-Sakhalinsk Airport,Yuzhno-Sakhalinsk,RU,Sakhalin,59.0,46.8886985779,142.7180023193,Asia/Vladivostok
1670,UVA,Garner Field,Uvalde,US,Texas,941.9,29.2113333333333,-99.7435833333333,America/Chicago
1671,UVF,Hewanorra International Airport,Vieux Fort,LC,Vieux-Fort,14.0,13.7332,-60.952599,America/St_Lucia
1672,UXM,,,,,,,,
1673,UXO,,,,,,,,
1674,UXP,,,,,,,,
1675,UXR,,,,,,,,
1676,VAD,Moody Afb Airport,Valdosta,US,Georgia,233.2,30.9687,-83.1929638888889,America/New_York
1677,VAK,Chevak Airport,Chevak,US,Alaska,60.7,61.5408333333333,-165.600888888889,America/Anchorage
1678,VBG,Vandenberg Space Force Base Airport,Lompoc,US,California,368.0,34.7373366666667,-120.584312555556,America/Los_Angeles
1679,VCE,Venezia / Tessera -  Marco Polo Airport,Venezia,IT,Veneto,7.0,45.5052986145,12.3519001007,Europe/Rome
1680,VCP,Viracopos International Airport,Campinas,BR,São Paulo,2170.0,-23.0074005127,-47.1344985962,America/Sao_Paulo
1681,VCT,Victoria Regional Airport,Victoria,US,Texas,115.2,28.8542058333333,-96.9187322222222,America/Chicago
1682,VCV,Southern California Logistics Airport,Victorville,US,California,2885.1,34.5974722222222,-117.383,America/Los_Angeles
1683,VDZ,Valdez Pioneer Field,Valdez,US,Alaska,128.0,61.1342219444444,-146.244768055556,America/Anchorage
1684,VEE,Venetie Airport,Venetie,US,Alaska,574.1,67.008675,-146.366358333333,America/Anchorage
1685,VEL,Vernal Regional Airport,Vernal,US,Utah,5274.2,40.4360777777778,-109.5114225,America/Denver
1686,VER,General Heriberto Jara International Airport,Veracruz,MX,Veracruz,90.0,19.1459007263,-96.1873016357,America/Mexico_City
1687,VGC,,,,,,,,
1688,VGT,North Las Vegas Airport,Las Vegas,US,Nevada,2205.0,36.2107029166667,-115.194443194444,America/Los_Angeles
1689,VIE,Vienna International Airport,Vienna,AT,Lower-Austria,600.0,48.1102981567,16.5697002411,Europe/Vienna
1690,VIK,,,,,,,,
1691,VIS,Visalia Municipal Airport,Visalia,US,California,294.5,36.3186388888889,-119.392861111111,America/Los_Angeles
1692,VIT,Vitoria/Foronda Airport,Alava,ES,Basque-Country,1682.0,42.8828010559,-2.7244699001,Europe/Madrid
1693,VIX,Eurico de Aguiar Salles Airport,Vitoria,BR,Espírito Santo,11.0,-20.2580566406,-40.2863883972,America/Sao_Paulo
1694,VKO,Vnukovo International Airport,Moscow,RU,Moscow,685.0,55.5914993286,37.2615013123,Europe/Moscow
1695,VLC,Valencia Airport,Valencia,ES,Valencia,240.0,39.4892997742,-0.4816249907,Europe/Madrid
1696,VLD,Valdosta Regional Airport,Valdosta,US,Georgia,203.2,30.7813722222222,-83.2762194444445,America/New_York
1697,VLN,Arturo Michelena International Airport,Valencia,VE,Carabobo,1411.0,10.1497325897,-67.9283981323,America/Caracas
1698,VNY,Van Nuys Airport,Van Nuys,US,California,802.1,34.2098055555556,-118.489972222222,America/Los_Angeles
1699,VOK,Volk Field,Camp Douglas,US,Wisconsin,912.0,43.9392397222222,-90.2531616666667,America/Chicago
1700,VPS,Eglin Afb/Destin-Ft Walton Beach Airport,Valparaiso/Destin-Ft Walton Beach,US,Florida,84.0,30.4832194166667,-86.5260443333333,America/Chicago
1701,VQS,Antonio Rivera Rodriguez Airport,Isla De Vieques,US,Puerto Rico,49.0,18.1348111111111,-65.4936166666667,America/Puerto_Rico
1702,VRA,Juan Gualberto Gomez International Airport,Varadero,CU,Matanzas,210.0,23.0344009399,-81.4353027344,America/Havana
1703,VRB,Vero Beach Regional Airport,Vero Beach,US,Florida,23.6,27.6555555555556,-80.4179444444444,America/New_York
1704,VSA,Carlos Rovirosa Perez International Airport,Villahermosa,MX,Tabasco,46.0,17.9969997406,-92.8173980713,America/Mexico_City
1705,VUP,Alfonso Lopez Pumarejo Airport,Valledupar,CO,Cesar,483.0,10.435,-73.2495,America/Bogota
1706,VVI,Viru Viru International Airport,Santa Cruz,BO,Santa Cruz,1224.0,-17.6448001862,-63.1353988647,America/La_Paz
1707,VWE,,,,,,,,
1708,VWH,,,,,,,,
1709,VWK,,,,,,,,
1710,VWN,,,,,,,,
1711,VYS,Illinois Valley Regional-Walter A Duncan Field,Peru,US,Illinois,654.2,41.3501388888889,-89.1529444444444,America/Chicago
1712,VZA,,,,,,,,
1713,VZM,,,,,,,,
1714,VZN,,,,,,,,
1715,VZR,,,,,,,,
1716,VZY,,,,,,,,
1717,WA4,,,,,,,,
1718,WAA,Wales Airport,Wales,US,Alaska,25.8,65.6225555555556,-168.094972222222,America/Anchorage
1719,WAW,Warsaw Chopin Airport,Warsaw,PL,Mazovia,362.0,52.1656990051,20.9671001434,Europe/Warsaw
1720,WBB,,,,,,,,
1721,WBQ,Beaver Airport,Beaver,US,Alaska,364.7,66.3622222222222,-147.4065,America/Anchorage
1722,WCR,Chandalar Lake Airport,Chandalar Lake,US,Alaska,1920.0,67.5045166666667,-148.483222222222,America/Anchorage
1723,WDG,Enid Woodring Regional Airport,Enid,US,Oklahoma,1167.2,36.3759444444444,-97.7894166666667,America/Chicago
1724,WFB,,,,,,,,
1725,WGO,Winchester Regional Airport,Winchester,US,Virginia,726.2,39.1435277777778,-78.1444444444444,America/New_York
1726,WHD,,,,,,,,
1727,WJF,General Wm J Fox Airfield,Lancaster,US,California,2350.7,34.7410555555556,-118.218638888889,America/Los_Angeles
1728,WKK,,,,,,,,
1729,WLK,Selawik Airport,Selawik,US,Alaska,17.1,66.6001388888889,-159.98575,America/Anchorage
1730,WMC,Winnemucca Municipal Airport,Winnemucca,US,Nevada,4307.6,40.8966111111111,-117.805888888889,America/Los_Angeles
1731,WMK,,,,,,,,
1732,WMO,White Mountain Airport,White Mountain,US,Alaska,267.4,64.6891944444445,-163.41275,America/Anchorage
1733,WNA,Napakiak Airport,Napakiak,US,Alaska,16.9,60.6903333333333,-161.9785,America/Anchorage
1734,WQZ,,,,,,,,
1735,WRB,Robins Afb Airport,Warner Robins,US,Georgia,294.1,32.6401708333333,-83.5919208333333,America/New_York
1736,WRG,Wrangell Airport,Wrangell,US,Alaska,44.0,56.4843333333333,-132.369833333333,America/Anchorage
1737,WRI,Mc Guire Field (Joint Base Mc Guire Dix Lakehurst) Airport,Wrightstown,US,New Jersey,140.5,40.0155835277778,-74.5916991388889,America/New_York
1738,WRL,Worland Municipal Airport,Worland,US,Wyoming,4251.7,43.9628888888889,-107.950527777778,America/Denver
1739,WSN,South Naknek Nr 2 Airport,South Naknek,US,Alaska,162.3,58.7020833333333,-157.002583333333,America/Anchorage
1740,WST,Westerly State Airport,Westerly,US,Rhode Island,81.1,41.3496329722222,-71.8034168333333,America/New_York
1741,WSX,,,,,,,,
1742,WTK,Noatak Airport,Noatak,US,Alaska,91.6,67.5611666666667,-162.980416666667,America/Anchorage
1743,WTL,,,,,,,,
1744,WVL,Waterville Robert Lafleur Airport,Waterville,US,Maine,332.8,44.53325,-69.6755277777778,America/New_York
1745,WWP,,,,,,,,
1746,WWT,Newtok Airport,Newtok,US,Alaska,25.0,60.9391388888889,-164.64125,America/Nome
1747,WYB,,,,,,,,
1748,WYS,Yellowstone Airport,West Yellowstone,US,Montana,6649.0,44.6883888888889,-111.117638888889,America/Denver
1749,XCM,Chatham Kent Airport,Chatham-Kent,CA,Ontario,650.0,42.3064002991,-82.0819015503,America/Toronto
1750,XCR,Chalons-Vatry Air Base,Chalons/Vatry,FR,Grand Est,587.0,48.7761001587,4.1844902039,Europe/Paris
1751,XMR,,,,,,,,
1752,XNA,Northwest Arkansas Ntl Airport,Fayetteville/Springdale/Rogers,US,Arkansas,1288.2,36.2815791666667,-94.3077655555555,America/Chicago
1753,XWA,Williston Basin International Airport,Williston,US,North Dakota,2356.0,48.2597836111111,-103.750556666667,America/Chicago
1754,XWD,,,,,,,,
1755,XWF,,,,,,,,
1756,XWH,,,,,,,,
1757,XXP,,,,,,,,
1758,XXU,,,,,,,,
1759,XXV,,,,,,,,
1760,XXX,,,,,,,,
1761,XXY,,,,,,,,
1762,YAK,Yakutat Airport,Yakutat,US,Alaska,39.7,59.5033233333333,-139.660268055556,America/Anchorage
1763,YAP,Yap International Airport,Yap Island,FM,,90.7,9.49891111111111,138.082484166667,Pacific/Chuuk
1764,YAZ,Tofino / Long Beach Airport,Tofino,CA,British Columbia,80.0,49.0798255464,-125.775604248,America/Vancouver
1765,YBL,Campbell River Airport,Campbell River,CA,British Columbia,346.0,49.9508018494,-125.2710037231,America/Vancouver
1766,YCB,Cambridge Bay Airport,Cambridge Bay,CA,Nunavut,90.0,69.1081008911,-105.138000488,America/Edmonton
1767,YCD,Nanaimo Airport,Nanaimo,CA,British Columbia,93.0,49.0522994995,-123.8700027466,America/Vancouver
1768,YCF,,,,,,,,
1769,YCH,Miramichi Airport,Miramichi,CA,New Brunswick,108.0,47.0078010559,-65.4492034912,America/Halifax
1770,YCL,Charlo Airport,Charlo,CA,New Brunswick,132.0,47.9907989502,-66.3302993774,America/Halifax
1771,YDA,Dawson City Airport,Dawson City,CA,Yukon,1215.0,64.0430984497,-139.1280059814,America/Vancouver
1772,YDS,,,,,,,,
1773,YEG,Edmonton International Airport,Edmonton,CA,Alberta,2373.0,53.3097000122,-113.580001831,America/Edmonton
1774,YEV,Inuvik Mike Zubko Airport,Inuvik,CA,Northwest Territories,224.0,68.3041992188,-133.483001709,America/Inuvik
1775,YFB,Iqaluit Airport,Iqaluit,CA,Nunavut,110.0,63.756401062,-68.5558013916,America/Toronto
1776,YFC,Fredericton Airport,Fredericton,CA,New Brunswick,68.0,45.8689002991,-66.5372009277,America/Moncton
1777,YGE,,,,,,,,
1778,YGN,,,,,,,,
1779,YHH,,,,,,,,
1780,YHM,John C. Munro Hamilton International Airport,Hamilton,CA,Ontario,780.0,43.1735992432,-79.9349975586,America/Toronto
1781,YHS,,,,,,,,
1782,YHU,Montreal / Saint-Hubert Airport,Montreal,CA,Quebec,90.0,45.5175018311,-73.4169006348,America/Toronto
1783,YHZ,Halifax / Stanfield International Airport,Halifax,CA,Nova Scotia,477.0,44.8807983398,-63.5085983276,America/Halifax
1784,YIG,,,,,,,,
1785,YIP,Willow Run Airport,Detroit,US,Michigan,715.7,42.2402738888889,-83.5314616666667,America/New_York
1786,YJT,Stephenville Airport,Stephenville,CA,Newfoundland and Labrador,84.0,48.5442008972,-58.5499992371,America/St_Johns
1787,YKF,Waterloo Airport,Kitchener,CA,Ontario,1055.0,43.4608001709,-80.3786010742,America/Toronto
1788,YKM,Yakima Air Trml/Mcallister Field,Yakima,US,Washington,1098.8,46.5681666666667,-120.544055555556,America/Los_Angeles
1789,YKZ,Buttonville Municipal Airport,Toronto,CA,Ontario,650.0,43.8622016907,-79.3700027466,America/Toronto
1790,YLW,Kelowna Airport,Kelowna,CA,British Columbia,1409.0,49.9561004639,-119.3779983521,America/Vancouver
1791,YMA,Mayo Airport,Mayo,CA,Yukon,1653.0,63.6164016724,-135.8679962158,America/Vancouver
1792,YMM,Fort McMurray Airport,Fort McMurray,CA,Alberta,1211.0,56.653301239,-111.222000122,America/Edmonton
1793,YMP,,,,,,,,
1794,YMX,Montreal International (Mirabel) Airport,Montreal,CA,Quebec,270.0,45.6795005798,-74.0386962891,America/Toronto
1795,YNG,Youngstown/Warren Regional Airport,Youngstown/Warren,US,Ohio,1191.6,41.2615833333333,-80.6803611111111,America/New_York
1796,YNK,,,,,,,,
1797,YNT,Yantai Laishan Airport,Yantai,CN,Shandong,59.0,37.4016990662,121.3720016479,Asia/Shanghai
1798,YOC,Old Crow Airport,Old Crow,CA,Yukon,824.0,67.570602417,-139.8390045166,America/Vancouver
1799,YOW,Ottawa Macdonald-Cartier International Airport,Ottawa,CA,Ontario,374.0,45.3224983215,-75.6691970825,America/Toronto
1800,YPQ,Peterborough Airport,Peterborough,CA,Ontario,628.0,44.2299995422,-78.3632965088,America/Toronto
1801,YPW,Powell River Airport,Powell River,CA,British Columbia,425.0,49.8342018127,-124.5,America/Vancouver
1802,YQA,Muskoka Airport,Muskoka,CA,Ontario,925.0,44.9747009277,-79.3032989502,America/Toronto
1803,YQB,Quebec Jean Lesage International Airport,Quebec,CA,Quebec,244.0,46.7910995483,-71.3933029175,America/Toronto
1804,YQG,Windsor Airport,Windsor,CA,Ontario,622.0,42.2756004333,-82.9555969238,America/Toronto
1805,YQL,Lethbridge County Airport,Lethbridge,CA,Alberta,3048.0,49.6302986145,-112.800003052,America/Edmonton
1806,YQM,Greater Moncton International Airport,Moncton,CA,New Brunswick,232.0,46.1122016907,-64.6785964966,America/Halifax
1807,YQR,Regina International Airport,Regina,CA,Saskatchewan,1894.0,50.4319000244,-104.6660003662,America/Regina
1808,YQT,Thunder Bay Airport,Thunder Bay,CA,Ontario,653.0,48.3718986511,-89.3238983154,America/Thunder_Bay
1809,YQU,Grande Prairie Airport,Grande Prairie,CA,Alberta,2195.0,55.1796989441,-118.885002136,America/Edmonton
1810,YQX,Gander International Airport,Gander,CA,Newfoundland and Labrador,496.0,48.9369010925,-54.5680999756,America/St_Johns
1811,YQY,Sydney / J.A. Douglas McCurdy Airport,Sydney,CA,Nova Scotia,203.0,46.1613998413,-60.0477981567,America/Glace_Bay
1812,YSC,Sherbrooke Airport,Sherbrooke,CA,Quebec,792.0,45.4385986328,-71.6913986206,America/Toronto
1813,YSJ,Saint John Airport,Saint John,CA,New Brunswick,357.0,45.3161010742,-65.890296936,America/Halifax
1814,YSN,Salmon Arm Airport,Salmon Arm,CA,British Columbia,1751.0,50.682800293,-119.2289962769,America/Vancouver
1815,YTG,,,,,,,,
1816,YTM,La Macaza / Mont-Tremblant International Inc Airport,Riviere Rouge,CA,Quebec,827.0,46.4094009399,-74.7799987793,America/Toronto
1817,YTP,,,,,,,,
1818,YTZ,Billy Bishop Toronto City Centre Airport,Toronto,CA,Ontario,252.0,43.6274986267,-79.3962020874,America/Toronto
1819,YUB,Tuktoyaktuk Airport,Tuktoyaktuk,CA,Northwest Territories,15.0,69.4332962036,-133.0260009766,America/Yellowknife
1820,YUL,Montreal / Pierre Elliott Trudeau International Airport,Montreal,CA,Quebec,118.0,45.4706001282,-73.7407989502,America/Toronto
1821,YUM,Yuma Mcas/Yuma International Airport,Yuma,US,Arizona,213.3,32.6565738888889,-114.605987222222,America/Phoenix
1822,YVR,Vancouver International Airport,Vancouver,CA,British Columbia,14.0,49.193901062,-123.1839981079,America/Vancouver
1823,YWG,Winnipeg / James Armstrong Richardson International Airport,Winnipeg,CA,Manitoba,783.0,49.9099998474,-97.2398986816,America/Winnipeg
1824,YWH,,,,,,,,
1825,YXC,Cranbrook Airport,Cranbrook,CA,British Columbia,3082.0,49.6108016968,-115.7819976807,America/Edmonton
1826,YXE,Saskatoon John G. Diefenbaker International Airport,Saskatoon,CA,Saskatchewan,1653.0,52.1707992554,-106.6999969482,America/Regina
1827,YXS,Prince George Airport,Prince George,CA,British Columbia,2267.0,53.8894004822,-122.6790008545,America/Vancouver
1828,YXU,London Airport,London,CA,Ontario,912.0,43.0355987549,-81.1539001465,America/Toronto
1829,YXX,Abbotsford Airport,Abbotsford,CA,British Columbia,195.0,49.0252990723,-122.361000061,America/Vancouver
1830,YXY,Whitehorse / Erik Nielsen International Airport,Whitehorse,CA,Yukon,2317.0,60.7095985413,-135.067001343,America/Whitehorse
1831,YYC,Calgary International Airport,Calgary,CA,Alberta,3557.0,51.113899231,-114.0199966431,America/Edmonton
1832,YYF,Penticton Airport,Penticton,CA,British Columbia,1129.0,49.4631004333,-119.6019973755,America/Vancouver
1833,YYG,Charlottetown Airport,Charlottetown,CA,Prince Edward Island,160.0,46.2900009155,-63.1211013794,America/Halifax
1834,YYJ,Victoria International Airport,Victoria,CA,British Columbia,63.0,48.646900177,-123.4260025024,America/Vancouver
1835,YYR,Goose Bay Airport,Goose Bay,CA,Newfoundland and Labrador,160.0,53.3191986084,-60.4258003235,America/Goose_Bay
1836,YYT,St. John's International Airport,St. John's,CA,Newfoundland and Labrador,461.0,47.618598938,-52.7518997192,America/St_Johns
1837,YYZ,Lester B. Pearson International Airport,Toronto,CA,Ontario,569.0,43.6772003174,-79.6305999756,America/Toronto
1838,YZF,Yellowknife Airport,Yellowknife,CA,Northwest Territories,675.0,62.4627990723,-114.4400024414,America/Edmonton
1839,YZT,Port Hardy Airport,Port Hardy,CA,British Columbia,71.0,50.6805992126,-127.3669967651,America/Vancouver
1840,ZAZ,Zaragoza Air Base,Zaragoza,ES,Aragon,863.0,41.6661987305,-1.0415500402,Europe/Madrid
1841,ZCL,General Leobardo C. Ruiz International Airport,Zacatecas,MX,Zacatecas,7141.0,22.8971004486,-102.68699646,America/Mexico_City
1842,ZEL,Bella Bella (Campbell Island) Airport,Bella Bella,CA,British Columbia,141.0,52.1850013733,-128.1569976807,America/Vancouver
1843,ZIH,Ixtapa Zihuatanejo International Airport,Ixtapa,MX,Guerrero,26.0,17.601600647,-101.460998535,America/Mexico_City
1844,ZLO,Playa De Oro International Airport,Manzanillo,MX,Colima,30.0,19.1448001862,-104.558998108,America/Mexico_City
1845,ZNA,,,,,,,,
1846,ZNC,,,,,,,,
1847,ZRH,Zurich Airport,Zurich,CH,Zurich,1416.0,47.4646987915,8.5491695404,Europe/Zurich
1848,ZSA,San Salvador Airport,San Salvador,BS,San Salvador,24.0,24.0632991791,-74.5240020752,America/Nassau
1849,ZTS,,,,,,,,
1850,ZXA,,,,,,,,
1851,ZXB,,,,,,,,
1852,ZXC,,,,,,,,
1853,ZXD,,,,,,,,
1854,ZXH,,,,,,,,
1855,ZXM,,,,,,,,
1856,ZXN,,,,,,,,
1857,ZXT,Zabrat Airport,Baku,AZ,Bakı,92.0,40.495111,49.976972,Asia/Baku
1858,ZXU,,,,,,,,
